{
  "type": "FeatureCollection",
  "features": [
    {
      "type": "Feature",
      "geometry": {
        "type": "LineString",
        "coordinates": [
          [
            153.42033,
            -28.56671
          ],
          [
            153.48827,
            -28.56431
          ]
        ]
      },
      "properties": {
        "times": [
          "2026-04-26T07:37:50+00:00",
          "2026-05-03T22:26:32+00:00"
        ],
        "label": "2026-05-03"
      }
    },
    {
      "type": "Feature",
      "geometry": {
        "type": "LineString",
        "coordinates": [
          [
            153.42332,
            -28.57012
          ],
          [
            153.49149,
            -28.56225
          ],
          [
            153.53737,
            -28.55204
          ],
          [
            153.51346,
            -28.48178
          ],
          [
            153.52602,
            -28.41051
          ],
          [
            153.51834,
            -28.32546
          ],
          [
            153.52984,
            -28.25245
          ],
          [
            153.53951,
            -28.20506
          ],
          [
            153.48323,
            -28.15365
          ],
          [
            153.41946,
            -28.11566
          ],
          [
            153.36049,
            -28.06394
          ],
          [
            153.34145,
            -27.98384
          ],
          [
            153.31558,
            -27.90242
          ],
          [
            153.29326,
            -27.82307
          ],
          [
            153.33131,
            -27.78936
          ],
          [
            153.35434,
            -27.77738
          ],
          [
            153.35804,
            -27.73472
          ],
          [
            153.27541,
            -27.72188
          ],
          [
            153.20877,
            -27.71494
          ],
          [
            153.16919,
            -27.65517
          ],
          [
            153.11297,
            -27.61204
          ],
          [
            153.07445,
            -27.55935
          ],
          [
            153.01109,
            -27.46342
          ],
          [
            153.06914,
            -27.43794
          ],
          [
            153.07486,
            -27.40721
          ],
          [
            153.05918,
            -27.33962
          ],
          [
            153.05822,
            -27.28804
          ],
          [
            153.02482,
            -27.30294
          ]
        ]
      },
      "properties": {
        "times": [
          "2026-05-04T01:27:40+00:00",
          "2026-05-04T01:39:56+00:00",
          "2026-05-04T01:51:12+00:00",
          "2026-05-04T01:57:21+00:00",
          "2026-05-04T02:03:32+00:00",
          "2026-05-04T02:09:41+00:00",
          "2026-05-04T03:00:51+00:00",
          "2026-05-04T03:10:25+00:00",
          "2026-05-04T03:19:25+00:00",
          "2026-05-04T03:25:36+00:00",
          "2026-05-04T03:31:45+00:00",
          "2026-05-04T03:37:56+00:00",
          "2026-05-04T03:44:05+00:00",
          "2026-05-04T03:50:14+00:00",
          "2026-05-04T03:59:42+00:00",
          "2026-05-04T05:32:42+00:00",
          "2026-05-04T05:40:58+00:00",
          "2026-05-04T22:31:01+00:00",
          "2026-05-04T22:40:33+00:00",
          "2026-05-04T22:52:52+00:00",
          "2026-05-05T02:06:19+00:00",
          "2026-05-05T03:00:10+00:00",
          "2026-05-05T03:13:44+00:00",
          "2026-05-05T03:22:43+00:00",
          "2026-05-05T05:02:38+00:00",
          "2026-05-05T05:17:53+00:00",
          "2026-05-05T06:45:01+00:00",
          "2026-05-05T07:12:01+00:00"
        ],
        "label": "2026-05-05"
      }
    },
    {
      "type": "Feature",
      "geometry": {
        "type": "LineString",
        "coordinates": [
          [
            152.97748,
            -27.06608
          ],
          [
            152.98237,
            -26.97673
          ],
          [
            153.00428,
            -26.8908
          ],
          [
            153.04066,
            -26.80506
          ],
          [
            153.04625,
            -26.71948
          ],
          [
            153.10304,
            -26.68324
          ],
          [
            153.07179,
            -26.61737
          ],
          [
            153.07399,
            -26.53676
          ]
        ]
      },
      "properties": {
        "times": [
          "2026-05-06T00:42:55+00:00",
          "2026-05-06T00:49:07+00:00",
          "2026-05-06T00:55:17+00:00",
          "2026-05-06T01:01:52+00:00",
          "2026-05-06T01:08:23+00:00",
          "2026-05-06T01:14:37+00:00",
          "2026-05-06T01:20:52+00:00",
          "2026-05-06T01:26:57+00:00"
        ],
        "label": "2026-05-06"
      }
    },
    {
      "type": "Feature",
      "geometry": {
        "type": "LineString",
        "coordinates": [
          [
            153.10556,
            -26.43118
          ],
          [
            153.09064,
            -26.38833
          ]
        ]
      },
      "properties": {
        "times": [
          "2026-05-06T23:49:14+00:00",
          "2026-05-07T00:11:04+00:00"
        ],
        "label": "2026-05-07"
      }
    },
    {
      "type": "Feature",
      "geometry": {
        "type": "LineString",
        "coordinates": [
          [
            152.98059,
            -26.39183
          ],
          [
            152.91805,
            -26.4134
          ],
          [
            152.8736,
            -26.36926
          ],
          [
            152.90762,
            -26.40324
          ],
          [
            152.91132,
            -26.42199
          ],
          [
            152.95012,
            -26.4989
          ],
          [
            152.96442,
            -26.58232
          ],
          [
            152.93014,
            -26.62013
          ],
          [
            152.86604,
            -26.62407
          ]
        ]
      },
      "properties": {
        "times": [
          "2026-05-08T21:51:25+00:00",
          "2026-05-08T21:59:59+00:00",
          "2026-05-08T22:07:40+00:00",
          "2026-05-09T03:51:08+00:00",
          "2026-05-09T06:35:02+00:00",
          "2026-05-09T06:41:56+00:00",
          "2026-05-09T06:48:07+00:00",
          "2026-05-09T06:58:56+00:00",
          "2026-05-09T07:07:38+00:00"
        ],
        "label": "2026-05-09"
      }
    },
    {
      "type": "Feature",
      "geometry": {
        "type": "LineString",
        "coordinates": [
          [
            152.96911,
            -26.62625
          ],
          [
            153.03796,
            -26.63169
          ],
          [
            153.10053,
            -26.63483
          ]
        ]
      },
      "properties": {
        "times": [
          "2026-05-10T06:39:14+00:00",
          "2026-05-10T06:47:47+00:00",
          "2026-05-10T06:58:51+00:00"
        ],
        "label": "2026-05-10"
      }
    },
    {
      "type": "Feature",
      "geometry": {
        "type": "LineString",
        "coordinates": [
          [
            153.07799,
            -26.53747
          ],
          [
            153.05903,
            -26.47852
          ],
          [
            153.05258,
            -26.41544
          ],
          [
            153.04458,
            -26.35333
          ],
          [
            153.06268,
            -26.30315
          ],
          [
            153.09747,
            -26.15293
          ],
          [
            153.12062,
            -26.08582
          ],
          [
            153.17409,
            -25.96208
          ],
          [
            153.15801,
            -25.95027
          ],
          [
            153.15276,
            -26.00538
          ],
          [
            153.11566,
            -25.94747
          ],
          [
            153.08968,
            -25.91656
          ],
          [
            153.07603,
            -25.94301
          ],
          [
            153.06986,
            -25.99885
          ],
          [
            152.99612,
            -26.0039
          ],
          [
            152.9365,
            -25.9515
          ],
          [
            153.00118,
            -25.91952
          ],
          [
            152.98328,
            -25.94262
          ],
          [
            152.90205,
            -25.95584
          ],
          [
            152.85737,
            -25.89388
          ],
          [
            152.86307,
            -25.82045
          ],
          [
            152.85395,
            -25.73879
          ],
          [
            152.84559,
            -25.65111
          ],
          [
            152.76666,
            -25.57529
          ],
          [
            152.70454,
            -25.53126
          ],
          [
            152.72678,
            -25.46606
          ],
          [
            152.76636,
            -25.3961
          ],
          [
            152.80024,
            -25.32211
          ],
          [
            152.8182,
            -25.25304
          ],
          [
            152.76284,
            -25.28374
          ],
          [
            152.68082,
            -25.26937
          ],
          [
            152.60351,
            -25.2355
          ],
          [
            152.61094,
            -25.20262
          ],
          [
            152.5811,
            -25.27252
          ],
          [
            152.57664,
            -25.33546
          ],
          [
            152.483,
            -25.31219
          ],
          [
            152.39073,
            -25.28183
          ],
          [
            152.30547,
            -25.24449
          ],
          [
            152.28433,
            -25.19483
          ],
          [
            152.25679,
            -25.13512
          ],
          [
            152.23356,
            -25.06388
          ],
          [
            152.21614,
            -24.97931
          ],
          [
            152.28435,
            -24.92444
          ],
          [
            152.32124,
            -24.88728
          ],
          [
            152.31531,
            -24.84977
          ],
          [
            152.24508,
            -24.81745
          ],
          [
            152.1665,
            -24.7819
          ],
          [
            152.1019,
            -24.72985
          ],
          [
            152.0621,
            -24.6605
          ],
          [
            151.98617,
            -24.63737
          ],
          [
            151.90073,
            -24.62377
          ],
          [
            151.83826,
            -24.59398
          ],
          [
            151.8137,
            -24.5144
          ],
          [
            151.79048,
            -24.43742
          ],
          [
            151.76497,
            -24.36252
          ],
          [
            151.78603,
            -24.28766
          ],
          [
            151.86018,
            -24.24368
          ],
          [
            151.88517,
            -24.17632
          ]
        ]
      },
      "properties": {
        "times": [
          "2026-05-11T22:25:54+00:00",
          "2026-05-11T22:35:23+00:00",
          "2026-05-11T22:43:28+00:00",
          "2026-05-11T23:30:05+00:00",
          "2026-05-11T23:59:26+00:00",
          "2026-05-12T00:23:16+00:00",
          "2026-05-12T00:36:12+00:00",
          "2026-05-12T00:53:54+00:00",
          "2026-05-12T02:31:08+00:00",
          "2026-05-12T03:59:25+00:00",
          "2026-05-12T04:50:24+00:00",
          "2026-05-12T05:07:41+00:00",
          "2026-05-12T05:53:30+00:00",
          "2026-05-12T22:10:52+00:00",
          "2026-05-12T22:17:01+00:00",
          "2026-05-12T22:23:16+00:00",
          "2026-05-12T22:30:54+00:00",
          "2026-05-12T22:57:14+00:00",
          "2026-05-12T23:03:54+00:00",
          "2026-05-12T23:10:09+00:00",
          "2026-05-12T23:16:15+00:00",
          "2026-05-12T23:22:27+00:00",
          "2026-05-12T23:28:53+00:00",
          "2026-05-12T23:37:02+00:00",
          "2026-05-12T23:47:28+00:00",
          "2026-05-13T00:43:15+00:00",
          "2026-05-13T00:49:27+00:00",
          "2026-05-13T00:56:04+00:00",
          "2026-05-13T01:06:01+00:00",
          "2026-05-13T04:17:21+00:00",
          "2026-05-13T04:54:06+00:00",
          "2026-05-13T05:00:24+00:00",
          "2026-05-13T23:58:13+00:00",
          "2026-05-14T00:04:24+00:00",
          "2026-05-14T00:11:10+00:00",
          "2026-05-14T00:17:51+00:00",
          "2026-05-14T00:23:58+00:00",
          "2026-05-14T00:30:36+00:00",
          "2026-05-14T00:37:56+00:00",
          "2026-05-14T00:48:01+00:00",
          "2026-05-14T00:54:31+00:00",
          "2026-05-14T01:00:52+00:00",
          "2026-05-14T01:07:02+00:00",
          "2026-05-14T02:58:18+00:00",
          "2026-05-14T03:13:43+00:00",
          "2026-05-14T03:23:47+00:00",
          "2026-05-14T03:29:57+00:00",
          "2026-05-14T03:36:06+00:00",
          "2026-05-14T03:42:16+00:00",
          "2026-05-14T03:48:25+00:00",
          "2026-05-14T03:54:35+00:00",
          "2026-05-14T04:01:02+00:00",
          "2026-05-14T04:07:20+00:00",
          "2026-05-14T04:13:39+00:00",
          "2026-05-14T04:19:48+00:00",
          "2026-05-14T04:25:58+00:00",
          "2026-05-14T04:32:07+00:00",
          "2026-05-14T06:34:37+00:00"
        ],
        "label": "2026-05-14"
      }
    },
    {
      "type": "Feature",
      "geometry": {
        "type": "LineString",
        "coordinates": [
          [
            151.89216,
            -24.22036
          ],
          [
            151.86672,
            -24.24022
          ],
          [
            151.78687,
            -24.28072
          ],
          [
            151.76282,
            -24.37203
          ],
          [
            151.71647,
            -24.38921
          ],
          [
            151.62675,
            -24.36016
          ],
          [
            151.55924,
            -24.3265
          ],
          [
            151.50719,
            -24.26903
          ],
          [
            151.47997,
            -24.19001
          ],
          [
            151.43467,
            -24.11182
          ],
          [
            151.37749,
            -24.04021
          ],
          [
            151.36888,
            -23.96113
          ],
          [
            151.3642,
            -23.94494
          ],
          [
            151.31799,
            -23.96687
          ],
          [
            151.28609,
            -23.91511
          ],
          [
            151.26074,
            -23.85888
          ],
          [
            151.24105,
            -23.86733
          ],
          [
            151.17616,
            -23.83463
          ],
          [
            151.1154,
            -23.84045
          ],
          [
            151.03994,
            -23.83778
          ],
          [
            150.96824,
            -23.80544
          ],
          [
            150.88809,
            -23.76799
          ],
          [
            150.81949,
            -23.71883
          ],
          [
            150.73439,
            -23.68698
          ],
          [
            150.65786,
            -23.66843
          ],
          [
            150.60688,
            -23.61005
          ],
          [
            150.55848,
            -23.53447
          ],
          [
            150.52897,
            -23.45405
          ],
          [
            150.50738,
            -23.38558
          ],
          [
            150.56397,
            -23.38379
          ],
          [
            150.61458,
            -23.39237
          ],
          [
            150.67489,
            -23.33124
          ],
          [
            150.76607,
            -23.2527
          ],
          [
            150.78761,
            -23.20207
          ]
        ]
      },
      "properties": {
        "times": [
          "2026-05-16T22:33:43+00:00",
          "2026-05-17T04:02:04+00:00",
          "2026-05-17T04:08:30+00:00",
          "2026-05-17T04:15:52+00:00",
          "2026-05-17T04:22:17+00:00",
          "2026-05-17T04:28:46+00:00",
          "2026-05-17T04:36:16+00:00",
          "2026-05-17T04:43:04+00:00",
          "2026-05-17T04:49:39+00:00",
          "2026-05-17T04:56:03+00:00",
          "2026-05-17T05:02:13+00:00",
          "2026-05-17T05:09:11+00:00",
          "2026-05-17T06:52:21+00:00",
          "2026-05-17T22:10:16+00:00",
          "2026-05-17T22:17:17+00:00",
          "2026-05-17T22:26:11+00:00",
          "2026-05-18T00:31:58+00:00",
          "2026-05-18T00:40:38+00:00",
          "2026-05-18T00:47:19+00:00",
          "2026-05-18T00:54:31+00:00",
          "2026-05-18T01:01:09+00:00",
          "2026-05-18T01:07:27+00:00",
          "2026-05-18T01:13:36+00:00",
          "2026-05-18T01:19:47+00:00",
          "2026-05-18T01:26:23+00:00",
          "2026-05-18T01:32:52+00:00",
          "2026-05-18T01:39:10+00:00",
          "2026-05-18T01:45:21+00:00",
          "2026-05-18T01:53:27+00:00",
          "2026-05-18T02:26:31+00:00",
          "2026-05-18T02:32:57+00:00",
          "2026-05-18T02:39:08+00:00",
          "2026-05-18T02:49:28+00:00",
          "2026-05-18T06:22:33+00:00"
        ],
        "label": "2026-05-18"
      }
    },
    {
      "type": "Feature",
      "geometry": {
        "type": "LineString",
        "coordinates": [
          [
            150.74538,
            -23.12896
          ],
          [
            150.7109,
            -23.14997
          ],
          [
            150.64419,
            -23.2094
          ],
          [
            150.59221,
            -23.27538
          ],
          [
            150.5246,
            -23.31404
          ],
          [
            150.51116,
            -23.38171
          ],
          [
            150.51764,
            -23.33061
          ],
          [
            150.50014,
            -23.25648
          ],
          [
            150.45892,
            -23.17847
          ],
          [
            150.38352,
            -23.13112
          ],
          [
            150.29249,
            -23.10424
          ],
          [
            150.26231,
            -23.02873
          ],
          [
            150.20634,
            -22.95625
          ],
          [
            150.11838,
            -22.89235
          ],
          [
            150.03556,
            -22.88898
          ],
          [
            149.95713,
            -22.83243
          ],
          [
            149.85619,
            -22.81838
          ],
          [
            149.79813,
            -22.77847
          ],
          [
            149.72482,
            -22.73209
          ],
          [
            149.65621,
            -22.70516
          ],
          [
            149.56096,
            -22.64632
          ],
          [
            149.53079,
            -22.56497
          ],
          [
            149.50585,
            -22.48086
          ],
          [
            149.46267,
            -22.40526
          ],
          [
            149.47934,
            -22.32138
          ],
          [
            149.48606,
            -22.23788
          ],
          [
            149.51623,
            -22.15981
          ],
          [
            149.52827,
            -22.11032
          ],
          [
            149.48524,
            -22.04584
          ],
          [
            149.4407,
            -21.9773
          ],
          [
            149.40383,
            -21.90243
          ],
          [
            149.37282,
            -21.83152
          ],
          [
            149.36804,
            -21.74927
          ],
          [
            149.33244,
            -21.6768
          ],
          [
            149.26224,
            -21.62138
          ],
          [
            149.2219,
            -21.55149
          ],
          [
            149.22331,
            -21.46782
          ],
          [
            149.2033,
            -21.37777
          ],
          [
            149.15316,
            -21.16878
          ],
          [
            149.18872,
            -21.13043
          ],
          [
            149.19864,
            -21.11824
          ],
          [
            149.1751,
            -21.16143
          ],
          [
            149.18179,
            -21.11047
          ],
          [
            149.15708,
            -21.0646
          ],
          [
            149.17754,
            -21.04551
          ],
          [
            149.1636,
            -21.09613
          ],
          [
            149.17938,
            -21.1396
          ]
        ]
      },
      "properties": {
        "times": [
          "2026-05-19T21:57:53+00:00",
          "2026-05-19T23:50:28+00:00",
          "2026-05-20T01:43:32+00:00",
          "2026-05-20T01:49:42+00:00",
          "2026-05-20T01:56:00+00:00",
          "2026-05-20T02:17:58+00:00",
          "2026-05-20T04:41:58+00:00",
          "2026-05-20T04:50:08+00:00",
          "2026-05-20T04:56:33+00:00",
          "2026-05-20T05:02:47+00:00",
          "2026-05-20T05:09:30+00:00",
          "2026-05-20T05:15:40+00:00",
          "2026-05-20T05:21:51+00:00",
          "2026-05-20T05:29:01+00:00",
          "2026-05-20T05:35:41+00:00",
          "2026-05-20T05:42:11+00:00",
          "2026-05-20T05:49:08+00:00",
          "2026-05-20T05:56:14+00:00",
          "2026-05-20T06:03:22+00:00",
          "2026-05-20T06:16:32+00:00",
          "2026-05-20T06:24:29+00:00",
          "2026-05-20T06:32:28+00:00",
          "2026-05-20T06:38:37+00:00",
          "2026-05-20T06:44:53+00:00",
          "2026-05-20T06:51:02+00:00",
          "2026-05-20T06:57:13+00:00",
          "2026-05-20T07:03:22+00:00",
          "2026-05-20T21:44:57+00:00",
          "2026-05-20T21:51:15+00:00",
          "2026-05-20T21:57:21+00:00",
          "2026-05-20T22:12:12+00:00",
          "2026-05-20T22:18:21+00:00",
          "2026-05-20T22:24:30+00:00",
          "2026-05-20T22:30:41+00:00",
          "2026-05-20T22:36:50+00:00",
          "2026-05-20T22:43:09+00:00",
          "2026-05-20T22:49:18+00:00",
          "2026-05-20T23:21:43+00:00",
          "2026-05-20T23:41:05+00:00",
          "2026-05-21T01:08:25+00:00",
          "2026-05-21T04:35:48+00:00",
          "2026-05-21T22:40:41+00:00",
          "2026-05-21T23:57:23+00:00",
          "2026-05-22T00:20:35+00:00",
          "2026-05-22T04:54:33+00:00",
          "2026-05-22T05:49:33+00:00",
          "2026-05-22T07:01:23+00:00"
        ],
        "label": "2026-05-22"
      }
    },
    {
      "type": "Feature",
      "geometry": {
        "type": "LineString",
        "coordinates": [
          [
            149.32457,
            -21.00846
          ],
          [
            149.2473,
            -21.04009
          ],
          [
            149.21982,
            -21.11576
          ],
          [
            149.17211,
            -21.0919
          ],
          [
            149.15697,
            -21.03348
          ],
          [
            149.15654,
            -21.0704
          ],
          [
            149.18881,
            -21.12549
          ],
          [
            149.17881,
            -21.12344
          ],
          [
            149.15568,
            -21.18597
          ],
          [
            149.16845,
            -21.14003
          ],
          [
            149.10745,
            -21.11201
          ],
          [
            149.03498,
            -21.08684
          ],
          [
            148.98752,
            -21.036
          ],
          [
            148.9671,
            -20.98951
          ],
          [
            148.96225,
            -20.92503
          ],
          [
            148.9758,
            -20.92237
          ],
          [
            149.04606,
            -20.92285
          ],
          [
            148.99282,
            -20.93079
          ],
          [
            148.92622,
            -20.92104
          ],
          [
            148.86313,
            -20.94589
          ],
          [
            148.80973,
            -20.96752
          ],
          [
            148.75616,
            -20.993
          ],
          [
            148.73103,
            -21.04317
          ],
          [
            148.76062,
            -21.09514
          ],
          [
            148.74314,
            -21.15093
          ],
          [
            148.6791,
            -21.13591
          ],
          [
            148.63567,
            -21.10332
          ],
          [
            148.62325,
            -21.1427
          ],
          [
            148.55046,
            -21.13758
          ],
          [
            148.49744,
            -21.12786
          ],
          [
            148.51432,
            -21.17964
          ],
          [
            148.54153,
            -21.20841
          ],
          [
            148.51332,
            -21.18012
          ],
          [
            148.49594,
            -21.12087
          ],
          [
            148.49719,
            -21.13354
          ],
          [
            148.56403,
            -21.13742
          ],
          [
            148.6381,
            -21.13931
          ],
          [
            148.71198,
            -21.14576
          ],
          [
            148.77898,
            -21.16329
          ],
          [
            148.85385,
            -21.15756
          ],
          [
            148.83967,
            -21.11098
          ],
          [
            148.86672,
            -21.04677
          ],
          [
            148.86224,
            -20.99819
          ],
          [
            148.80955,
            -20.94177
          ],
          [
            148.75068,
            -20.88314
          ],
          [
            148.68168,
            -20.84234
          ],
          [
            148.6196,
            -20.79734
          ],
          [
            148.60209,
            -20.72131
          ],
          [
            148.58437,
            -20.6397
          ],
          [
            148.61618,
            -20.56428
          ],
          [
            148.6097,
            -20.49298
          ],
          [
            148.59212,
            -20.41874
          ],
          [
            148.62291,
            -20.37427
          ],
          [
            148.65547,
            -20.31613
          ],
          [
            148.71671,
            -20.27263
          ],
          [
            148.78739,
            -20.28702
          ]
        ]
      },
      "properties": {
        "times": [
          "2026-05-23T01:22:42+00:00",
          "2026-05-23T02:04:06+00:00",
          "2026-05-23T05:52:50+00:00",
          "2026-05-23T06:30:41+00:00",
          "2026-05-23T06:45:41+00:00",
          "2026-05-24T10:26:29+00:00",
          "2026-05-24T23:10:53+00:00",
          "2026-05-25T21:50:12+00:00",
          "2026-05-26T00:15:57+00:00",
          "2026-05-27T06:51:33+00:00",
          "2026-05-27T06:59:04+00:00",
          "2026-05-27T07:09:06+00:00",
          "2026-05-27T07:15:42+00:00",
          "2026-05-27T07:22:42+00:00",
          "2026-05-27T07:28:51+00:00",
          "2026-05-27T20:20:26+00:00",
          "2026-05-27T20:29:53+00:00",
          "2026-05-28T01:57:49+00:00",
          "2026-05-28T02:10:25+00:00",
          "2026-05-28T02:21:31+00:00",
          "2026-05-28T02:41:55+00:00",
          "2026-05-28T02:59:40+00:00",
          "2026-05-28T03:06:38+00:00",
          "2026-05-28T03:15:26+00:00",
          "2026-05-28T03:23:32+00:00",
          "2026-05-28T04:04:29+00:00",
          "2026-05-28T04:16:48+00:00",
          "2026-05-28T06:35:43+00:00",
          "2026-05-28T06:42:16+00:00",
          "2026-05-28T06:51:48+00:00",
          "2026-05-29T01:05:49+00:00",
          "2026-05-29T01:22:18+00:00",
          "2026-05-29T01:36:09+00:00",
          "2026-05-29T01:53:09+00:00",
          "2026-05-29T02:52:03+00:00",
          "2026-05-29T03:00:37+00:00",
          "2026-05-29T03:07:17+00:00",
          "2026-05-29T03:20:10+00:00",
          "2026-05-29T03:26:45+00:00",
          "2026-05-29T03:32:58+00:00",
          "2026-05-29T04:24:30+00:00",
          "2026-05-29T04:33:20+00:00",
          "2026-05-29T04:39:56+00:00",
          "2026-05-29T04:46:05+00:00",
          "2026-05-29T04:52:19+00:00",
          "2026-05-29T04:58:27+00:00",
          "2026-05-29T05:04:36+00:00",
          "2026-05-29T05:10:45+00:00",
          "2026-05-29T05:16:54+00:00",
          "2026-05-29T05:23:14+00:00",
          "2026-05-29T05:29:23+00:00",
          "2026-05-29T05:35:34+00:00",
          "2026-05-29T05:43:58+00:00",
          "2026-05-29T05:50:09+00:00",
          "2026-05-29T07:09:43+00:00",
          "2026-05-29T08:00:23+00:00"
        ],
        "label": "2026-05-29"
      }
    },
    {
      "type": "Feature",
      "geometry": {
        "type": "LineString",
        "coordinates": [
          [
            148.71893,
            -20.2692
          ],
          [
            148.65295,
            -20.3238
          ],
          [
            148.62915,
            -20.37627
          ],
          [
            148.67974,
            -20.41393
          ],
          [
            148.71089,
            -20.45448
          ]
        ]
      },
      "properties": {
        "times": [
          "2026-05-30T02:50:33+00:00",
          "2026-05-30T07:22:20+00:00",
          "2026-05-30T07:29:06+00:00",
          "2026-05-30T07:35:26+00:00",
          "2026-05-30T07:42:29+00:00"
        ],
        "label": "2026-05-30"
      }
    },
    {
      "type": "Feature",
      "geometry": {
        "type": "LineString",
        "coordinates": [
          [
            148.76417,
            -20.23013
          ],
          [
            148.88794,
            -20.19647
          ],
          [
            148.98365,
            -20.1847
          ],
          [
            149.01245,
            -20.22648
          ],
          [
            148.9481,
            -20.16411
          ],
          [
            148.81607,
            -20.20801
          ],
          [
            148.71031,
            -20.26334
          ]
        ]
      },
      "properties": {
        "times": [
          "2026-05-31T23:23:01+00:00",
          "2026-05-31T23:40:52+00:00",
          "2026-06-01T00:01:33+00:00",
          "2026-06-01T03:11:17+00:00",
          "2026-06-01T06:12:08+00:00",
          "2026-06-01T06:32:05+00:00",
          "2026-06-01T06:50:48+00:00"
        ],
        "label": "2026-06-01"
      }
    },
    {
      "type": "Feature",
      "geometry": {
        "type": "LineString",
        "coordinates": [
          [
            148.7254,
            -20.46318
          ],
          [
            148.70167,
            -20.40551
          ],
          [
            148.65239,
            -20.39144
          ],
          [
            148.64877,
            -20.33476
          ],
          [
            148.68307,
            -20.28555
          ]
        ]
      },
      "properties": {
        "times": [
          "2026-05-31T01:04:22+00:00",
          "2026-05-31T03:55:21+00:00",
          "2026-05-31T05:35:34+00:00",
          "2026-05-31T05:44:17+00:00",
          "2026-05-31T06:01:46+00:00"
        ],
        "label": "2026-05-31"
      }
    },
    {
      "type": "Feature",
      "geometry": {
        "type": "LineString",
        "coordinates": [
          [
            148.67449,
            -20.28989
          ],
          [
            148.62942,
            -20.32735
          ],
          [
            148.57531,
            -20.30359
          ],
          [
            148.52502,
            -20.27519
          ],
          [
            148.51832,
            -20.20587
          ],
          [
            148.50257,
            -20.13211
          ],
          [
            148.45648,
            -20.06614
          ],
          [
            148.48495,
            -20.09577
          ],
          [
            148.50635,
            -20.15745
          ],
          [
            148.52295,
            -20.23029
          ],
          [
            148.51613,
            -20.29228
          ],
          [
            148.44541,
            -20.24896
          ],
          [
            148.374,
            -20.20302
          ],
          [
            148.30937,
            -20.15222
          ],
          [
            148.24646,
            -20.10086
          ],
          [
            148.21576,
            -20.03272
          ],
          [
            148.19706,
            -20.00928
          ],
          [
            148.22355,
            -19.99138
          ],
          [
            148.23919,
            -20.00174
          ],
          [
            148.19458,
            -20.01672
          ],
          [
            148.16149,
            -20.06011
          ],
          [
            148.13163,
            -20.12793
          ],
          [
            148.13148,
            -20.12922
          ],
          [
            148.15042,
            -20.07615
          ],
          [
            148.19,
            -20.0274
          ],
          [
            148.13594,
            -20.0185
          ],
          [
            148.13305,
            -20.02719
          ],
          [
            148.19808,
            -20.01695
          ],
          [
            148.24396,
            -19.98771
          ],
          [
            148.23662,
            -20.00959
          ],
          [
            148.23834,
            -20.06155
          ],
          [
            148.27553,
            -20.13926
          ],
          [
            148.36053,
            -20.19
          ],
          [
            148.45235,
            -20.25224
          ],
          [
            148.53688,
            -20.30791
          ],
          [
            148.57074,
            -20.3821
          ],
          [
            148.54228,
            -20.38839
          ],
          [
            148.47449,
            -20.43
          ],
          [
            148.42371,
            -20.49364
          ],
          [
            148.4816,
            -20.42287
          ],
          [
            148.54978,
            -20.38707
          ],
          [
            148.59085,
            -20.42827
          ],
          [
            148.61705,
            -20.50172
          ],
          [
            148.61987,
            -20.57203
          ],
          [
            148.68969,
            -20.63158
          ],
          [
            148.71761,
            -20.64282
          ],
          [
            148.66189,
            -20.61407
          ],
          [
            148.61414,
            -20.55991
          ],
          [
            148.61439,
            -20.49859
          ],
          [
            148.5907,
            -20.42954
          ],
          [
            148.56148,
            -20.36857
          ],
          [
            148.53664,
            -20.30792
          ],
          [
            148.47087,
            -20.26368
          ],
          [
            148.39587,
            -20.22301
          ],
          [
            148.33439,
            -20.16838
          ],
          [
            148.26008,
            -20.1318
          ],
          [
            148.23429,
            -20.05578
          ],
          [
            148.23833,
            -20.01223
          ],
          [
            148.24061,
            -20.01594
          ],
          [
            148.25417,
            -20.01364
          ],
          [
            148.26179,
            -20.01449
          ],
          [
            148.24383,
            -19.98932
          ],
          [
            148.1947,
            -20.01674
          ],
          [
            148.11673,
            -20.00944
          ],
          [
            148.05414,
            -19.96633
          ],
          [
            147.97904,
            -19.97817
          ],
          [
            147.90639,
            -19.94313
          ],
          [
            147.75896,
            -19.90187
          ],
          [
            147.67607,
            -19.87419
          ],
          [
            147.59891,
            -19.83783
          ],
          [
            147.52962,
            -19.79198
          ],
          [
            147.46541,
            -19.73127
          ],
          [
            147.41369,
            -19.66349
          ],
          [
            147.3939,
            -19.60002
          ],
          [
            147.42162,
            -19.53517
          ],
          [
            147.47059,
            -19.4678
          ],
          [
            147.47,
            -19.46846
          ],
          [
            147.42294,
            -19.51613
          ],
          [
            147.391,
            -19.56169
          ],
          [
            147.31912,
            -19.57055
          ],
          [
            147.23324,
            -19.56374
          ],
          [
            147.14769,
            -19.56293
          ],
          [
            147.07039,
            -19.52434
          ],
          [
            147.04176,
            -19.46125
          ],
          [
            147.00855,
            -19.39523
          ],
          [
            146.92366,
            -19.38163
          ],
          [
            146.85851,
            -19.3378
          ],
          [
            146.81527,
            -19.28249
          ],
          [
            146.75928,
            -19.27767
          ],
          [
            146.7932,
            -19.24691
          ]
        ]
      },
      "properties": {
        "times": [
          "2026-06-02T06:28:55+00:00",
          "2026-06-02T06:40:11+00:00",
          "2026-06-02T06:47:05+00:00",
          "2026-06-02T06:54:01+00:00",
          "2026-06-02T07:00:08+00:00",
          "2026-06-02T07:06:17+00:00",
          "2026-06-03T00:29:55+00:00",
          "2026-06-03T03:31:43+00:00",
          "2026-06-03T03:39:12+00:00",
          "2026-06-03T03:45:21+00:00",
          "2026-06-03T03:52:26+00:00",
          "2026-06-03T03:59:28+00:00",
          "2026-06-03T04:05:37+00:00",
          "2026-06-03T04:13:18+00:00",
          "2026-06-03T04:19:27+00:00",
          "2026-06-03T04:25:47+00:00",
          "2026-06-03T05:19:55+00:00",
          "2026-06-03T05:33:12+00:00",
          "2026-06-03T08:07:12+00:00",
          "2026-06-03T23:59:41+00:00",
          "2026-06-04T00:17:55+00:00",
          "2026-06-04T00:24:21+00:00",
          "2026-06-04T00:45:43+00:00",
          "2026-06-04T00:54:19+00:00",
          "2026-06-04T01:00:30+00:00",
          "2026-06-04T01:11:00+00:00",
          "2026-06-04T01:47:52+00:00",
          "2026-06-04T02:01:10+00:00",
          "2026-06-04T03:10:25+00:00",
          "2026-06-05T01:15:01+00:00",
          "2026-06-05T01:21:48+00:00",
          "2026-06-05T01:28:23+00:00",
          "2026-06-05T01:37:25+00:00",
          "2026-06-05T01:45:44+00:00",
          "2026-06-05T01:52:43+00:00",
          "2026-06-05T01:59:06+00:00",
          "2026-06-05T02:08:24+00:00",
          "2026-06-05T02:15:07+00:00",
          "2026-06-05T04:05:28+00:00",
          "2026-06-07T23:29:26+00:00",
          "2026-06-07T23:36:19+00:00",
          "2026-06-08T00:37:09+00:00",
          "2026-06-08T00:43:21+00:00",
          "2026-06-08T00:51:20+00:00",
          "2026-06-08T00:59:09+00:00",
          "2026-06-08T22:45:48+00:00",
          "2026-06-08T22:55:42+00:00",
          "2026-06-08T23:02:39+00:00",
          "2026-06-08T23:08:49+00:00",
          "2026-06-08T23:15:00+00:00",
          "2026-06-08T23:22:12+00:00",
          "2026-06-08T23:28:29+00:00",
          "2026-06-08T23:34:38+00:00",
          "2026-06-08T23:40:47+00:00",
          "2026-06-08T23:48:38+00:00",
          "2026-06-08T23:54:47+00:00",
          "2026-06-09T00:00:58+00:00",
          "2026-06-09T00:08:10+00:00",
          "2026-06-09T06:15:25+00:00",
          "2026-06-09T23:58:10+00:00",
          "2026-06-10T08:11:58+00:00",
          "2026-06-11T03:33:45+00:00",
          "2026-06-11T03:42:25+00:00",
          "2026-06-11T03:54:01+00:00",
          "2026-06-11T04:01:23+00:00",
          "2026-06-11T04:07:45+00:00",
          "2026-06-11T04:13:55+00:00",
          "2026-06-11T04:41:04+00:00",
          "2026-06-11T04:47:14+00:00",
          "2026-06-11T04:53:21+00:00",
          "2026-06-11T04:59:31+00:00",
          "2026-06-11T05:05:53+00:00",
          "2026-06-11T05:12:33+00:00",
          "2026-06-11T05:19:54+00:00",
          "2026-06-11T06:23:17+00:00",
          "2026-06-11T06:32:17+00:00",
          "2026-06-12T03:54:47+00:00",
          "2026-06-12T04:00:56+00:00",
          "2026-06-12T04:10:11+00:00",
          "2026-06-12T04:17:05+00:00",
          "2026-06-12T04:23:15+00:00",
          "2026-06-12T04:29:24+00:00",
          "2026-06-12T04:35:33+00:00",
          "2026-06-12T04:41:44+00:00",
          "2026-06-12T04:47:53+00:00",
          "2026-06-12T04:54:13+00:00",
          "2026-06-12T05:00:49+00:00",
          "2026-06-12T05:10:44+00:00",
          "2026-06-12T06:27:35+00:00",
          "2026-06-12T07:28:50+00:00"
        ],
        "label": "2026-06-12"
      }
    },
    {
      "type": "Feature",
      "geometry": {
        "type": "LineString",
        "coordinates": [
          [
            146.86153,
            -19.11793
          ],
          [
            146.86805,
            -19.15043
          ]
        ]
      },
      "properties": {
        "times": [
          "2026-06-14T00:29:07+00:00",
          "2026-06-14T04:15:30+00:00"
        ],
        "label": "2026-06-14"
      }
    },
    {
      "type": "Feature",
      "geometry": {
        "type": "LineString",
        "coordinates": [
          [
            146.82311,
            -19.26077
          ],
          [
            146.8196,
            -19.32497
          ],
          [
            146.8334,
            -19.39617
          ],
          [
            146.85572,
            -19.47656
          ],
          [
            146.85117,
            -19.55843
          ],
          [
            146.83656,
            -19.63108
          ],
          [
            146.83904,
            -19.71116
          ],
          [
            146.82333,
            -19.79356
          ],
          [
            146.75161,
            -19.83679
          ],
          [
            146.66239,
            -19.85343
          ],
          [
            146.59522,
            -19.89714
          ],
          [
            146.52319,
            -19.9378
          ],
          [
            146.4576,
            -19.99448
          ],
          [
            146.36844,
            -20.02361
          ],
          [
            146.29138,
            -20.06368
          ],
          [
            146.24035,
            -20.11099
          ],
          [
            146.15799,
            -20.12034
          ],
          [
            146.07375,
            -20.14414
          ],
          [
            145.96439,
            -20.18416
          ],
          [
            145.87203,
            -20.23573
          ],
          [
            145.77818,
            -20.28676
          ],
          [
            145.68967,
            -20.33702
          ],
          [
            145.61012,
            -20.39037
          ],
          [
            145.52197,
            -20.44876
          ],
          [
            145.40855,
            -20.51474
          ],
          [
            145.34816,
            -20.57862
          ],
          [
            145.29402,
            -20.64521
          ],
          [
            145.25031,
            -20.6639
          ],
          [
            145.19763,
            -20.72624
          ],
          [
            145.10455,
            -20.75003
          ],
          [
            145.01514,
            -20.77263
          ],
          [
            145.02578,
            -20.85108
          ],
          [
            145.03185,
            -20.93636
          ],
          [
            145.01582,
            -21.02261
          ],
          [
            145.0048,
            -21.1101
          ],
          [
            144.99714,
            -21.20076
          ],
          [
            145.02139,
            -21.28607
          ],
          [
            145.0487,
            -21.36392
          ],
          [
            145.05273,
            -21.44414
          ],
          [
            145.0567,
            -21.52401
          ],
          [
            145.10695,
            -21.5905
          ],
          [
            145.14962,
            -21.66815
          ],
          [
            145.17025,
            -21.74619
          ],
          [
            145.16045,
            -21.83319
          ],
          [
            145.19308,
            -21.90125
          ],
          [
            145.18583,
            -21.99216
          ],
          [
            145.17666,
            -22.07735
          ],
          [
            145.15179,
            -22.16299
          ],
          [
            145.12334,
            -22.24797
          ],
          [
            145.07811,
            -22.31895
          ],
          [
            145.05784,
            -22.60673
          ],
          [
            145.1574,
            -22.90318
          ],
          [
            145.24689,
            -23.19225
          ],
          [
            145.26394,
            -23.4821
          ],
          [
            145.28745,
            -23.55244
          ],
          [
            145.08227,
            -23.53853
          ],
          [
            144.85939,
            -23.52403
          ],
          [
            144.59885,
            -23.50636
          ],
          [
            144.29001,
            -23.44113
          ],
          [
            144.19314,
            -23.36926
          ],
          [
            144.14064,
            -23.30066
          ],
          [
            144.09628,
            -23.22652
          ],
          [
            144.03059,
            -23.16054
          ],
          [
            143.96589,
            -23.08997
          ],
          [
            143.90316,
            -23.02149
          ],
          [
            143.84159,
            -22.95423
          ],
          [
            143.77788,
            -22.88455
          ],
          [
            143.52441,
            -22.64699
          ],
          [
            143.44542,
            -22.5761
          ],
          [
            143.35895,
            -22.49961
          ],
          [
            143.27486,
            -22.45499
          ],
          [
            143.18645,
            -22.41807
          ],
          [
            143.09454,
            -22.38362
          ],
          [
            143.0467,
            -22.38073
          ],
          [
            142.9873,
            -22.36122
          ],
          [
            142.9396,
            -22.28916
          ],
          [
            142.88413,
            -22.19712
          ],
          [
            142.83018,
            -22.10927
          ],
          [
            142.74377,
            -21.99671
          ],
          [
            142.62837,
            -21.94854
          ],
          [
            142.58659,
            -21.86399
          ],
          [
            142.54825,
            -21.78505
          ],
          [
            142.48449,
            -21.72426
          ],
          [
            142.39941,
            -21.67826
          ],
          [
            142.32096,
            -21.63829
          ],
          [
            142.24625,
            -21.592
          ],
          [
            142.14748,
            -21.55773
          ],
          [
            142.05992,
            -21.53864
          ],
          [
            142.06926,
            -21.59647
          ]
        ]
      },
      "properties": {
        "times": [
          "2026-06-14T08:52:51+00:00",
          "2026-06-15T01:06:56+00:00",
          "2026-06-15T01:26:38+00:00",
          "2026-06-15T01:32:48+00:00",
          "2026-06-15T01:39:02+00:00",
          "2026-06-15T01:45:11+00:00",
          "2026-06-15T01:51:22+00:00",
          "2026-06-15T01:57:31+00:00",
          "2026-06-15T02:03:40+00:00",
          "2026-06-15T02:09:51+00:00",
          "2026-06-15T02:16:00+00:00",
          "2026-06-15T02:22:12+00:00",
          "2026-06-15T02:28:21+00:00",
          "2026-06-15T02:34:39+00:00",
          "2026-06-15T02:40:50+00:00",
          "2026-06-15T03:42:37+00:00",
          "2026-06-15T03:49:07+00:00",
          "2026-06-15T03:55:29+00:00",
          "2026-06-15T04:02:48+00:00",
          "2026-06-15T04:09:48+00:00",
          "2026-06-15T04:16:48+00:00",
          "2026-06-15T04:23:31+00:00",
          "2026-06-15T04:30:19+00:00",
          "2026-06-15T04:37:32+00:00",
          "2026-06-15T04:46:25+00:00",
          "2026-06-15T04:53:18+00:00",
          "2026-06-15T04:59:22+00:00",
          "2026-06-15T22:54:35+00:00",
          "2026-06-15T23:27:29+00:00",
          "2026-06-15T23:33:38+00:00",
          "2026-06-15T23:40:33+00:00",
          "2026-06-15T23:47:09+00:00",
          "2026-06-15T23:53:18+00:00",
          "2026-06-15T23:59:29+00:00",
          "2026-06-16T00:05:38+00:00",
          "2026-06-16T00:11:49+00:00",
          "2026-06-16T00:18:07+00:00",
          "2026-06-16T00:24:16+00:00",
          "2026-06-16T00:32:06+00:00",
          "2026-06-16T00:38:15+00:00",
          "2026-06-16T00:44:22+00:00",
          "2026-06-16T00:50:32+00:00",
          "2026-06-16T00:56:47+00:00",
          "2026-06-16T01:02:56+00:00",
          "2026-06-16T01:52:03+00:00",
          "2026-06-16T01:58:33+00:00",
          "2026-06-16T02:04:53+00:00",
          "2026-06-16T02:11:04+00:00",
          "2026-06-16T02:17:18+00:00",
          "2026-06-16T02:23:45+00:00",
          "2026-06-16T02:46:44+00:00",
          "2026-06-16T03:11:38+00:00",
          "2026-06-16T03:37:58+00:00",
          "2026-06-16T03:59:16+00:00",
          "2026-06-16T05:43:40+00:00",
          "2026-08-30T03:33:03+00:00",
          "2026-08-30T03:48:10+00:00",
          "2026-08-30T04:18:15+00:00",
          "2026-08-30T05:32:28+00:00",
          "2026-08-30T23:00:09+00:00",
          "2026-08-30T23:06:37+00:00",
          "2026-08-30T23:12:45+00:00",
          "2026-08-30T23:19:19+00:00",
          "2026-08-30T23:25:42+00:00",
          "2026-08-30T23:31:56+00:00",
          "2026-08-30T23:38:06+00:00",
          "2026-08-30T23:44:27+00:00",
          "2026-08-31T00:07:29+00:00",
          "2026-08-31T00:14:24+00:00",
          "2026-08-31T00:22:01+00:00",
          "2026-08-31T00:28:12+00:00",
          "2026-08-31T00:34:32+00:00",
          "2026-08-31T00:40:53+00:00",
          "2026-08-31T03:26:22+00:00",
          "2026-08-31T03:41:57+00:00",
          "2026-08-31T03:48:16+00:00",
          "2026-08-31T03:56:07+00:00",
          "2026-08-31T04:03:37+00:00",
          "2026-08-31T04:15:24+00:00",
          "2026-08-31T04:30:08+00:00",
          "2026-08-31T04:37:03+00:00",
          "2026-08-31T04:43:38+00:00",
          "2026-08-31T04:50:01+00:00",
          "2026-08-31T04:56:28+00:00",
          "2026-08-31T05:02:35+00:00",
          "2026-08-31T05:08:48+00:00",
          "2026-08-31T05:15:58+00:00",
          "2026-08-31T05:22:12+00:00",
          "2026-08-31T05:29:57+00:00"
        ],
        "label": "2026-08-31"
      }
    },
    {
      "type": "Feature",
      "geometry": {
        "type": "LineString",
        "coordinates": [
          [
            144.22018,
            -23.40331
          ],
          [
            144.1542,
            -23.33109
          ],
          [
            144.11175,
            -23.25786
          ],
          [
            144.05592,
            -23.18812
          ],
          [
            143.99306,
            -23.11956
          ],
          [
            143.92818,
            -23.04882
          ],
          [
            143.86514,
            -22.98291
          ],
          [
            143.80264,
            -22.91165
          ],
          [
            143.73926,
            -22.84227
          ],
          [
            143.47829,
            -22.60562
          ],
          [
            143.40541,
            -22.53488
          ],
          [
            143.30977,
            -22.47193
          ],
          [
            143.22316,
            -22.43228
          ],
          [
            143.13244,
            -22.39455
          ],
          [
            143.04667,
            -22.38077
          ],
          [
            143.01201,
            -22.37965
          ],
          [
            142.96244,
            -22.31625
          ],
          [
            142.90642,
            -22.23218
          ],
          [
            142.84457,
            -22.14578
          ],
          [
            142.8013,
            -22.05194
          ],
          [
            142.65816,
            -21.96954
          ],
          [
            142.60163,
            -21.89816
          ],
          [
            142.56517,
            -21.8138
          ],
          [
            142.511,
            -21.74833
          ],
          [
            142.4338,
            -21.69516
          ],
          [
            142.3529,
            -21.65492
          ],
          [
            142.27846,
            -21.60649
          ],
          [
            142.19639,
            -21.57471
          ],
          [
            142.09638,
            -21.54249
          ],
          [
            142.07061,
            -21.57045
          ],
          [
            142.07061,
            -21.57062
          ],
          [
            142.00433,
            -21.53273
          ],
          [
            141.92617,
            -21.57853
          ],
          [
            141.84167,
            -21.54173
          ],
          [
            141.75754,
            -21.50027
          ],
          [
            141.67458,
            -21.46717
          ],
          [
            141.58276,
            -21.44885
          ],
          [
            141.51864,
            -21.38902
          ],
          [
            141.44073,
            -21.34005
          ],
          [
            141.35088,
            -21.29484
          ],
          [
            141.26718,
            -21.25077
          ],
          [
            141.17963,
            -21.18191
          ],
          [
            141.05377,
            -21.09952
          ],
          [
            140.97569,
            -21.0459
          ],
          [
            140.74556,
            -20.78913
          ],
          [
            140.56725,
            -20.71603
          ],
          [
            140.47891,
            -20.70437
          ],
          [
            140.4007,
            -20.71833
          ],
          [
            140.31823,
            -20.7127
          ],
          [
            140.24847,
            -20.73902
          ],
          [
            140.17457,
            -20.76938
          ],
          [
            140.09476,
            -20.7848
          ],
          [
            140.0531,
            -20.83621
          ],
          [
            140.00431,
            -20.80537
          ],
          [
            139.99025,
            -20.76624
          ],
          [
            140.00345,
            -20.74512
          ],
          [
            139.96783,
            -20.77248
          ],
          [
            139.88802,
            -20.76336
          ],
          [
            139.81867,
            -20.73981
          ],
          [
            139.73989,
            -20.7178
          ],
          [
            139.64697,
            -20.7054
          ],
          [
            139.56778,
            -20.71372
          ]
        ]
      },
      "properties": {
        "times": [
          "2026-08-30T22:56:58+00:00",
          "2026-08-30T23:04:07+00:00",
          "2026-08-30T23:10:17+00:00",
          "2026-08-30T23:16:49+00:00",
          "2026-08-30T23:23:00+00:00",
          "2026-08-30T23:29:26+00:00",
          "2026-08-30T23:35:36+00:00",
          "2026-08-30T23:41:58+00:00",
          "2026-08-30T23:48:17+00:00",
          "2026-08-31T00:11:34+00:00",
          "2026-08-31T00:18:13+00:00",
          "2026-08-31T00:25:42+00:00",
          "2026-08-31T00:32:02+00:00",
          "2026-08-31T00:38:23+00:00",
          "2026-08-31T00:45:43+00:00",
          "2026-08-31T03:39:10+00:00",
          "2026-08-31T03:45:47+00:00",
          "2026-08-31T03:53:01+00:00",
          "2026-08-31T04:00:38+00:00",
          "2026-08-31T04:09:05+00:00",
          "2026-08-31T04:27:12+00:00",
          "2026-08-31T04:34:22+00:00",
          "2026-08-31T04:41:11+00:00",
          "2026-08-31T04:47:22+00:00",
          "2026-08-31T04:53:55+00:00",
          "2026-08-31T05:00:06+00:00",
          "2026-08-31T05:06:18+00:00",
          "2026-08-31T05:12:25+00:00",
          "2026-08-31T05:19:40+00:00",
          "2026-08-31T05:26:53+00:00",
          "2026-08-31T22:22:47+00:00",
          "2026-08-31T22:30:04+00:00",
          "2026-08-31T22:36:44+00:00",
          "2026-08-31T22:43:36+00:00",
          "2026-08-31T22:49:46+00:00",
          "2026-08-31T22:55:58+00:00",
          "2026-08-31T23:02:08+00:00",
          "2026-08-31T23:08:19+00:00",
          "2026-08-31T23:14:42+00:00",
          "2026-08-31T23:21:15+00:00",
          "2026-08-31T23:28:29+00:00",
          "2026-08-31T23:35:58+00:00",
          "2026-08-31T23:46:04+00:00",
          "2026-08-31T23:52:25+00:00",
          "2026-09-01T00:15:56+00:00",
          "2026-09-01T00:30:29+00:00",
          "2026-09-01T04:11:12+00:00",
          "2026-09-01T04:17:21+00:00",
          "2026-09-01T04:23:31+00:00",
          "2026-09-01T04:29:40+00:00",
          "2026-09-01T04:35:59+00:00",
          "2026-09-01T04:42:08+00:00",
          "2026-09-01T04:52:27+00:00",
          "2026-09-01T06:09:17+00:00",
          "2026-09-01T06:23:25+00:00",
          "2026-09-01T22:48:04+00:00",
          "2026-09-01T23:13:09+00:00",
          "2026-09-01T23:19:57+00:00",
          "2026-09-01T23:26:14+00:00",
          "2026-09-01T23:32:32+00:00",
          "2026-09-01T23:39:19+00:00",
          "2026-09-01T23:46:33+00:00"
        ],
        "label": "2026-09-01"
      }
    },
    {
      "type": "Feature",
      "geometry": {
        "type": "LineString",
        "coordinates": [
          [
            139.44874,
            -20.87325
          ],
          [
            139.46608,
            -20.81001
          ],
          [
            139.48163,
            -20.75349
          ],
          [
            139.49116,
            -20.72393
          ],
          [
            139.49439,
            -20.66947
          ],
          [
            139.48646,
            -20.58757
          ],
          [
            139.44088,
            -20.51197
          ],
          [
            139.39683,
            -20.43568
          ],
          [
            139.31242,
            -20.38073
          ],
          [
            139.03453,
            -20.26354
          ],
          [
            138.93703,
            -20.22998
          ],
          [
            138.87663,
            -20.16642
          ],
          [
            138.81648,
            -20.09682
          ],
          [
            138.76484,
            -20.04751
          ],
          [
            138.78054,
            -19.98148
          ],
          [
            138.78587,
            -19.90617
          ],
          [
            138.79334,
            -19.82875
          ],
          [
            138.79584,
            -19.74822
          ],
          [
            138.79954,
            -19.67192
          ],
          [
            138.81419,
            -19.59566
          ],
          [
            138.85348,
            -19.54437
          ],
          [
            138.9297,
            -19.50804
          ],
          [
            138.97979,
            -19.46495
          ],
          [
            138.98451,
            -19.394
          ],
          [
            138.98106,
            -19.32562
          ],
          [
            138.99232,
            -19.26327
          ],
          [
            138.9803,
            -19.1962
          ],
          [
            138.96961,
            -19.13806
          ],
          [
            138.91698,
            -19.09476
          ],
          [
            138.86841,
            -19.05064
          ],
          [
            138.799,
            -19.04137
          ],
          [
            138.73509,
            -19.02522
          ],
          [
            138.68584,
            -18.99176
          ],
          [
            138.65485,
            -18.92873
          ],
          [
            138.61656,
            -18.86052
          ],
          [
            138.55006,
            -18.82176
          ],
          [
            138.52255,
            -18.75396
          ],
          [
            138.5034,
            -18.7113
          ],
          [
            138.49166,
            -18.71895
          ]
        ]
      },
      "properties": {
        "times": [
          "2026-09-02T22:53:47+00:00",
          "2026-09-02T23:02:37+00:00",
          "2026-09-02T23:09:20+00:00",
          "2026-09-03T00:03:08+00:00",
          "2026-09-03T00:38:20+00:00",
          "2026-09-03T00:44:32+00:00",
          "2026-09-03T00:51:17+00:00",
          "2026-09-03T00:57:29+00:00",
          "2026-09-03T01:04:38+00:00",
          "2026-09-03T01:25:43+00:00",
          "2026-09-03T01:32:38+00:00",
          "2026-09-03T01:48:09+00:00",
          "2026-09-03T01:54:18+00:00",
          "2026-09-03T02:01:12+00:00",
          "2026-09-03T02:07:49+00:00",
          "2026-09-03T02:13:58+00:00",
          "2026-09-03T02:20:09+00:00",
          "2026-09-03T02:26:18+00:00",
          "2026-09-03T02:32:27+00:00",
          "2026-09-03T02:38:38+00:00",
          "2026-09-03T02:44:47+00:00",
          "2026-09-03T03:01:45+00:00",
          "2026-09-03T03:11:23+00:00",
          "2026-09-03T03:19:12+00:00",
          "2026-09-03T03:26:15+00:00",
          "2026-09-03T03:34:05+00:00",
          "2026-09-03T03:42:29+00:00",
          "2026-09-03T04:08:30+00:00",
          "2026-09-03T04:14:48+00:00",
          "2026-09-03T04:21:09+00:00",
          "2026-09-03T04:28:12+00:00",
          "2026-09-03T04:37:43+00:00",
          "2026-09-03T05:17:30+00:00",
          "2026-09-03T05:25:00+00:00",
          "2026-09-03T05:31:27+00:00",
          "2026-09-03T05:38:27+00:00",
          "2026-09-03T05:46:03+00:00",
          "2026-09-03T05:53:19+00:00",
          "2026-09-03T06:25:43+00:00"
        ],
        "label": "2026-09-03"
      }
    },
    {
      "type": "Feature",
      "geometry": {
        "type": "LineString",
        "coordinates": [
          [
            138.70099,
            -19.01238
          ],
          [
            138.76374,
            -19.02229
          ],
          [
            138.83178,
            -19.03975
          ],
          [
            138.90108,
            -19.07768
          ],
          [
            138.94977,
            -19.11671
          ],
          [
            138.98202,
            -19.16863
          ],
          [
            138.98774,
            -19.27294
          ],
          [
            138.98766,
            -19.42058
          ],
          [
            138.97298,
            -19.48276
          ],
          [
            138.91104,
            -19.51
          ],
          [
            138.83746,
            -19.55352
          ],
          [
            138.80389,
            -19.61988
          ],
          [
            138.80212,
            -19.69337
          ],
          [
            138.79909,
            -19.77229
          ],
          [
            138.79053,
            -19.85792
          ],
          [
            138.784,
            -19.94549
          ],
          [
            138.77009,
            -20.0281
          ],
          [
            138.71196,
            -20.04324
          ],
          [
            138.61523,
            -20.01921
          ],
          [
            138.52567,
            -19.99292
          ],
          [
            138.44646,
            -19.96066
          ],
          [
            138.28828,
            -19.92651
          ],
          [
            138.11347,
            -19.92034
          ],
          [
            138.01203,
            -19.91665
          ],
          [
            137.89209,
            -19.93446
          ],
          [
            137.79052,
            -19.98526
          ],
          [
            137.65267,
            -20.02263
          ],
          [
            137.54198,
            -20.03143
          ],
          [
            137.40834,
            -20.01804
          ],
          [
            136.77371,
            -20.07615
          ],
          [
            136.31601,
            -19.88213
          ],
          [
            136.21753,
            -19.85169
          ],
          [
            136.00808,
            -19.8355
          ],
          [
            135.78296,
            -19.67838
          ],
          [
            135.70973,
            -19.62644
          ],
          [
            135.63163,
            -19.57109
          ],
          [
            135.55438,
            -19.51575
          ],
          [
            135.47613,
            -19.45932
          ],
          [
            135.38514,
            -19.42707
          ],
          [
            135.29687,
            -19.3906
          ],
          [
            135.20651,
            -19.35547
          ],
          [
            135.1202,
            -19.31548
          ],
          [
            135.0301,
            -19.2985
          ],
          [
            134.93425,
            -19.31028
          ],
          [
            134.83965,
            -19.3215
          ],
          [
            134.74521,
            -19.33273
          ],
          [
            134.65411,
            -19.34361
          ],
          [
            134.56637,
            -19.35495
          ],
          [
            134.46305,
            -19.41062
          ],
          [
            134.36658,
            -19.44047
          ],
          [
            134.26871,
            -19.44113
          ],
          [
            134.19838,
            -19.38239
          ],
          [
            134.17091,
            -19.21296
          ],
          [
            134.1383,
            -19.00103
          ],
          [
            133.83528,
            -18.36891
          ],
          [
            133.73187,
            -18.21557
          ],
          [
            133.69686,
            -17.88114
          ],
          [
            133.58054,
            -17.57887
          ],
          [
            133.4692,
            -17.43198
          ],
          [
            133.45324,
            -17.26409
          ],
          [
            133.43783,
            -17.01041
          ],
          [
            133.42577,
            -16.86706
          ],
          [
            133.42176,
            -16.72911
          ],
          [
            133.38263,
            -16.64292
          ],
          [
            133.36169,
            -16.54098
          ],
          [
            133.38255,
            -16.44264
          ],
          [
            133.3813,
            -16.32746
          ]
        ]
      },
      "properties": {
        "times": [
          "2026-09-05T22:46:50+00:00",
          "2026-09-05T22:58:17+00:00",
          "2026-09-05T23:07:18+00:00",
          "2026-09-05T23:14:59+00:00",
          "2026-09-05T23:21:28+00:00",
          "2026-09-06T00:14:06+00:00",
          "2026-09-06T00:25:26+00:00",
          "2026-09-06T00:38:47+00:00",
          "2026-09-06T00:45:22+00:00",
          "2026-09-06T00:53:42+00:00",
          "2026-09-06T01:00:23+00:00",
          "2026-09-06T01:07:08+00:00",
          "2026-09-06T01:13:31+00:00",
          "2026-09-06T01:19:39+00:00",
          "2026-09-06T01:25:59+00:00",
          "2026-09-06T01:32:20+00:00",
          "2026-09-06T01:38:30+00:00",
          "2026-09-06T01:54:19+00:00",
          "2026-09-06T02:00:51+00:00",
          "2026-09-06T02:07:08+00:00",
          "2026-09-06T02:13:18+00:00",
          "2026-09-06T02:23:53+00:00",
          "2026-09-06T02:50:03+00:00",
          "2026-09-06T02:56:49+00:00",
          "2026-09-06T03:04:57+00:00",
          "2026-09-06T03:12:38+00:00",
          "2026-09-06T03:22:12+00:00",
          "2026-09-06T03:29:27+00:00",
          "2026-09-06T03:38:12+00:00",
          "2026-09-06T05:11:53+00:00",
          "2026-09-06T05:46:32+00:00",
          "2026-09-06T05:53:20+00:00",
          "2026-09-06T06:08:00+00:00",
          "2026-09-06T07:16:08+00:00",
          "2026-09-06T07:22:18+00:00",
          "2026-09-06T07:28:30+00:00",
          "2026-09-06T07:34:40+00:00",
          "2026-09-06T07:40:50+00:00",
          "2026-09-06T07:47:01+00:00",
          "2026-09-06T07:53:11+00:00",
          "2026-09-06T07:59:22+00:00",
          "2026-09-06T08:05:32+00:00",
          "2026-09-06T08:11:42+00:00",
          "2026-09-06T08:17:53+00:00",
          "2026-09-06T08:24:03+00:00",
          "2026-09-06T08:30:14+00:00",
          "2026-09-06T08:36:24+00:00",
          "2026-09-06T08:42:34+00:00",
          "2026-09-06T23:00:39+00:00",
          "2026-09-06T23:07:18+00:00",
          "2026-09-06T23:13:30+00:00",
          "2026-09-07T00:43:43+00:00",
          "2026-09-07T00:55:49+00:00",
          "2026-09-07T01:11:40+00:00",
          "2026-09-07T02:02:05+00:00",
          "2026-09-07T02:25:50+00:00",
          "2026-09-07T02:57:40+00:00",
          "2026-09-07T03:20:34+00:00",
          "2026-09-07T04:08:16+00:00",
          "2026-09-07T04:21:43+00:00",
          "2026-09-07T04:40:56+00:00",
          "2026-09-07T04:51:39+00:00",
          "2026-09-07T05:02:37+00:00",
          "2026-09-07T05:10:17+00:00",
          "2026-09-07T05:18:56+00:00",
          "2026-09-07T05:26:38+00:00",
          "2026-09-07T05:34:47+00:00"
        ],
        "label": "2026-09-07"
      }
    },
    {
      "type": "Feature",
      "geometry": {
        "type": "LineString",
        "coordinates": [
          [
            133.18418,
            -14.93607
          ],
          [
            133.11431,
            -14.93644
          ],
          [
            133.05999,
            -14.9167
          ],
          [
            133.00468,
            -14.86893
          ],
          [
            132.94381,
            -14.82338
          ],
          [
            132.87564,
            -14.77225
          ],
          [
            132.80867,
            -14.7169
          ],
          [
            132.72321,
            -14.69176
          ],
          [
            132.64988,
            -14.65479
          ],
          [
            132.57328,
            -14.60893
          ],
          [
            132.48653,
            -14.57409
          ],
          [
            132.42357,
            -14.50674
          ],
          [
            132.33295,
            -14.48406
          ],
          [
            132.26732,
            -14.46647
          ],
          [
            132.23283,
            -14.43912
          ],
          [
            132.1371,
            -14.35006
          ],
          [
            132.07311,
            -14.28248
          ],
          [
            132.03845,
            -14.20117
          ],
          [
            132.09891,
            -14.17697
          ],
          [
            132.16746,
            -14.17293
          ]
        ]
      },
      "properties": {
        "times": [
          "2026-09-08T23:00:12+00:00",
          "2026-09-08T23:08:53+00:00",
          "2026-09-08T23:39:33+00:00",
          "2026-09-08T23:45:44+00:00",
          "2026-09-08T23:51:55+00:00",
          "2026-09-08T23:58:23+00:00",
          "2026-09-09T00:04:36+00:00",
          "2026-09-09T00:10:56+00:00",
          "2026-09-09T00:17:07+00:00",
          "2026-09-09T00:23:17+00:00",
          "2026-09-09T00:29:27+00:00",
          "2026-09-09T00:37:06+00:00",
          "2026-09-09T00:44:06+00:00",
          "2026-09-09T02:02:54+00:00",
          "2026-09-09T04:20:55+00:00",
          "2026-09-09T04:30:57+00:00",
          "2026-09-09T04:37:27+00:00",
          "2026-09-09T04:43:42+00:00",
          "2026-09-09T04:51:16+00:00",
          "2026-09-09T04:57:54+00:00"
        ],
        "label": "2026-09-09"
      }
    },
    {
      "type": "Feature",
      "geometry": {
        "type": "LineString",
        "coordinates": [
          [
            133.36977,
            -16.25508
          ],
          [
            133.41382,
            -16.23634
          ],
          [
            133.42807,
            -16.15321
          ],
          [
            133.43194,
            -16.07207
          ],
          [
            133.42389,
            -15.99484
          ],
          [
            133.42815,
            -15.92071
          ],
          [
            133.39752,
            -15.84167
          ],
          [
            133.37768,
            -15.75848
          ],
          [
            133.3177,
            -15.69929
          ],
          [
            133.26029,
            -15.63432
          ],
          [
            133.21331,
            -15.56847
          ],
          [
            133.19473,
            -15.48703
          ],
          [
            133.17324,
            -15.39698
          ],
          [
            133.14581,
            -15.31362
          ],
          [
            133.11385,
            -15.23437
          ],
          [
            133.08698,
            -15.15362
          ],
          [
            133.0723,
            -15.07295
          ],
          [
            133.08124,
            -14.99202
          ],
          [
            133.07386,
            -14.91866
          ],
          [
            133.13568,
            -14.923
          ],
          [
            133.15547,
            -14.93913
          ]
        ]
      },
      "properties": {
        "times": [
          "2026-09-08T00:48:33+00:00",
          "2026-09-08T00:56:10+00:00",
          "2026-09-08T01:02:23+00:00",
          "2026-09-08T01:08:31+00:00",
          "2026-09-08T01:14:41+00:00",
          "2026-09-08T01:21:02+00:00",
          "2026-09-08T01:27:21+00:00",
          "2026-09-08T01:33:36+00:00",
          "2026-09-08T01:39:43+00:00",
          "2026-09-08T01:45:53+00:00",
          "2026-09-08T01:52:04+00:00",
          "2026-09-08T01:58:14+00:00",
          "2026-09-08T02:04:25+00:00",
          "2026-09-08T02:10:35+00:00",
          "2026-09-08T02:16:45+00:00",
          "2026-09-08T02:22:56+00:00",
          "2026-09-08T02:29:06+00:00",
          "2026-09-08T02:35:17+00:00",
          "2026-09-08T03:18:44+00:00",
          "2026-09-08T03:57:43+00:00",
          "2026-09-08T05:41:35+00:00"
        ],
        "label": "2026-09-08"
      }
    },
    {
      "type": "Feature",
      "geometry": {
        "type": "LineString",
        "coordinates": [
          [
            132.1734,
            -14.17631
          ],
          [
            132.11354,
            -14.17538
          ],
          [
            132.05389,
            -14.18486
          ],
          [
            132.04707,
            -14.23976
          ],
          [
            132.08989,
            -14.30056
          ],
          [
            132.13865,
            -14.35804
          ],
          [
            132.19561,
            -14.40748
          ],
          [
            132.25249,
            -14.45699
          ],
          [
            132.27048,
            -14.46222
          ],
          [
            132.31487,
            -14.42626
          ],
          [
            132.37452,
            -14.39827
          ],
          [
            132.42232,
            -14.36455
          ],
          [
            132.42288,
            -14.32856
          ],
          [
            132.40744,
            -14.39048
          ],
          [
            132.32766,
            -14.41923
          ],
          [
            132.26892,
            -14.44802
          ],
          [
            132.24659,
            -14.50615
          ],
          [
            132.18549,
            -14.56702
          ],
          [
            132.12867,
            -14.62779
          ],
          [
            132.08019,
            -14.70103
          ],
          [
            132.01402,
            -14.74943
          ],
          [
            131.94104,
            -14.79391
          ],
          [
            131.91915,
            -14.86878
          ],
          [
            131.87085,
            -14.94145
          ],
          [
            131.80756,
            -14.99788
          ],
          [
            131.75072,
            -15.06446
          ],
          [
            131.69152,
            -15.12855
          ],
          [
            131.643,
            -15.19407
          ],
          [
            131.59256,
            -15.25821
          ],
          [
            131.55099,
            -15.32891
          ],
          [
            131.52049,
            -15.40583
          ],
          [
            131.41342,
            -15.46152
          ],
          [
            131.35312,
            -15.49819
          ],
          [
            131.28286,
            -15.54418
          ],
          [
            131.23858,
            -15.60224
          ],
          [
            131.15628,
            -15.61221
          ],
          [
            131.11186,
            -15.58226
          ],
          [
            131.05624,
            -15.59904
          ],
          [
            130.98951,
            -15.59047
          ],
          [
            130.91599,
            -15.61493
          ],
          [
            130.85234,
            -15.65192
          ],
          [
            130.79703,
            -15.69988
          ],
          [
            130.72546,
            -15.74968
          ],
          [
            130.64331,
            -15.74343
          ],
          [
            130.48503,
            -15.72331
          ],
          [
            130.46479,
            -15.63555
          ],
          [
            130.40213,
            -15.61458
          ],
          [
            130.36574,
            -15.56926
          ],
          [
            130.31104,
            -15.59377
          ],
          [
            130.24433,
            -15.64258
          ],
          [
            130.16721,
            -15.68508
          ],
          [
            130.09102,
            -15.72225
          ],
          [
            130.02067,
            -15.77375
          ],
          [
            129.94316,
            -15.80631
          ],
          [
            129.88154,
            -15.86669
          ],
          [
            129.8019,
            -15.90215
          ],
          [
            129.73113,
            -15.93105
          ],
          [
            129.64384,
            -15.94435
          ],
          [
            129.56615,
            -15.94552
          ],
          [
            129.49664,
            -15.99662
          ],
          [
            129.41464,
            -16.00735
          ],
          [
            129.32772,
            -16.02382
          ],
          [
            129.25149,
            -16.05697
          ],
          [
            129.10911,
            -16.05851
          ],
          [
            129.03692,
            -15.97518
          ],
          [
            129.06216,
            -15.91885
          ],
          [
            129.10419,
            -15.84052
          ],
          [
            129.10672,
            -15.77187
          ],
          [
            129.10646,
            -15.83372
          ],
          [
            129.07343,
            -15.90193
          ],
          [
            129.03162,
            -15.94363
          ],
          [
            129.0176,
            -15.98736
          ]
        ]
      },
      "properties": {
        "times": [
          "2026-09-10T02:43:05+00:00",
          "2026-09-10T02:49:26+00:00",
          "2026-09-10T02:55:36+00:00",
          "2026-09-10T03:02:07+00:00",
          "2026-09-10T03:08:17+00:00",
          "2026-09-10T03:14:28+00:00",
          "2026-09-10T03:20:38+00:00",
          "2026-09-10T03:26:48+00:00",
          "2026-09-10T07:08:28+00:00",
          "2026-09-10T07:17:49+00:00",
          "2026-09-10T07:24:07+00:00",
          "2026-09-10T07:30:18+00:00",
          "2026-09-12T00:21:07+00:00",
          "2026-09-12T00:27:40+00:00",
          "2026-09-12T00:34:00+00:00",
          "2026-09-12T01:22:54+00:00",
          "2026-09-12T04:35:33+00:00",
          "2026-09-12T04:41:47+00:00",
          "2026-09-12T04:47:58+00:00",
          "2026-09-12T04:54:12+00:00",
          "2026-09-12T05:00:21+00:00",
          "2026-09-12T05:06:30+00:00",
          "2026-09-12T05:12:39+00:00",
          "2026-09-12T05:18:48+00:00",
          "2026-09-12T05:24:57+00:00",
          "2026-09-12T05:31:06+00:00",
          "2026-09-12T05:37:17+00:00",
          "2026-09-12T06:09:00+00:00",
          "2026-09-12T06:15:09+00:00",
          "2026-09-12T06:21:27+00:00",
          "2026-09-12T06:27:36+00:00",
          "2026-09-12T06:36:18+00:00",
          "2026-09-12T06:42:27+00:00",
          "2026-09-12T06:48:37+00:00",
          "2026-09-12T06:54:46+00:00",
          "2026-09-12T07:00:55+00:00",
          "2026-09-12T07:12:19+00:00",
          "2026-09-12T23:12:42+00:00",
          "2026-09-12T23:18:46+00:00",
          "2026-09-12T23:25:13+00:00",
          "2026-09-12T23:31:33+00:00",
          "2026-09-12T23:37:43+00:00",
          "2026-09-12T23:44:05+00:00",
          "2026-09-13T00:11:40+00:00",
          "2026-09-13T00:25:23+00:00",
          "2026-09-13T01:27:48+00:00",
          "2026-09-13T02:33:06+00:00",
          "2026-09-13T02:44:27+00:00",
          "2026-09-13T03:13:03+00:00",
          "2026-09-13T03:19:15+00:00",
          "2026-09-13T03:25:28+00:00",
          "2026-09-13T03:31:35+00:00",
          "2026-09-13T04:03:18+00:00",
          "2026-09-13T04:09:27+00:00",
          "2026-09-13T04:15:36+00:00",
          "2026-09-13T04:21:45+00:00",
          "2026-09-13T04:27:54+00:00",
          "2026-09-13T04:34:03+00:00",
          "2026-09-13T04:40:12+00:00",
          "2026-09-13T04:46:29+00:00",
          "2026-09-13T04:52:32+00:00",
          "2026-09-13T04:58:47+00:00",
          "2026-09-13T05:06:15+00:00",
          "2026-09-13T05:16:25+00:00",
          "2026-09-13T05:34:51+00:00",
          "2026-09-13T05:45:24+00:00",
          "2026-09-13T05:55:21+00:00",
          "2026-09-13T21:27:11+00:00",
          "2026-09-13T21:35:23+00:00",
          "2026-09-14T00:08:09+00:00",
          "2026-09-14T00:15:19+00:00",
          "2026-09-14T00:33:18+00:00"
        ],
        "label": "2026-09-14"
      }
    },
    {
      "type": "Feature",
      "geometry": {
        "type": "LineString",
        "coordinates": [
          [
            128.95222,
            -15.95047
          ],
          [
            128.92035,
            -15.85499
          ],
          [
            128.84186,
            -15.82267
          ],
          [
            128.76143,
            -15.79456
          ],
          [
            128.70617,
            -15.78687
          ]
        ]
      },
      "properties": {
        "times": [
          "2026-09-14T01:32:08+00:00",
          "2026-09-14T01:39:58+00:00",
          "2026-09-14T01:46:08+00:00",
          "2026-09-14T01:52:57+00:00",
          "2026-09-14T03:23:16+00:00"
        ],
        "label": "2026-09-14"
      }
    },
    {
      "type": "Feature",
      "geometry": {
        "type": "LineString",
        "coordinates": [
          [
            128.752,
            -15.76418
          ],
          [
            128.69805,
            -15.79079
          ],
          [
            128.64482,
            -15.76804
          ],
          [
            128.65639,
            -15.76678
          ],
          [
            128.70122,
            -15.79024
          ],
          [
            128.70168,
            -15.78897
          ],
          [
            128.65122,
            -15.76735
          ],
          [
            128.57936,
            -15.77463
          ],
          [
            128.50848,
            -15.80407
          ],
          [
            128.48284,
            -15.82123
          ],
          [
            128.40992,
            -15.85531
          ],
          [
            128.32982,
            -15.85344
          ],
          [
            128.28395,
            -15.85766
          ],
          [
            128.21247,
            -15.89005
          ],
          [
            128.14502,
            -15.91967
          ],
          [
            128.1074,
            -15.92048
          ],
          [
            128.02979,
            -15.94762
          ],
          [
            128.02297,
            -16.00912
          ],
          [
            128.01495,
            -16.021
          ],
          [
            127.97928,
            -16.02596
          ],
          [
            127.978,
            -16.01369
          ]
        ]
      },
      "properties": {
        "times": [
          "2026-09-14T08:01:16+00:00",
          "2026-09-14T08:32:17+00:00",
          "2026-09-14T08:39:02+00:00",
          "2026-09-14T08:47:35+00:00",
          "2026-09-14T08:59:15+00:00",
          "2026-09-14T09:13:11+00:00",
          "2026-09-14T09:22:06+00:00",
          "2026-09-14T09:28:19+00:00",
          "2026-09-14T09:34:28+00:00",
          "2026-09-14T22:23:58+00:00",
          "2026-09-14T22:30:48+00:00",
          "2026-09-14T22:37:07+00:00",
          "2026-09-14T22:47:16+00:00",
          "2026-09-14T22:53:52+00:00",
          "2026-09-14T23:00:01+00:00",
          "2026-09-15T01:26:29+00:00",
          "2026-09-15T01:44:06+00:00",
          "2026-09-15T04:04:28+00:00",
          "2026-09-15T08:14:16+00:00",
          "2026-09-16T00:12:15+00:00",
          "2026-09-16T04:30:53+00:00"
        ],
        "label": "2026-09-16"
      }
    },
    {
      "type": "Feature",
      "geometry": {
        "type": "LineString",
        "coordinates": [
          [
            128.03194,
            -15.91985
          ],
          [
            127.98306,
            -15.87463
          ],
          [
            127.91189,
            -15.82284
          ]
        ]
      },
      "properties": {
        "times": [
          "2026-09-16T08:08:51+00:00",
          "2026-09-16T08:15:22+00:00",
          "2026-09-16T08:21:31+00:00"
        ],
        "label": "2026-09-16"
      }
    },
    {
      "type": "Feature",
      "geometry": {
        "type": "LineString",
        "coordinates": [
          [
            128.30017,
            -17.42151
          ],
          [
            128.31547,
            -17.53399
          ],
          [
            128.37848,
            -17.51034
          ],
          [
            128.33114,
            -17.54876
          ],
          [
            128.29791,
            -17.50998
          ]
        ]
      },
      "properties": {
        "times": [
          "2026-09-17T23:48:36+00:00",
          "2026-09-18T00:12:39+00:00",
          "2026-09-18T05:19:41+00:00",
          "2026-09-18T05:29:11+00:00",
          "2026-09-18T05:39:57+00:00"
        ],
        "label": "2026-09-18"
      }
    },
    {
      "type": "Feature",
      "geometry": {
        "type": "LineString",
        "coordinates": [
          [
            127.88465,
            -15.79775
          ],
          [
            128.42392,
            -15.97918
          ],
          [
            128.37715,
            -16.19513
          ],
          [
            128.32498,
            -16.23729
          ],
          [
            128.2354,
            -16.34397
          ],
          [
            128.20151,
            -16.51292
          ],
          [
            128.27833,
            -16.73955
          ],
          [
            128.27816,
            -16.90331
          ],
          [
            128.22577,
            -16.99461
          ],
          [
            128.1945,
            -17.06097
          ],
          [
            128.13675,
            -17.17486
          ],
          [
            128.05709,
            -17.28097
          ],
          [
            128.01625,
            -17.40965
          ],
          [
            128.0356,
            -17.45962
          ],
          [
            128.11619,
            -17.39181
          ],
          [
            128.17055,
            -17.41264
          ]
        ]
      },
      "properties": {
        "times": [
          "2026-09-17T01:37:41+00:00",
          "2026-09-17T02:48:27+00:00",
          "2026-09-17T03:04:35+00:00",
          "2026-09-17T03:21:58+00:00",
          "2026-09-17T03:31:50+00:00",
          "2026-09-17T03:45:04+00:00",
          "2026-09-17T04:05:14+00:00",
          "2026-09-17T04:22:53+00:00",
          "2026-09-17T04:31:59+00:00",
          "2026-09-17T07:14:59+00:00",
          "2026-09-17T07:25:44+00:00",
          "2026-09-17T07:36:20+00:00",
          "2026-09-17T07:46:11+00:00",
          "2026-09-17T08:16:15+00:00",
          "2026-09-17T08:56:21+00:00",
          "2026-09-17T09:19:17+00:00"
        ],
        "label": "2026-09-17"
      }
    },
    {
      "type": "Feature",
      "geometry": {
        "type": "LineString",
        "coordinates": [
          [
            128.30133,
            -17.52001
          ],
          [
            128.39752,
            -17.32208
          ],
          [
            128.35613,
            -17.34409
          ],
          [
            128.32542,
            -17.40112
          ],
          [
            128.27891,
            -17.39757
          ],
          [
            128.21999,
            -17.39725
          ],
          [
            128.16981,
            -17.40922
          ],
          [
            128.09832,
            -17.40275
          ],
          [
            127.96825,
            -17.45368
          ],
          [
            127.88899,
            -17.5286
          ],
          [
            127.67017,
            -18.22721
          ],
          [
            127.64187,
            -18.24255
          ],
          [
            127.54072,
            -18.33362
          ],
          [
            127.44718,
            -18.42084
          ],
          [
            127.36126,
            -18.51509
          ],
          [
            127.23537,
            -18.55309
          ],
          [
            127.10221,
            -18.57098
          ],
          [
            126.99488,
            -18.63568
          ],
          [
            126.88728,
            -18.69674
          ],
          [
            126.56462,
            -18.79219
          ]
        ]
      },
      "properties": {
        "times": [
          "2026-09-18T21:56:08+00:00",
          "2026-09-18T22:43:30+00:00",
          "2026-09-19T03:35:16+00:00",
          "2026-09-19T03:48:02+00:00",
          "2026-09-19T05:32:35+00:00",
          "2026-09-19T05:50:51+00:00",
          "2026-09-19T06:09:08+00:00",
          "2026-09-19T06:34:32+00:00",
          "2026-09-19T07:51:07+00:00",
          "2026-09-19T08:00:39+00:00",
          "2026-09-19T09:22:55+00:00",
          "2026-09-19T22:42:56+00:00",
          "2026-09-19T22:52:35+00:00",
          "2026-09-19T23:01:53+00:00",
          "2026-09-19T23:11:04+00:00",
          "2026-09-19T23:20:24+00:00",
          "2026-09-19T23:29:35+00:00",
          "2026-09-19T23:38:55+00:00",
          "2026-09-19T23:48:06+00:00",
          "2026-09-20T02:10:32+00:00"
        ],
        "label": "2026-09-20"
      }
    },
    {
      "type": "Feature",
      "geometry": {
        "type": "LineString",
        "coordinates": [
          [
            125.75438,
            -18.51581
          ],
          [
            125.41473,
            -18.09818
          ],
          [
            125.26149,
            -17.955
          ],
          [
            125.23846,
            -17.98569
          ],
          [
            125.09421,
            -17.9625
          ],
          [
            124.95496,
            -17.96805
          ],
          [
            124.60909,
            -17.89174
          ],
          [
            123.53812,
            -17.71124
          ],
          [
            123.40589,
            -17.6708
          ],
          [
            123.27296,
            -17.65816
          ],
          [
            123.13721,
            -17.65441
          ],
          [
            123.01393,
            -17.71375
          ],
          [
            122.88422,
            -17.76871
          ],
          [
            122.75441,
            -17.8151
          ],
          [
            122.61933,
            -17.82315
          ],
          [
            122.48709,
            -17.85097
          ],
          [
            122.31814,
            -17.88026
          ]
        ]
      },
      "properties": {
        "times": [
          "2026-09-20T03:26:30+00:00",
          "2026-09-20T05:08:32+00:00",
          "2026-09-20T05:30:34+00:00",
          "2026-09-20T23:23:01+00:00",
          "2026-09-20T23:33:17+00:00",
          "2026-09-20T23:42:39+00:00",
          "2026-09-21T00:47:15+00:00",
          "2026-09-21T02:36:48+00:00",
          "2026-09-21T02:46:22+00:00",
          "2026-09-21T02:55:37+00:00",
          "2026-09-21T03:04:53+00:00",
          "2026-09-21T03:14:09+00:00",
          "2026-09-21T03:23:24+00:00",
          "2026-09-21T03:32:40+00:00",
          "2026-09-21T03:42:01+00:00",
          "2026-09-21T04:07:11+00:00",
          "2026-09-21T04:18:36+00:00"
        ],
        "label": "2026-09-21"
      }
    },
    {
      "type": "Feature",
      "geometry": {
        "type": "LineString",
        "coordinates": [
          [
            122.27606,
            -17.89026
          ],
          [
            122.2812,
            -17.78472
          ],
          [
            122.23371,
            -17.74052
          ],
          [
            122.20852,
            -17.74736
          ],
          [
            122.20431,
            -17.68471
          ],
          [
            122.20539,
            -17.62982
          ],
          [
            122.16077,
            -17.58159
          ]
        ]
      },
      "properties": {
        "times": [
          "2026-09-24T23:26:50+00:00",
          "2026-09-24T23:46:57+00:00",
          "2026-09-24T23:57:32+00:00",
          "2026-09-25T01:54:27+00:00",
          "2026-09-25T02:19:37+00:00",
          "2026-09-25T05:32:38+00:00",
          "2026-09-25T06:33:41+00:00"
        ],
        "label": "2026-09-25"
      }
    },
    {
      "type": "Feature",
      "geometry": {
        "type": "LineString",
        "coordinates": [
          [
            122.22265,
            -17.95433
          ],
          [
            122.26658,
            -17.88909
          ],
          [
            122.38777,
            -17.86815
          ],
          [
            122.50486,
            -17.86362
          ],
          [
            122.55523,
            -17.97401
          ],
          [
            122.58136,
            -18.07896
          ],
          [
            122.49793,
            -18.17778
          ],
          [
            122.39468,
            -18.26162
          ],
          [
            122.2668,
            -18.29085
          ],
          [
            122.16444,
            -18.36745
          ],
          [
            122.00971,
            -18.54215
          ],
          [
            121.85498,
            -18.7376
          ],
          [
            121.72797,
            -18.93507
          ],
          [
            121.66746,
            -19.03307
          ]
        ]
      },
      "properties": {
        "times": [
          "2026-09-28T06:29:21+00:00",
          "2026-09-28T06:40:19+00:00",
          "2026-09-28T06:49:50+00:00",
          "2026-09-28T06:59:35+00:00",
          "2026-09-28T07:08:51+00:00",
          "2026-09-28T07:18:07+00:00",
          "2026-09-28T07:27:43+00:00",
          "2026-09-28T08:03:55+00:00",
          "2026-09-28T08:13:11+00:00",
          "2026-09-28T08:22:26+00:00",
          "2026-09-28T08:39:36+00:00",
          "2026-09-28T08:58:43+00:00",
          "2026-09-28T09:15:45+00:00",
          "2026-09-28T09:24:54+00:00"
        ],
        "label": "2026-09-28"
      }
    }
  ]
}
