<?xml version='1.0' encoding='UTF-8'?>
<gpx version="1.1" creator="https://www.komoot.de" xmlns="http://www.topografix.com/GPX/1/1" xmlns:xsi="http://www.w3.org/2001/XMLSchema-instance" xsi:schemaLocation="http://www.topografix.com/GPX/1/1 http://www.topografix.com/GPX/1/1/gpx.xsd">
  <metadata>
    <name>El Questro</name>
    <author>
      <link href="https://www.komoot.de">
        <text>komoot</text>
        <type>text/html</type>
      </link>
    </author>
  </metadata>
  <trk>
    <name>El Questro</name>
    <type>hike</type>
    <trkseg>
      <trkpt lat="-16.021198" lon="128.022810">
        <ele>149.281324</ele>
        <time>2026-09-15T04:57:34.211Z</time>
      </trkpt>
      <trkpt lat="-16.021211" lon="128.022907">
        <ele>149.281324</ele>
        <time>2026-09-15T04:57:46.218Z</time>
      </trkpt>
      <trkpt lat="-16.021217" lon="128.023003">
        <ele>149.281324</ele>
        <time>2026-09-15T04:57:55.224Z</time>
      </trkpt>
      <trkpt lat="-16.021247" lon="128.023093">
        <ele>149.281324</ele>
        <time>2026-09-15T04:58:04.224Z</time>
      </trkpt>
      <trkpt lat="-16.021292" lon="128.023175">
        <ele>149.281324</ele>
        <time>2026-09-15T04:58:13.221Z</time>
      </trkpt>
      <trkpt lat="-16.021381" lon="128.023213">
        <ele>149.281324</ele>
        <time>2026-09-15T04:58:25.224Z</time>
      </trkpt>
      <trkpt lat="-16.021460" lon="128.023275">
        <ele>149.281324</ele>
        <time>2026-09-15T04:58:36.229Z</time>
      </trkpt>
      <trkpt lat="-16.021532" lon="128.023341">
        <ele>149.281324</ele>
        <time>2026-09-15T04:58:46.223Z</time>
      </trkpt>
      <trkpt lat="-16.021548" lon="128.023437">
        <ele>149.281324</ele>
        <time>2026-09-15T04:58:56.233Z</time>
      </trkpt>
      <trkpt lat="-16.021622" lon="128.023498">
        <ele>149.281324</ele>
        <time>2026-09-15T04:59:11.227Z</time>
      </trkpt>
      <trkpt lat="-16.021722" lon="128.023609">
        <ele>149.509868</ele>
        <time>2026-09-15T05:00:01.213Z</time>
      </trkpt>
      <trkpt lat="-16.021725" lon="128.023708">
        <ele>149.738899</ele>
        <time>2026-09-15T05:00:14.211Z</time>
      </trkpt>
      <trkpt lat="-16.021756" lon="128.023803">
        <ele>149.970882</ele>
        <time>2026-09-15T05:00:25.228Z</time>
      </trkpt>
      <trkpt lat="-16.021749" lon="128.023903">
        <ele>150.202724</ele>
        <time>2026-09-15T05:00:38.220Z</time>
      </trkpt>
      <trkpt lat="-16.021747" lon="128.023998">
        <ele>150.422445</ele>
        <time>2026-09-15T05:00:48.220Z</time>
      </trkpt>
      <trkpt lat="-16.021807" lon="128.024140">
        <ele>150.781118</ele>
        <time>2026-09-15T05:01:24.221Z</time>
      </trkpt>
      <trkpt lat="-16.021811" lon="128.024237">
        <ele>151.005617</ele>
        <time>2026-09-15T05:01:36.230Z</time>
      </trkpt>
      <trkpt lat="-16.021806" lon="128.024340">
        <ele>151.244087</ele>
        <time>2026-09-15T05:01:49.216Z</time>
      </trkpt>
      <trkpt lat="-16.021833" lon="128.024434">
        <ele>151.470941</ele>
        <time>2026-09-15T05:02:03.227Z</time>
      </trkpt>
      <trkpt lat="-16.021882" lon="128.024516">
        <ele>151.694206</ele>
        <time>2026-09-15T05:02:15.223Z</time>
      </trkpt>
      <trkpt lat="-16.021818" lon="128.024594">
        <ele>151.931346</ele>
        <time>2026-09-15T05:02:26.226Z</time>
      </trkpt>
      <trkpt lat="-16.021825" lon="128.024689">
        <ele>152.151658</ele>
        <time>2026-09-15T05:02:35.215Z</time>
      </trkpt>
      <trkpt lat="-16.021850" lon="128.024784">
        <ele>152.379411</ele>
        <time>2026-09-15T05:02:47.220Z</time>
      </trkpt>
      <trkpt lat="-16.021872" lon="128.024876">
        <ele>152.598627</ele>
        <time>2026-09-15T05:02:58.224Z</time>
      </trkpt>
      <trkpt lat="-16.021915" lon="128.024963">
        <ele>152.824836</ele>
        <time>2026-09-15T05:03:07.222Z</time>
      </trkpt>
      <trkpt lat="-16.021937" lon="128.025055">
        <ele>153.044052</ele>
        <time>2026-09-15T05:03:18.220Z</time>
      </trkpt>
      <trkpt lat="-16.021975" lon="128.025147">
        <ele>153.275594</ele>
        <time>2026-09-15T05:03:28.214Z</time>
      </trkpt>
      <trkpt lat="-16.021989" lon="128.025303">
        <ele>153.660537</ele>
        <time>2026-09-15T05:04:14.215Z</time>
      </trkpt>
      <trkpt lat="-16.021998" lon="128.025400">
        <ele>154.059017</ele>
        <time>2026-09-15T05:04:23.219Z</time>
      </trkpt>
      <trkpt lat="-16.022012" lon="128.025496">
        <ele>154.456058</ele>
        <time>2026-09-15T05:04:34.213Z</time>
      </trkpt>
      <trkpt lat="-16.022037" lon="128.025590">
        <ele>154.854871</ele>
        <time>2026-09-15T05:04:45.229Z</time>
      </trkpt>
      <trkpt lat="-16.022035" lon="128.025691">
        <ele>155.267951</ele>
        <time>2026-09-15T05:04:57.227Z</time>
      </trkpt>
      <trkpt lat="-16.022020" lon="128.025841">
        <ele>155.884617</ele>
        <time>2026-09-15T05:06:01.229Z</time>
      </trkpt>
      <trkpt lat="-16.022028" lon="128.025943">
        <ele>156.303086</ele>
        <time>2026-09-15T05:06:13.224Z</time>
      </trkpt>
      <trkpt lat="-16.022050" lon="128.026041">
        <ele>156.714596</ele>
        <time>2026-09-15T05:06:24.220Z</time>
      </trkpt>
      <trkpt lat="-16.022038" lon="128.026144">
        <ele>157.138850</ele>
        <time>2026-09-15T05:06:34.219Z</time>
      </trkpt>
      <trkpt lat="-16.022069" lon="128.026235">
        <ele>157.533632</ele>
        <time>2026-09-15T05:06:49.224Z</time>
      </trkpt>
      <trkpt lat="-16.022059" lon="128.026335">
        <ele>157.944743</ele>
        <time>2026-09-15T05:06:58.224Z</time>
      </trkpt>
      <trkpt lat="-16.022037" lon="128.026427">
        <ele>158.332403</ele>
        <time>2026-09-15T05:07:08.229Z</time>
      </trkpt>
      <trkpt lat="-16.022034" lon="128.026524">
        <ele>158.729244</ele>
        <time>2026-09-15T05:07:18.222Z</time>
      </trkpt>
      <trkpt lat="-16.022007" lon="128.026616">
        <ele>159.122582</ele>
        <time>2026-09-15T05:07:29.226Z</time>
      </trkpt>
      <trkpt lat="-16.021969" lon="128.026713">
        <ele>159.550899</ele>
        <time>2026-09-15T05:07:41.223Z</time>
      </trkpt>
      <trkpt lat="-16.021907" lon="128.026794">
        <ele>159.974307</ele>
        <time>2026-09-15T05:07:51.228Z</time>
      </trkpt>
      <trkpt lat="-16.021885" lon="128.026885">
        <ele>160.358000</ele>
        <time>2026-09-15T05:08:10.225Z</time>
      </trkpt>
      <trkpt lat="-16.021863" lon="128.026982">
        <ele>160.765530</ele>
        <time>2026-09-15T05:08:37.226Z</time>
      </trkpt>
      <trkpt lat="-16.021841" lon="128.027075">
        <ele>161.157159</ele>
        <time>2026-09-15T05:08:47.221Z</time>
      </trkpt>
      <trkpt lat="-16.021776" lon="128.027142">
        <ele>161.647347</ele>
        <time>2026-09-15T05:09:06.218Z</time>
      </trkpt>
      <trkpt lat="-16.021687" lon="128.027170">
        <ele>162.182464</ele>
        <time>2026-09-15T05:09:31.217Z</time>
      </trkpt>
      <trkpt lat="-16.021667" lon="128.027265">
        <ele>162.720429</ele>
        <time>2026-09-15T05:09:59.205Z</time>
      </trkpt>
      <trkpt lat="-16.021654" lon="128.027360">
        <ele>163.251235</ele>
        <time>2026-09-15T05:10:14.224Z</time>
      </trkpt>
      <trkpt lat="-16.021651" lon="128.027457">
        <ele>163.788082</ele>
        <time>2026-09-15T05:10:29.222Z</time>
      </trkpt>
      <trkpt lat="-16.021662" lon="128.027555">
        <ele>164.333868</ele>
        <time>2026-09-15T05:10:44.217Z</time>
      </trkpt>
      <trkpt lat="-16.021620" lon="128.027646">
        <ele>164.892275</ele>
        <time>2026-09-15T05:10:59.218Z</time>
      </trkpt>
      <trkpt lat="-16.021640" lon="128.027739">
        <ele>165.419438</ele>
        <time>2026-09-15T05:11:10.222Z</time>
      </trkpt>
      <trkpt lat="-16.021593" lon="128.027819">
        <ele>165.938092</ele>
        <time>2026-09-15T05:11:28.220Z</time>
      </trkpt>
      <trkpt lat="-16.021544" lon="128.027901">
        <ele>166.472203</ele>
        <time>2026-09-15T05:11:44.221Z</time>
      </trkpt>
      <trkpt lat="-16.021494" lon="128.027986">
        <ele>167.023460</ele>
        <time>2026-09-15T05:11:55.219Z</time>
      </trkpt>
      <trkpt lat="-16.021449" lon="128.028069">
        <ele>167.550594</ele>
        <time>2026-09-15T05:12:07.222Z</time>
      </trkpt>
      <trkpt lat="-16.021414" lon="128.028161">
        <ele>168.097921</ele>
        <time>2026-09-15T05:12:17.223Z</time>
      </trkpt>
      <trkpt lat="-16.021367" lon="128.028250">
        <ele>168.659653</ele>
        <time>2026-09-15T05:12:26.222Z</time>
      </trkpt>
      <trkpt lat="-16.021359" lon="128.028349">
        <ele>169.209219</ele>
        <time>2026-09-15T05:12:38.218Z</time>
      </trkpt>
      <trkpt lat="-16.021206" lon="128.028599">
        <ele>170.848674</ele>
        <time>2026-09-15T05:13:52.214Z</time>
      </trkpt>
      <trkpt lat="-16.021191" lon="128.028699">
        <ele>171.408535</ele>
        <time>2026-09-15T05:14:04.208Z</time>
      </trkpt>
      <trkpt lat="-16.021149" lon="128.028788">
        <ele>171.737810</ele>
        <time>2026-09-15T05:14:21.201Z</time>
      </trkpt>
      <trkpt lat="-16.021106" lon="128.028876">
        <ele>171.937064</ele>
        <time>2026-09-15T05:14:35.224Z</time>
      </trkpt>
      <trkpt lat="-16.020904" lon="128.028800">
        <ele>172.388139</ele>
        <time>2026-09-15T05:15:26.219Z</time>
      </trkpt>
      <trkpt lat="-16.020822" lon="128.028849">
        <ele>172.586716</ele>
        <time>2026-09-15T05:15:42.221Z</time>
      </trkpt>
      <trkpt lat="-16.020563" lon="128.028825">
        <ele>173.132757</ele>
        <time>2026-09-15T05:17:12.225Z</time>
      </trkpt>
      <trkpt lat="-16.020474" lon="128.028853">
        <ele>173.328011</ele>
        <time>2026-09-15T05:17:28.228Z</time>
      </trkpt>
      <trkpt lat="-16.020395" lon="128.028911">
        <ele>173.531053</ele>
        <time>2026-09-15T05:17:44.221Z</time>
      </trkpt>
      <trkpt lat="-16.020311" lon="128.028949">
        <ele>173.723403</ele>
        <time>2026-09-15T05:17:53.223Z</time>
      </trkpt>
      <trkpt lat="-16.020214" lon="128.028935">
        <ele>173.929049</ele>
        <time>2026-09-15T05:18:05.221Z</time>
      </trkpt>
      <trkpt lat="-16.020120" lon="128.028927">
        <ele>174.127104</ele>
        <time>2026-09-15T05:18:17.224Z</time>
      </trkpt>
      <trkpt lat="-16.020029" lon="128.028936">
        <ele>174.319061</ele>
        <time>2026-09-15T05:18:27.222Z</time>
      </trkpt>
      <trkpt lat="-16.019958" lon="128.028993">
        <ele>174.507385</ele>
        <time>2026-09-15T05:18:37.223Z</time>
      </trkpt>
      <trkpt lat="-16.019876" lon="128.029033">
        <ele>174.697569</ele>
        <time>2026-09-15T05:18:53.222Z</time>
      </trkpt>
      <trkpt lat="-16.019836" lon="128.029123">
        <ele>174.897705</ele>
        <time>2026-09-15T05:19:08.210Z</time>
      </trkpt>
      <trkpt lat="-16.019778" lon="128.029213">
        <ele>175.116414</ele>
        <time>2026-09-15T05:19:35.207Z</time>
      </trkpt>
      <trkpt lat="-16.019822" lon="128.029297">
        <ele>175.309503</ele>
        <time>2026-09-15T05:19:45.217Z</time>
      </trkpt>
      <trkpt lat="-16.019999" lon="128.029437">
        <ele>175.937571</ele>
        <time>2026-09-15T05:21:44.212Z</time>
      </trkpt>
      <trkpt lat="-16.019990" lon="128.029535">
        <ele>176.218925</ele>
        <time>2026-09-15T05:21:55.216Z</time>
      </trkpt>
      <trkpt lat="-16.020052" lon="128.029612">
        <ele>176.506000</ele>
        <time>2026-09-15T05:22:08.206Z</time>
      </trkpt>
      <trkpt lat="-16.020076" lon="128.029712">
        <ele>176.800568</ele>
        <time>2026-09-15T05:22:17.211Z</time>
      </trkpt>
      <trkpt lat="-16.020164" lon="128.029739">
        <ele>177.073369</ele>
        <time>2026-09-15T05:22:42.213Z</time>
      </trkpt>
      <trkpt lat="-16.020256" lon="128.029747">
        <ele>177.347877</ele>
        <time>2026-09-15T05:23:01.221Z</time>
      </trkpt>
      <trkpt lat="-16.020348" lon="128.029746">
        <ele>177.621445</ele>
        <time>2026-09-15T05:23:28.227Z</time>
      </trkpt>
      <trkpt lat="-16.020439" lon="128.029767">
        <ele>177.898602</ele>
        <time>2026-09-15T05:23:45.214Z</time>
      </trkpt>
      <trkpt lat="-16.020534" lon="128.029789">
        <ele>178.187988</ele>
        <time>2026-09-15T05:23:57.224Z</time>
      </trkpt>
      <trkpt lat="-16.020612" lon="128.029848">
        <ele>178.474731</ele>
        <time>2026-09-15T05:24:24.216Z</time>
      </trkpt>
      <trkpt lat="-16.020690" lon="128.029903">
        <ele>178.754905</ele>
        <time>2026-09-15T05:24:39.220Z</time>
      </trkpt>
      <trkpt lat="-16.020718" lon="128.029992">
        <ele>179.022539</ele>
        <time>2026-09-15T05:25:07.221Z</time>
      </trkpt>
      <trkpt lat="-16.020800" lon="128.030056">
        <ele>179.327339</ele>
        <time>2026-09-15T05:25:24.218Z</time>
      </trkpt>
      <trkpt lat="-16.020885" lon="128.030101">
        <ele>179.610918</ele>
        <time>2026-09-15T05:25:35.227Z</time>
      </trkpt>
      <trkpt lat="-16.020844" lon="128.030191">
        <ele>179.895559</ele>
        <time>2026-09-15T05:25:43.217Z</time>
      </trkpt>
      <trkpt lat="-16.020938" lon="128.030203">
        <ele>180.177156</ele>
        <time>2026-09-15T05:26:04.216Z</time>
      </trkpt>
      <trkpt lat="-16.021033" lon="128.030198">
        <ele>180.459991</ele>
        <time>2026-09-15T05:26:12.220Z</time>
      </trkpt>
      <trkpt lat="-16.021118" lon="128.030238">
        <ele>180.737645</ele>
        <time>2026-09-15T05:26:23.222Z</time>
      </trkpt>
      <trkpt lat="-16.021199" lon="128.030279">
        <ele>181.222314</ele>
        <time>2026-09-15T05:26:47.227Z</time>
      </trkpt>
      <trkpt lat="-16.021190" lon="128.030386">
        <ele>181.777789</ele>
        <time>2026-09-15T05:27:02.222Z</time>
      </trkpt>
      <trkpt lat="-16.021401" lon="128.030449">
        <ele>182.958917</ele>
        <time>2026-09-15T05:27:55.222Z</time>
      </trkpt>
      <trkpt lat="-16.021391" lon="128.030546">
        <ele>183.463439</ele>
        <time>2026-09-15T05:28:08.225Z</time>
      </trkpt>
      <trkpt lat="-16.021383" lon="128.030642">
        <ele>183.961774</ele>
        <time>2026-09-15T05:28:24.218Z</time>
      </trkpt>
      <trkpt lat="-16.021484" lon="128.030646">
        <ele>184.505606</ele>
        <time>2026-09-15T05:28:35.222Z</time>
      </trkpt>
      <trkpt lat="-16.021577" lon="128.030652">
        <ele>185.006961</ele>
        <time>2026-09-15T05:28:47.221Z</time>
      </trkpt>
      <trkpt lat="-16.021750" lon="128.030842">
        <ele>186.360463</ele>
        <time>2026-09-15T05:42:44.222Z</time>
      </trkpt>
      <trkpt lat="-16.021807" lon="128.030925">
        <ele>186.888012</ele>
        <time>2026-09-15T05:43:04.219Z</time>
      </trkpt>
      <trkpt lat="-16.021842" lon="128.031013">
        <ele>187.380536</ele>
        <time>2026-09-15T05:43:17.227Z</time>
      </trkpt>
      <trkpt lat="-16.021923" lon="128.031070">
        <ele>187.906692</ele>
        <time>2026-09-15T05:43:47.218Z</time>
      </trkpt>
      <trkpt lat="-16.022012" lon="128.031040">
        <ele>188.410069</ele>
        <time>2026-09-15T05:44:03.221Z</time>
      </trkpt>
      <trkpt lat="-16.022217" lon="128.031065">
        <ele>189.520639</ele>
        <time>2026-09-15T05:47:18.213Z</time>
      </trkpt>
      <trkpt lat="-16.022189" lon="128.031162">
        <ele>190.044416</ele>
        <time>2026-09-15T05:47:24.217Z</time>
      </trkpt>
      <trkpt lat="-16.022170" lon="128.031270">
        <ele>190.583310</ele>
        <time>2026-09-15T05:47:36.217Z</time>
      </trkpt>
      <trkpt lat="-16.022132" lon="128.031358">
        <ele>191.009159</ele>
        <time>2026-09-15T05:47:42.220Z</time>
      </trkpt>
      <trkpt lat="-16.022085" lon="128.031438">
        <ele>191.423037</ele>
        <time>2026-09-15T05:47:50.218Z</time>
      </trkpt>
      <trkpt lat="-16.022100" lon="128.031532">
        <ele>191.843648</ele>
        <time>2026-09-15T05:48:14.216Z</time>
      </trkpt>
      <trkpt lat="-16.022194" lon="128.031524">
        <ele>192.276791</ele>
        <time>2026-09-15T05:48:24.223Z</time>
      </trkpt>
      <trkpt lat="-16.022282" lon="128.031544">
        <ele>192.690467</ele>
        <time>2026-09-15T05:48:43.199Z</time>
      </trkpt>
      <trkpt lat="-16.022373" lon="128.031520">
        <ele>193.121609</ele>
        <time>2026-09-15T05:49:06.215Z</time>
      </trkpt>
      <trkpt lat="-16.022429" lon="128.031595">
        <ele>193.540829</ele>
        <time>2026-09-15T05:49:20.212Z</time>
      </trkpt>
      <trkpt lat="-16.022536" lon="128.031763">
        <ele>194.430445</ele>
        <time>2026-09-15T05:51:32.222Z</time>
      </trkpt>
      <trkpt lat="-16.022600" lon="128.031832">
        <ele>194.853716</ele>
        <time>2026-09-15T05:51:44.222Z</time>
      </trkpt>
      <trkpt lat="-16.022626" lon="128.031923">
        <ele>195.272776</ele>
        <time>2026-09-15T05:52:05.225Z</time>
      </trkpt>
      <trkpt lat="-16.022679" lon="128.032007">
        <ele>195.716320</ele>
        <time>2026-09-15T05:52:26.220Z</time>
      </trkpt>
      <trkpt lat="-16.022648" lon="128.032105">
        <ele>196.171733</ele>
        <time>2026-09-15T05:52:40.221Z</time>
      </trkpt>
      <trkpt lat="-16.022628" lon="128.032210">
        <ele>196.644233</ele>
        <time>2026-09-15T05:52:49.213Z</time>
      </trkpt>
      <trkpt lat="-16.022640" lon="128.032306">
        <ele>197.071560</ele>
        <time>2026-09-15T05:53:18.216Z</time>
      </trkpt>
      <trkpt lat="-16.022672" lon="128.032399">
        <ele>197.507590</ele>
        <time>2026-09-15T05:53:32.214Z</time>
      </trkpt>
      <trkpt lat="-16.022776" lon="128.032383">
        <ele>197.990410</ele>
        <time>2026-09-15T05:53:53.215Z</time>
      </trkpt>
      <trkpt lat="-16.022857" lon="128.032435">
        <ele>198.427525</ele>
        <time>2026-09-15T05:54:11.223Z</time>
      </trkpt>
      <trkpt lat="-16.022933" lon="128.032490">
        <ele>198.967820</ele>
        <time>2026-09-15T05:54:37.218Z</time>
      </trkpt>
      <trkpt lat="-16.023016" lon="128.032534">
        <ele>199.673102</ele>
        <time>2026-09-15T05:54:50.215Z</time>
      </trkpt>
      <trkpt lat="-16.023095" lon="128.032579">
        <ele>200.355004</ele>
        <time>2026-09-15T05:55:13.214Z</time>
      </trkpt>
      <trkpt lat="-16.023217" lon="128.032748">
        <ele>201.893078</ele>
        <time>2026-09-15T05:59:22.216Z</time>
      </trkpt>
      <trkpt lat="-16.023221" lon="128.032847">
        <ele>202.614144</ele>
        <time>2026-09-15T05:59:33.217Z</time>
      </trkpt>
      <trkpt lat="-16.023227" lon="128.032944">
        <ele>203.321481</ele>
        <time>2026-09-15T05:59:48.219Z</time>
      </trkpt>
      <trkpt lat="-16.023289" lon="128.033017">
        <ele>204.030390</ele>
        <time>2026-09-15T06:00:14.209Z</time>
      </trkpt>
      <trkpt lat="-16.023143" lon="128.033082">
        <ele>205.232738</ele>
        <time>2026-09-15T06:00:46.206Z</time>
      </trkpt>
      <trkpt lat="-16.023237" lon="128.033098">
        <ele>205.953894</ele>
        <time>2026-09-15T06:00:50.214Z</time>
      </trkpt>
      <trkpt lat="-16.023333" lon="128.033074">
        <ele>206.701419</ele>
        <time>2026-09-15T06:01:04.200Z</time>
      </trkpt>
      <trkpt lat="-16.023390" lon="128.033149">
        <ele>207.397206</ele>
        <time>2026-09-15T06:01:23.204Z</time>
      </trkpt>
      <trkpt lat="-16.023405" lon="128.033247">
        <ele>208.119345</ele>
        <time>2026-09-15T06:01:44.213Z</time>
      </trkpt>
      <trkpt lat="-16.023419" lon="128.033345">
        <ele>208.840331</ele>
        <time>2026-09-15T06:01:57.214Z</time>
      </trkpt>
      <trkpt lat="-16.023505" lon="128.033381">
        <ele>209.542182</ele>
        <time>2026-09-15T06:02:17.221Z</time>
      </trkpt>
      <trkpt lat="-16.023595" lon="128.033407">
        <ele>210.249371</ele>
        <time>2026-09-15T06:02:29.215Z</time>
      </trkpt>
      <trkpt lat="-16.023676" lon="128.033367">
        <ele>210.928213</ele>
        <time>2026-09-15T06:02:36.207Z</time>
      </trkpt>
      <trkpt lat="-16.023763" lon="128.033328">
        <ele>211.645448</ele>
        <time>2026-09-15T06:02:44.215Z</time>
      </trkpt>
      <trkpt lat="-16.023793" lon="128.033420">
        <ele>212.357305</ele>
        <time>2026-09-15T06:03:00.214Z</time>
      </trkpt>
      <trkpt lat="-16.023786" lon="128.033519">
        <ele>213.139202</ele>
        <time>2026-09-15T06:03:18.212Z</time>
      </trkpt>
      <trkpt lat="-16.023869" lon="128.033576">
        <ele>213.954206</ele>
        <time>2026-09-15T06:03:30.213Z</time>
      </trkpt>
      <trkpt lat="-16.023963" lon="128.033569">
        <ele>214.726512</ele>
        <time>2026-09-15T06:03:42.211Z</time>
      </trkpt>
      <trkpt lat="-16.024053" lon="128.033577">
        <ele>215.466754</ele>
        <time>2026-09-15T06:03:55.218Z</time>
      </trkpt>
      <trkpt lat="-16.024075" lon="128.033668">
        <ele>216.205855</ele>
        <time>2026-09-15T06:04:06.205Z</time>
      </trkpt>
      <trkpt lat="-16.024042" lon="128.033764">
        <ele>217.008918</ele>
        <time>2026-09-15T06:04:17.203Z</time>
      </trkpt>
      <trkpt lat="-16.024071" lon="128.033856">
        <ele>217.771546</ele>
        <time>2026-09-15T06:04:28.221Z</time>
      </trkpt>
      <trkpt lat="-16.024148" lon="128.033911">
        <ele>218.536961</ele>
        <time>2026-09-15T06:04:45.216Z</time>
      </trkpt>
      <trkpt lat="-16.024241" lon="128.033896">
        <ele>219.308205</ele>
        <time>2026-09-15T06:04:53.222Z</time>
      </trkpt>
      <trkpt lat="-16.024235" lon="128.034001">
        <ele>220.136712</ele>
        <time>2026-09-15T06:05:01.221Z</time>
      </trkpt>
      <trkpt lat="-16.024335" lon="128.033983">
        <ele>220.968392</ele>
        <time>2026-09-15T06:05:21.213Z</time>
      </trkpt>
      <trkpt lat="-16.024417" lon="128.034212">
        <ele>222.893252</ele>
        <time>2026-09-15T06:07:16.208Z</time>
      </trkpt>
      <trkpt lat="-16.024589" lon="128.034317">
        <ele>224.527521</ele>
        <time>2026-09-15T06:22:37.229Z</time>
      </trkpt>
      <trkpt lat="-16.024628" lon="128.034402">
        <ele>225.269408</ele>
        <time>2026-09-15T06:23:12.223Z</time>
      </trkpt>
      <trkpt lat="-16.024658" lon="128.034493">
        <ele>226.027172</ele>
        <time>2026-09-15T06:23:31.227Z</time>
      </trkpt>
      <trkpt lat="-16.024751" lon="128.034750">
        <ele>228.897900</ele>
        <time>2026-09-15T06:25:07.210Z</time>
      </trkpt>
      <trkpt lat="-16.024835" lon="128.034785">
        <ele>230.092980</ele>
        <time>2026-09-15T06:25:19.213Z</time>
      </trkpt>
      <trkpt lat="-16.024914" lon="128.034838">
        <ele>231.334471</ele>
        <time>2026-09-15T06:25:36.236Z</time>
      </trkpt>
      <trkpt lat="-16.024982" lon="128.034901">
        <ele>232.537036</ele>
        <time>2026-09-15T06:25:53.256Z</time>
      </trkpt>
      <trkpt lat="-16.025037" lon="128.034976">
        <ele>233.734571</ele>
        <time>2026-09-15T06:26:05.249Z</time>
      </trkpt>
      <trkpt lat="-16.025094" lon="128.035049">
        <ele>234.928500</ele>
        <time>2026-09-15T06:26:24.228Z</time>
      </trkpt>
      <trkpt lat="-16.025162" lon="128.035116">
        <ele>236.165414</ele>
        <time>2026-09-15T06:26:37.226Z</time>
      </trkpt>
      <trkpt lat="-16.025227" lon="128.035191">
        <ele>237.447370</ele>
        <time>2026-09-15T06:26:56.229Z</time>
      </trkpt>
      <trkpt lat="-16.025271" lon="128.035275">
        <ele>238.661752</ele>
        <time>2026-09-15T06:27:16.223Z</time>
      </trkpt>
      <trkpt lat="-16.025456" lon="128.035391">
        <ele>241.514535</ele>
        <time>2026-09-15T06:28:18.229Z</time>
      </trkpt>
      <trkpt lat="-16.025497" lon="128.035477">
        <ele>242.733152</ele>
        <time>2026-09-15T06:28:37.253Z</time>
      </trkpt>
      <trkpt lat="-16.025522" lon="128.035570">
        <ele>243.959012</ele>
        <time>2026-09-15T06:28:53.228Z</time>
      </trkpt>
      <trkpt lat="-16.025483" lon="128.035661">
        <ele>245.223816</ele>
        <time>2026-09-15T06:29:22.225Z</time>
      </trkpt>
      <trkpt lat="-16.025690" lon="128.035792">
        <ele>248.423773</ele>
        <time>2026-09-15T06:32:07.249Z</time>
      </trkpt>
      <trkpt lat="-16.025741" lon="128.035876">
        <ele>249.685009</ele>
        <time>2026-09-15T06:32:19.239Z</time>
      </trkpt>
      <trkpt lat="-16.025768" lon="128.035970">
        <ele>250.826602</ele>
        <time>2026-09-15T06:32:47.219Z</time>
      </trkpt>
      <trkpt lat="-16.025847" lon="128.036017">
        <ele>251.149446</ele>
        <time>2026-09-15T06:33:09.229Z</time>
      </trkpt>
      <trkpt lat="-16.026021" lon="128.036178">
        <ele>251.975523</ele>
        <time>2026-09-15T06:34:08.210Z</time>
      </trkpt>
      <trkpt lat="-16.026048" lon="128.036270">
        <ele>252.303516</ele>
        <time>2026-09-15T06:34:21.237Z</time>
      </trkpt>
      <trkpt lat="-16.026081" lon="128.036363">
        <ele>252.641542</ele>
        <time>2026-09-15T06:34:33.238Z</time>
      </trkpt>
      <trkpt lat="-16.026105" lon="128.036455">
        <ele>252.966586</ele>
        <time>2026-09-15T06:34:48.236Z</time>
      </trkpt>
      <trkpt lat="-16.026115" lon="128.036556">
        <ele>253.312791</ele>
        <time>2026-09-15T06:35:02.227Z</time>
      </trkpt>
      <trkpt lat="-16.026092" lon="128.036653">
        <ele>253.653451</ele>
        <time>2026-09-15T06:35:13.238Z</time>
      </trkpt>
      <trkpt lat="-16.026096" lon="128.036886">
        <ele>254.448045</ele>
        <time>2026-09-15T06:36:29.232Z</time>
      </trkpt>
      <trkpt lat="-16.026091" lon="128.036980">
        <ele>254.769050</ele>
        <time>2026-09-15T06:36:50.219Z</time>
      </trkpt>
      <trkpt lat="-16.026019" lon="128.037038">
        <ele>255.092089</ele>
        <time>2026-09-15T06:37:26.251Z</time>
      </trkpt>
      <trkpt lat="-16.026034" lon="128.036921">
        <ele>255.494561</ele>
        <time>2026-09-15T06:57:20.226Z</time>
      </trkpt>
      <trkpt lat="-16.026075" lon="128.036831">
        <ele>255.834162</ele>
        <time>2026-09-15T06:57:52.225Z</time>
      </trkpt>
      <trkpt lat="-16.026128" lon="128.036749">
        <ele>256.171101</ele>
        <time>2026-09-15T06:58:13.243Z</time>
      </trkpt>
      <trkpt lat="-16.026092" lon="128.036663">
        <ele>256.490942</ele>
        <time>2026-09-15T06:59:08.206Z</time>
      </trkpt>
      <trkpt lat="-16.026011" lon="128.036615">
        <ele>256.821639</ele>
        <time>2026-09-15T06:59:18.212Z</time>
      </trkpt>
      <trkpt lat="-16.026035" lon="128.036522">
        <ele>257.149975</ele>
        <time>2026-09-15T06:59:30.237Z</time>
      </trkpt>
      <trkpt lat="-16.026020" lon="128.036427">
        <ele>256.112045</ele>
        <time>2026-09-15T06:59:39.221Z</time>
      </trkpt>
      <trkpt lat="-16.026026" lon="128.036329">
        <ele>254.965933</ele>
        <time>2026-09-15T06:59:51.228Z</time>
      </trkpt>
      <trkpt lat="-16.025936" lon="128.036303">
        <ele>253.831690</ele>
        <time>2026-09-15T07:00:01.215Z</time>
      </trkpt>
      <trkpt lat="-16.025846" lon="128.036267">
        <ele>252.660807</ele>
        <time>2026-09-15T07:00:16.230Z</time>
      </trkpt>
      <trkpt lat="-16.025789" lon="128.036193">
        <ele>251.553990</ele>
        <time>2026-09-15T07:00:31.234Z</time>
      </trkpt>
      <trkpt lat="-16.025681" lon="128.035957">
        <ele>248.503262</ele>
        <time>2026-09-15T07:01:20.232Z</time>
      </trkpt>
      <trkpt lat="-16.025610" lon="128.035885">
        <ele>247.299304</ele>
        <time>2026-09-15T07:01:30.233Z</time>
      </trkpt>
      <trkpt lat="-16.025532" lon="128.035837">
        <ele>246.198850</ele>
        <time>2026-09-15T07:01:44.230Z</time>
      </trkpt>
      <trkpt lat="-16.025489" lon="128.035643">
        <ele>243.875170</ele>
        <time>2026-09-15T07:03:08.222Z</time>
      </trkpt>
      <trkpt lat="-16.025349" lon="128.035576">
        <ele>242.003885</ele>
        <time>2026-09-15T07:05:22.224Z</time>
      </trkpt>
      <trkpt lat="-16.025412" lon="128.035504">
        <ele>240.867469</ele>
        <time>2026-09-15T07:05:48.223Z</time>
      </trkpt>
      <trkpt lat="-16.025394" lon="128.035412">
        <ele>239.771679</ele>
        <time>2026-09-15T07:06:21.228Z</time>
      </trkpt>
      <trkpt lat="-16.025140" lon="128.035274">
        <ele>236.292064</ele>
        <time>2026-09-15T07:07:28.229Z</time>
      </trkpt>
      <trkpt lat="-16.025131" lon="128.035178">
        <ele>235.188817</ele>
        <time>2026-09-15T07:07:42.231Z</time>
      </trkpt>
      <trkpt lat="-16.025132" lon="128.035082">
        <ele>234.224485</ele>
        <time>2026-09-15T07:08:16.237Z</time>
      </trkpt>
      <trkpt lat="-16.025109" lon="128.034989">
        <ele>233.259915</ele>
        <time>2026-09-15T07:08:34.227Z</time>
      </trkpt>
      <trkpt lat="-16.025042" lon="128.034780">
        <ele>231.046917</ele>
        <time>2026-09-15T07:10:46.208Z</time>
      </trkpt>
      <trkpt lat="-16.024977" lon="128.034712">
        <ele>230.083607</ele>
        <time>2026-09-15T07:11:03.224Z</time>
      </trkpt>
      <trkpt lat="-16.024896" lon="128.034670">
        <ele>229.137806</ele>
        <time>2026-09-15T07:11:20.232Z</time>
      </trkpt>
      <trkpt lat="-16.024818" lon="128.034619">
        <ele>228.175055</ele>
        <time>2026-09-15T07:11:32.225Z</time>
      </trkpt>
      <trkpt lat="-16.024737" lon="128.034564">
        <ele>227.164230</ele>
        <time>2026-09-15T07:11:49.225Z</time>
      </trkpt>
      <trkpt lat="-16.024681" lon="128.034488">
        <ele>226.202326</ele>
        <time>2026-09-15T07:12:11.226Z</time>
      </trkpt>
      <trkpt lat="-16.024769" lon="128.034462">
        <ele>225.246308</ele>
        <time>2026-09-15T07:12:41.204Z</time>
      </trkpt>
      <trkpt lat="-16.024835" lon="128.034392">
        <ele>224.261362</ele>
        <time>2026-09-15T07:13:01.220Z</time>
      </trkpt>
      <trkpt lat="-16.024796" lon="128.034306">
        <ele>223.306207</ele>
        <time>2026-09-15T07:13:24.217Z</time>
      </trkpt>
      <trkpt lat="-16.024708" lon="128.034264">
        <ele>222.294405</ele>
        <time>2026-09-15T07:13:36.223Z</time>
      </trkpt>
      <trkpt lat="-16.024616" lon="128.034244">
        <ele>221.312184</ele>
        <time>2026-09-15T07:13:49.242Z</time>
      </trkpt>
      <trkpt lat="-16.024528" lon="128.034224">
        <ele>220.370842</ele>
        <time>2026-09-15T07:13:59.224Z</time>
      </trkpt>
      <trkpt lat="-16.024391" lon="128.034044">
        <ele>218.064587</ele>
        <time>2026-09-15T07:15:56.220Z</time>
      </trkpt>
      <trkpt lat="-16.024199" lon="128.033841">
        <ele>215.328288</ele>
        <time>2026-09-15T07:17:54.229Z</time>
      </trkpt>
      <trkpt lat="-16.024208" lon="128.033746">
        <ele>214.459343</ele>
        <time>2026-09-15T07:18:07.232Z</time>
      </trkpt>
      <trkpt lat="-16.024117" lon="128.033735">
        <ele>213.591717</ele>
        <time>2026-09-15T07:18:31.227Z</time>
      </trkpt>
      <trkpt lat="-16.024072" lon="128.033653">
        <ele>212.732198</ele>
        <time>2026-09-15T07:18:43.234Z</time>
      </trkpt>
      <trkpt lat="-16.024000" lon="128.033595">
        <ele>211.869814</ele>
        <time>2026-09-15T07:18:55.225Z</time>
      </trkpt>
      <trkpt lat="-16.023939" lon="128.033526">
        <ele>211.016444</ele>
        <time>2026-09-15T07:19:11.230Z</time>
      </trkpt>
      <trkpt lat="-16.023858" lon="128.033458">
        <ele>210.030737</ele>
        <time>2026-09-15T07:19:23.234Z</time>
      </trkpt>
      <trkpt lat="-16.023765" lon="128.033434">
        <ele>209.123277</ele>
        <time>2026-09-15T07:19:37.226Z</time>
      </trkpt>
      <trkpt lat="-16.023786" lon="128.033332">
        <ele>208.173740</ele>
        <time>2026-09-15T07:19:46.222Z</time>
      </trkpt>
      <trkpt lat="-16.023800" lon="128.033227">
        <ele>207.208805</ele>
        <time>2026-09-15T07:19:53.228Z</time>
      </trkpt>
      <trkpt lat="-16.023811" lon="128.033128">
        <ele>206.301636</ele>
        <time>2026-09-15T07:20:07.224Z</time>
      </trkpt>
      <trkpt lat="-16.023711" lon="128.033128">
        <ele>205.354571</ele>
        <time>2026-09-15T07:20:19.231Z</time>
      </trkpt>
      <trkpt lat="-16.023622" lon="128.033171">
        <ele>204.425234</ele>
        <time>2026-09-15T07:20:30.241Z</time>
      </trkpt>
      <trkpt lat="-16.023543" lon="128.033115">
        <ele>203.519904</ele>
        <time>2026-09-15T07:20:47.222Z</time>
      </trkpt>
      <trkpt lat="-16.023455" lon="128.033083">
        <ele>202.637049</ele>
        <time>2026-09-15T07:21:00.225Z</time>
      </trkpt>
      <trkpt lat="-16.023469" lon="128.032986">
        <ele>201.744186</ele>
        <time>2026-09-15T07:21:08.238Z</time>
      </trkpt>
      <trkpt lat="-16.023519" lon="128.032902">
        <ele>200.844804</ele>
        <time>2026-09-15T07:21:22.227Z</time>
      </trkpt>
      <trkpt lat="-16.023430" lon="128.032874">
        <ele>199.964224</ele>
        <time>2026-09-15T07:21:37.230Z</time>
      </trkpt>
      <trkpt lat="-16.023342" lon="128.032838">
        <ele>199.005145</ele>
        <time>2026-09-15T07:21:59.222Z</time>
      </trkpt>
      <trkpt lat="-16.023258" lon="128.032791">
        <ele>197.967715</ele>
        <time>2026-09-15T07:22:13.237Z</time>
      </trkpt>
      <trkpt lat="-16.023217" lon="128.032708">
        <ele>196.992089</ele>
        <time>2026-09-15T07:22:31.230Z</time>
      </trkpt>
      <trkpt lat="-16.023140" lon="128.032656">
        <ele>195.993577</ele>
        <time>2026-09-15T07:23:00.221Z</time>
      </trkpt>
      <trkpt lat="-16.023049" lon="128.032656">
        <ele>195.003752</ele>
        <time>2026-09-15T07:23:10.216Z</time>
      </trkpt>
      <trkpt lat="-16.023045" lon="128.032557">
        <ele>193.967830</ele>
        <time>2026-09-15T07:23:23.224Z</time>
      </trkpt>
      <trkpt lat="-16.023009" lon="128.032468">
        <ele>192.958329</ele>
        <time>2026-09-15T07:23:35.198Z</time>
      </trkpt>
      <trkpt lat="-16.022979" lon="128.032380">
        <ele>191.982165</ele>
        <time>2026-09-15T07:23:52.243Z</time>
      </trkpt>
      <trkpt lat="-16.022899" lon="128.032326">
        <ele>190.944898</ele>
        <time>2026-09-15T07:24:36.238Z</time>
      </trkpt>
      <trkpt lat="-16.022887" lon="128.032231">
        <ele>189.943167</ele>
        <time>2026-09-15T07:24:44.229Z</time>
      </trkpt>
      <trkpt lat="-16.022822" lon="128.032164">
        <ele>188.947919</ele>
        <time>2026-09-15T07:25:02.225Z</time>
      </trkpt>
      <trkpt lat="-16.022775" lon="128.032076">
        <ele>187.895412</ele>
        <time>2026-09-15T07:25:15.226Z</time>
      </trkpt>
      <trkpt lat="-16.022752" lon="128.031978">
        <ele>186.840756</ele>
        <time>2026-09-15T07:25:34.225Z</time>
      </trkpt>
      <trkpt lat="-16.022695" lon="128.031903">
        <ele>185.841150</ele>
        <time>2026-09-15T07:25:45.229Z</time>
      </trkpt>
      <trkpt lat="-16.022612" lon="128.031858">
        <ele>184.823117</ele>
        <time>2026-09-15T07:25:55.229Z</time>
      </trkpt>
      <trkpt lat="-16.022564" lon="128.031769">
        <ele>183.756178</ele>
        <time>2026-09-15T07:26:03.231Z</time>
      </trkpt>
      <trkpt lat="-16.022539" lon="128.031676">
        <ele>182.746584</ele>
        <time>2026-09-15T07:26:19.228Z</time>
      </trkpt>
      <trkpt lat="-16.022517" lon="128.031577">
        <ele>181.684270</ele>
        <time>2026-09-15T07:26:32.227Z</time>
      </trkpt>
      <trkpt lat="-16.022491" lon="128.031486">
        <ele>180.691753</ele>
        <time>2026-09-15T07:26:46.227Z</time>
      </trkpt>
      <trkpt lat="-16.022434" lon="128.031406">
        <ele>179.734136</ele>
        <time>2026-09-15T07:27:02.230Z</time>
      </trkpt>
      <trkpt lat="-16.022385" lon="128.031324">
        <ele>179.023822</ele>
        <time>2026-09-15T07:27:13.237Z</time>
      </trkpt>
      <trkpt lat="-16.022284" lon="128.031313">
        <ele>178.246560</ele>
        <time>2026-09-15T07:27:25.242Z</time>
      </trkpt>
      <trkpt lat="-16.022205" lon="128.031256">
        <ele>177.510737</ele>
        <time>2026-09-15T07:27:36.224Z</time>
      </trkpt>
      <trkpt lat="-16.022101" lon="128.031251">
        <ele>176.713888</ele>
        <time>2026-09-15T07:27:49.229Z</time>
      </trkpt>
      <trkpt lat="-16.022060" lon="128.031165">
        <ele>176.007676</ele>
        <time>2026-09-15T07:27:58.227Z</time>
      </trkpt>
      <trkpt lat="-16.022018" lon="128.031082">
        <ele>175.317632</ele>
        <time>2026-09-15T07:28:15.228Z</time>
      </trkpt>
      <trkpt lat="-16.022001" lon="128.030985">
        <ele>174.592283</ele>
        <time>2026-09-15T07:28:43.235Z</time>
      </trkpt>
      <trkpt lat="-16.021907" lon="128.030963">
        <ele>173.854843</ele>
        <time>2026-09-15T07:28:54.229Z</time>
      </trkpt>
      <trkpt lat="-16.021824" lon="128.030918">
        <ele>173.138494</ele>
        <time>2026-09-15T07:29:04.229Z</time>
      </trkpt>
      <trkpt lat="-16.021753" lon="128.030636">
        <ele>170.993956</ele>
        <time>2026-09-15T07:31:48.233Z</time>
      </trkpt>
      <trkpt lat="-16.021660" lon="128.030656">
        <ele>170.267102</ele>
        <time>2026-09-15T07:32:04.236Z</time>
      </trkpt>
      <trkpt lat="-16.021570" lon="128.030662">
        <ele>169.576844</ele>
        <time>2026-09-15T07:32:24.222Z</time>
      </trkpt>
      <trkpt lat="-16.021450" lon="128.030457">
        <ele>167.811082</ele>
        <time>2026-09-15T07:36:00.225Z</time>
      </trkpt>
      <trkpt lat="-16.021375" lon="128.030403">
        <ele>167.112992</ele>
        <time>2026-09-15T07:36:20.259Z</time>
      </trkpt>
      <trkpt lat="-16.021289" lon="128.030369">
        <ele>166.408841</ele>
        <time>2026-09-15T07:36:32.231Z</time>
      </trkpt>
      <trkpt lat="-16.021238" lon="128.030459">
        <ele>166.197294</ele>
        <time>2026-09-15T07:36:40.237Z</time>
      </trkpt>
      <trkpt lat="-16.021065" lon="128.030336">
        <ele>166.293162</ele>
        <time>2026-09-15T07:37:43.255Z</time>
      </trkpt>
      <trkpt lat="-16.021075" lon="128.030233">
        <ele>166.338687</ele>
        <time>2026-09-15T07:38:06.230Z</time>
      </trkpt>
      <trkpt lat="-16.020825" lon="128.030294">
        <ele>166.456171</ele>
        <time>2026-09-15T07:39:09.228Z</time>
      </trkpt>
      <trkpt lat="-16.020737" lon="128.030270">
        <ele>166.497793</ele>
        <time>2026-09-15T07:39:20.222Z</time>
      </trkpt>
      <trkpt lat="-16.020717" lon="128.030175">
        <ele>166.540560</ele>
        <time>2026-09-15T07:39:31.234Z</time>
      </trkpt>
      <trkpt lat="-16.020747" lon="128.030081">
        <ele>166.584116</ele>
        <time>2026-09-15T07:39:40.219Z</time>
      </trkpt>
      <trkpt lat="-16.020715" lon="128.029991">
        <ele>166.626314</ele>
        <time>2026-09-15T07:39:51.230Z</time>
      </trkpt>
      <trkpt lat="-16.020647" lon="128.029925">
        <ele>166.668862</ele>
        <time>2026-09-15T07:40:01.234Z</time>
      </trkpt>
      <trkpt lat="-16.020665" lon="128.029828">
        <ele>166.712306</ele>
        <time>2026-09-15T07:40:12.222Z</time>
      </trkpt>
      <trkpt lat="-16.020568" lon="128.029850">
        <ele>166.757728</ele>
        <time>2026-09-15T07:40:26.220Z</time>
      </trkpt>
      <trkpt lat="-16.020480" lon="128.029878">
        <ele>166.799830</ele>
        <time>2026-09-15T07:40:36.216Z</time>
      </trkpt>
      <trkpt lat="-16.020391" lon="128.029856">
        <ele>166.841683</ele>
        <time>2026-09-15T07:40:44.222Z</time>
      </trkpt>
      <trkpt lat="-16.020298" lon="128.029827">
        <ele>166.886103</ele>
        <time>2026-09-15T07:40:56.228Z</time>
      </trkpt>
      <trkpt lat="-16.020284" lon="128.029735">
        <ele>166.927064</ele>
        <time>2026-09-15T07:41:10.210Z</time>
      </trkpt>
      <trkpt lat="-16.020221" lon="128.029665">
        <ele>166.969235</ele>
        <time>2026-09-15T07:41:26.238Z</time>
      </trkpt>
      <trkpt lat="-16.020132" lon="128.029681">
        <ele>167.128857</ele>
        <time>2026-09-15T07:41:39.223Z</time>
      </trkpt>
      <trkpt lat="-16.020049" lon="128.029621">
        <ele>167.426424</ele>
        <time>2026-09-15T07:41:50.237Z</time>
      </trkpt>
      <trkpt lat="-16.019957" lon="128.029594">
        <ele>167.707863</ele>
        <time>2026-09-15T07:42:02.237Z</time>
      </trkpt>
      <trkpt lat="-16.019874" lon="128.029543">
        <ele>167.991670</ele>
        <time>2026-09-15T07:42:16.226Z</time>
      </trkpt>
      <trkpt lat="-16.019793" lon="128.029488">
        <ele>168.276449</ele>
        <time>2026-09-15T07:42:30.209Z</time>
      </trkpt>
      <trkpt lat="-16.019779" lon="128.029381">
        <ele>168.582040</ele>
        <time>2026-09-15T07:42:38.228Z</time>
      </trkpt>
      <trkpt lat="-16.019723" lon="128.029291">
        <ele>168.885439</ele>
        <time>2026-09-15T07:42:47.217Z</time>
      </trkpt>
      <trkpt lat="-16.019752" lon="128.029195">
        <ele>169.170210</ele>
        <time>2026-09-15T07:42:53.225Z</time>
      </trkpt>
      <trkpt lat="-16.019896" lon="128.029036">
        <ele>169.788438</ele>
        <time>2026-09-15T07:44:26.234Z</time>
      </trkpt>
      <trkpt lat="-16.020146" lon="128.028992">
        <ele>170.534952</ele>
        <time>2026-09-15T07:45:11.223Z</time>
      </trkpt>
      <trkpt lat="-16.020235" lon="128.029012">
        <ele>170.803030</ele>
        <time>2026-09-15T07:45:20.228Z</time>
      </trkpt>
      <trkpt lat="-16.020332" lon="128.028982">
        <ele>171.100971</ele>
        <time>2026-09-15T07:45:28.228Z</time>
      </trkpt>
      <trkpt lat="-16.020408" lon="128.028928">
        <ele>171.371934</ele>
        <time>2026-09-15T07:45:38.238Z</time>
      </trkpt>
      <trkpt lat="-16.020501" lon="128.028952">
        <ele>171.654044</ele>
        <time>2026-09-15T07:45:46.201Z</time>
      </trkpt>
      <trkpt lat="-16.020585" lon="128.028998">
        <ele>171.933526</ele>
        <time>2026-09-15T07:46:03.225Z</time>
      </trkpt>
      <trkpt lat="-16.020818" lon="128.028919">
        <ele>172.436886</ele>
        <time>2026-09-15T07:46:54.230Z</time>
      </trkpt>
      <trkpt lat="-16.020901" lon="128.028876">
        <ele>172.549198</ele>
        <time>2026-09-15T07:47:05.231Z</time>
      </trkpt>
      <trkpt lat="-16.020989" lon="128.028855">
        <ele>172.658560</ele>
        <time>2026-09-15T07:47:19.220Z</time>
      </trkpt>
      <trkpt lat="-16.021123" lon="128.028694">
        <ele>172.906513</ele>
        <time>2026-09-15T07:48:07.220Z</time>
      </trkpt>
      <trkpt lat="-16.021153" lon="128.028601">
        <ele>173.020724</ele>
        <time>2026-09-15T07:48:21.222Z</time>
      </trkpt>
      <trkpt lat="-16.021223" lon="128.028541">
        <ele>173.130583</ele>
        <time>2026-09-15T07:48:32.232Z</time>
      </trkpt>
      <trkpt lat="-16.021290" lon="128.028472">
        <ele>173.244775</ele>
        <time>2026-09-15T07:48:48.233Z</time>
      </trkpt>
      <trkpt lat="-16.021324" lon="128.028381">
        <ele>173.358445</ele>
        <time>2026-09-15T07:48:59.220Z</time>
      </trkpt>
      <trkpt lat="-16.021359" lon="128.028287">
        <ele>173.475809</ele>
        <time>2026-09-15T07:49:09.220Z</time>
      </trkpt>
      <trkpt lat="-16.021391" lon="128.028194">
        <ele>173.590812</ele>
        <time>2026-09-15T07:49:20.238Z</time>
      </trkpt>
      <trkpt lat="-16.021447" lon="128.028108">
        <ele>173.711752</ele>
        <time>2026-09-15T07:49:32.236Z</time>
      </trkpt>
      <trkpt lat="-16.021473" lon="128.028019">
        <ele>173.820050</ele>
        <time>2026-09-15T07:49:42.227Z</time>
      </trkpt>
      <trkpt lat="-16.021482" lon="128.027916">
        <ele>173.940462</ele>
        <time>2026-09-15T07:49:55.220Z</time>
      </trkpt>
      <trkpt lat="-16.021470" lon="128.027823">
        <ele>174.049708</ele>
        <time>2026-09-15T07:50:08.219Z</time>
      </trkpt>
      <trkpt lat="-16.021537" lon="128.027900">
        <ele>174.170633</ele>
        <time>2026-09-15T07:50:18.223Z</time>
      </trkpt>
      <trkpt lat="-16.021557" lon="128.027807">
        <ele>174.281585</ele>
        <time>2026-09-15T07:51:01.224Z</time>
      </trkpt>
      <trkpt lat="-16.021617" lon="128.027725">
        <ele>174.401569</ele>
        <time>2026-09-15T07:51:05.208Z</time>
      </trkpt>
      <trkpt lat="-16.021656" lon="128.027639">
        <ele>173.960653</ele>
        <time>2026-09-15T07:51:15.227Z</time>
      </trkpt>
      <trkpt lat="-16.021653" lon="128.027545">
        <ele>172.842290</ele>
        <time>2026-09-15T07:51:22.223Z</time>
      </trkpt>
      <trkpt lat="-16.021677" lon="128.027451">
        <ele>171.685779</ele>
        <time>2026-09-15T07:51:40.229Z</time>
      </trkpt>
      <trkpt lat="-16.021761" lon="128.027408">
        <ele>170.527599</ele>
        <time>2026-09-15T07:51:57.222Z</time>
      </trkpt>
      <trkpt lat="-16.021735" lon="128.027315">
        <ele>169.375913</ele>
        <time>2026-09-15T07:52:10.220Z</time>
      </trkpt>
      <trkpt lat="-16.021834" lon="128.027037">
        <ele>165.850637</ele>
        <time>2026-09-15T07:53:00.227Z</time>
      </trkpt>
      <trkpt lat="-16.021877" lon="128.026953">
        <ele>164.718970</ele>
        <time>2026-09-15T07:53:10.224Z</time>
      </trkpt>
      <trkpt lat="-16.021882" lon="128.026855">
        <ele>163.552020</ele>
        <time>2026-09-15T07:53:23.231Z</time>
      </trkpt>
      <trkpt lat="-16.021914" lon="128.026765">
        <ele>162.410960</ele>
        <time>2026-09-15T07:53:36.223Z</time>
      </trkpt>
      <trkpt lat="-16.021960" lon="128.026683">
        <ele>161.281982</ele>
        <time>2026-09-15T07:53:47.220Z</time>
      </trkpt>
      <trkpt lat="-16.022016" lon="128.026606">
        <ele>160.133810</ele>
        <time>2026-09-15T07:53:57.225Z</time>
      </trkpt>
      <trkpt lat="-16.022022" lon="128.026508">
        <ele>158.966140</ele>
        <time>2026-09-15T07:54:07.225Z</time>
      </trkpt>
      <trkpt lat="-16.022030" lon="128.026412">
        <ele>157.820330</ele>
        <time>2026-09-15T07:54:19.230Z</time>
      </trkpt>
      <trkpt lat="-16.022071" lon="128.026324">
        <ele>156.657474</ele>
        <time>2026-09-15T07:54:33.242Z</time>
      </trkpt>
      <trkpt lat="-16.022043" lon="128.026231">
        <ele>155.498635</ele>
        <time>2026-09-15T07:54:42.228Z</time>
      </trkpt>
      <trkpt lat="-16.022011" lon="128.026137">
        <ele>154.312853</ele>
        <time>2026-09-15T07:54:57.234Z</time>
      </trkpt>
      <trkpt lat="-16.022034" lon="128.026043">
        <ele>153.159458</ele>
        <time>2026-09-15T07:55:08.225Z</time>
      </trkpt>
      <trkpt lat="-16.022016" lon="128.025948">
        <ele>152.171523</ele>
        <time>2026-09-15T07:55:19.236Z</time>
      </trkpt>
      <trkpt lat="-16.022010" lon="128.025851">
        <ele>151.945614</ele>
        <time>2026-09-15T07:55:30.223Z</time>
      </trkpt>
      <trkpt lat="-16.022025" lon="128.025749">
        <ele>151.705792</ele>
        <time>2026-09-15T07:55:41.234Z</time>
      </trkpt>
      <trkpt lat="-16.022026" lon="128.025654">
        <ele>151.484985</ele>
        <time>2026-09-15T07:55:51.229Z</time>
      </trkpt>
      <trkpt lat="-16.022023" lon="128.025557">
        <ele>151.259426</ele>
        <time>2026-09-15T07:56:01.230Z</time>
      </trkpt>
      <trkpt lat="-16.021994" lon="128.025463">
        <ele>151.029977</ele>
        <time>2026-09-15T07:56:13.230Z</time>
      </trkpt>
      <trkpt lat="-16.021987" lon="128.025360">
        <ele>150.789992</ele>
        <time>2026-09-15T07:56:26.227Z</time>
      </trkpt>
      <trkpt lat="-16.021970" lon="128.025262">
        <ele>150.558545</ele>
        <time>2026-09-15T07:56:35.261Z</time>
      </trkpt>
      <trkpt lat="-16.021964" lon="128.025164">
        <ele>150.330317</ele>
        <time>2026-09-15T07:56:44.227Z</time>
      </trkpt>
      <trkpt lat="-16.021922" lon="128.025076">
        <ele>150.101965</ele>
        <time>2026-09-15T07:56:53.224Z</time>
      </trkpt>
      <trkpt lat="-16.021901" lon="128.024981">
        <ele>149.875406</ele>
        <time>2026-09-15T07:57:02.224Z</time>
      </trkpt>
      <trkpt lat="-16.021859" lon="128.024892">
        <ele>149.644970</ele>
        <time>2026-09-15T07:57:12.228Z</time>
      </trkpt>
      <trkpt lat="-16.021831" lon="128.024793">
        <ele>149.405124</ele>
        <time>2026-09-15T07:57:22.225Z</time>
      </trkpt>
      <trkpt lat="-16.021812" lon="128.024700">
        <ele>149.184149</ele>
        <time>2026-09-15T07:57:32.241Z</time>
      </trkpt>
      <trkpt lat="-16.021801" lon="128.024605">
        <ele>148.961758</ele>
        <time>2026-09-15T07:57:43.239Z</time>
      </trkpt>
      <trkpt lat="-16.021858" lon="128.024531">
        <ele>148.741356</ele>
        <time>2026-09-15T07:57:55.218Z</time>
      </trkpt>
      <trkpt lat="-16.021801" lon="128.024453">
        <ele>148.513626</ele>
        <time>2026-09-15T07:58:05.221Z</time>
      </trkpt>
      <trkpt lat="-16.021780" lon="128.024359">
        <ele>148.289332</ele>
        <time>2026-09-15T07:58:15.222Z</time>
      </trkpt>
      <trkpt lat="-16.021771" lon="128.024257">
        <ele>148.051271</ele>
        <time>2026-09-15T07:58:28.230Z</time>
      </trkpt>
      <trkpt lat="-16.021774" lon="128.024158">
        <ele>147.861969</ele>
        <time>2026-09-15T07:58:39.221Z</time>
      </trkpt>
      <trkpt lat="-16.021745" lon="128.024063">
        <ele>147.861969</ele>
        <time>2026-09-15T07:58:49.221Z</time>
      </trkpt>
      <trkpt lat="-16.021698" lon="128.023976">
        <ele>147.861969</ele>
        <time>2026-09-15T07:59:00.227Z</time>
      </trkpt>
      <trkpt lat="-16.021709" lon="128.023882">
        <ele>147.861969</ele>
        <time>2026-09-15T07:59:10.223Z</time>
      </trkpt>
      <trkpt lat="-16.021715" lon="128.023781">
        <ele>147.861969</ele>
        <time>2026-09-15T07:59:20.225Z</time>
      </trkpt>
      <trkpt lat="-16.021688" lon="128.023682">
        <ele>147.861969</ele>
        <time>2026-09-15T07:59:30.220Z</time>
      </trkpt>
      <trkpt lat="-16.021686" lon="128.023581">
        <ele>147.861969</ele>
        <time>2026-09-15T07:59:40.245Z</time>
      </trkpt>
      <trkpt lat="-16.021635" lon="128.023501">
        <ele>147.861969</ele>
        <time>2026-09-15T07:59:51.233Z</time>
      </trkpt>
      <trkpt lat="-16.021541" lon="128.023485">
        <ele>147.861969</ele>
        <time>2026-09-15T08:00:01.200Z</time>
      </trkpt>
      <trkpt lat="-16.021516" lon="128.023391">
        <ele>147.861969</ele>
        <time>2026-09-15T08:00:12.225Z</time>
      </trkpt>
      <trkpt lat="-16.021481" lon="128.023305">
        <ele>147.861969</ele>
        <time>2026-09-15T08:00:22.224Z</time>
      </trkpt>
      <trkpt lat="-16.021402" lon="128.023256">
        <ele>147.861969</ele>
        <time>2026-09-15T08:00:30.201Z</time>
      </trkpt>
      <trkpt lat="-16.021329" lon="128.023196">
        <ele>147.861969</ele>
        <time>2026-09-15T08:00:39.218Z</time>
      </trkpt>
      <trkpt lat="-16.021220" lon="128.023037">
        <ele>147.861969</ele>
        <time>2026-09-15T08:01:37.186Z</time>
      </trkpt>
      <trkpt lat="-16.021202" lon="128.022944">
        <ele>147.861969</ele>
        <time>2026-09-15T08:01:46.217Z</time>
      </trkpt>
    </trkseg>
  </trk>
</gpx>