<?xml version='1.0' encoding='UTF-8'?>
<gpx version="1.1" creator="https://www.komoot.de" xmlns="http://www.topografix.com/GPX/1/1" xmlns:xsi="http://www.w3.org/2001/XMLSchema-instance" xsi:schemaLocation="http://www.topografix.com/GPX/1/1 http://www.topografix.com/GPX/1/1/gpx.xsd">
  <metadata>
    <name>Emma Gorge</name>
    <author>
      <link href="https://www.komoot.de">
        <text>komoot</text>
        <type>text/html</type>
      </link>
    </author>
  </metadata>
  <trk>
    <name>Emma Gorge</name>
    <type>hike</type>
    <trkseg>
      <trkpt lat="-15.907346" lon="128.128998">
        <ele>139.424354</ele>
        <time>2026-09-14T23:15:10.423Z</time>
      </trkpt>
      <trkpt lat="-15.907266" lon="128.128922">
        <ele>139.424354</ele>
        <time>2026-09-14T23:15:25.219Z</time>
      </trkpt>
      <trkpt lat="-15.907179" lon="128.128881">
        <ele>139.424354</ele>
        <time>2026-09-14T23:15:33.217Z</time>
      </trkpt>
      <trkpt lat="-15.907090" lon="128.128838">
        <ele>139.424354</ele>
        <time>2026-09-14T23:15:41.230Z</time>
      </trkpt>
      <trkpt lat="-15.907000" lon="128.128800">
        <ele>139.424354</ele>
        <time>2026-09-14T23:15:48.228Z</time>
      </trkpt>
      <trkpt lat="-15.906912" lon="128.128776">
        <ele>139.424354</ele>
        <time>2026-09-14T23:15:54.230Z</time>
      </trkpt>
      <trkpt lat="-15.906827" lon="128.128744">
        <ele>139.424354</ele>
        <time>2026-09-14T23:16:00.234Z</time>
      </trkpt>
      <trkpt lat="-15.906736" lon="128.128697">
        <ele>139.424354</ele>
        <time>2026-09-14T23:16:07.231Z</time>
      </trkpt>
      <trkpt lat="-15.906653" lon="128.128652">
        <ele>139.424354</ele>
        <time>2026-09-14T23:16:13.231Z</time>
      </trkpt>
      <trkpt lat="-15.906566" lon="128.128609">
        <ele>139.424354</ele>
        <time>2026-09-14T23:16:20.223Z</time>
      </trkpt>
      <trkpt lat="-15.906469" lon="128.128574">
        <ele>139.572391</ele>
        <time>2026-09-14T23:16:28.222Z</time>
      </trkpt>
      <trkpt lat="-15.906375" lon="128.128555">
        <ele>139.760344</ele>
        <time>2026-09-14T23:16:35.239Z</time>
      </trkpt>
      <trkpt lat="-15.906282" lon="128.128524">
        <ele>139.952030</ele>
        <time>2026-09-14T23:16:42.224Z</time>
      </trkpt>
      <trkpt lat="-15.906192" lon="128.128493">
        <ele>140.138117</ele>
        <time>2026-09-14T23:16:49.230Z</time>
      </trkpt>
      <trkpt lat="-15.906095" lon="128.128476">
        <ele>140.331189</ele>
        <time>2026-09-14T23:16:56.225Z</time>
      </trkpt>
      <trkpt lat="-15.905996" lon="128.128464">
        <ele>140.526818</ele>
        <time>2026-09-14T23:17:03.224Z</time>
      </trkpt>
      <trkpt lat="-15.905905" lon="128.128449">
        <ele>140.707658</ele>
        <time>2026-09-14T23:17:10.229Z</time>
      </trkpt>
      <trkpt lat="-15.905781" lon="128.128421">
        <ele>140.956713</ele>
        <time>2026-09-14T23:17:35.223Z</time>
      </trkpt>
      <trkpt lat="-15.905684" lon="128.128436">
        <ele>141.149193</ele>
        <time>2026-09-14T23:17:43.228Z</time>
      </trkpt>
      <trkpt lat="-15.905596" lon="128.128413">
        <ele>141.327288</ele>
        <time>2026-09-14T23:17:50.231Z</time>
      </trkpt>
      <trkpt lat="-15.905502" lon="128.128396">
        <ele>141.514557</ele>
        <time>2026-09-14T23:17:57.231Z</time>
      </trkpt>
      <trkpt lat="-15.905403" lon="128.128397">
        <ele>141.708879</ele>
        <time>2026-09-14T23:18:05.225Z</time>
      </trkpt>
      <trkpt lat="-15.905304" lon="128.128388">
        <ele>141.903932</ele>
        <time>2026-09-14T23:18:12.226Z</time>
      </trkpt>
      <trkpt lat="-15.905210" lon="128.128378">
        <ele>142.089394</ele>
        <time>2026-09-14T23:18:19.231Z</time>
      </trkpt>
      <trkpt lat="-15.905106" lon="128.128372">
        <ele>142.293835</ele>
        <time>2026-09-14T23:18:27.226Z</time>
      </trkpt>
      <trkpt lat="-15.905006" lon="128.128374">
        <ele>142.490146</ele>
        <time>2026-09-14T23:18:35.223Z</time>
      </trkpt>
      <trkpt lat="-15.904913" lon="128.128354">
        <ele>142.676545</ele>
        <time>2026-09-14T23:18:42.220Z</time>
      </trkpt>
      <trkpt lat="-15.904818" lon="128.128341">
        <ele>142.864615</ele>
        <time>2026-09-14T23:18:49.224Z</time>
      </trkpt>
      <trkpt lat="-15.904723" lon="128.128328">
        <ele>143.052629</ele>
        <time>2026-09-14T23:18:56.230Z</time>
      </trkpt>
      <trkpt lat="-15.904625" lon="128.128319">
        <ele>143.245619</ele>
        <time>2026-09-14T23:19:04.226Z</time>
      </trkpt>
      <trkpt lat="-15.904530" lon="128.128305">
        <ele>143.433839</ele>
        <time>2026-09-14T23:19:12.231Z</time>
      </trkpt>
      <trkpt lat="-15.904435" lon="128.128284">
        <ele>143.624361</ele>
        <time>2026-09-14T23:19:21.227Z</time>
      </trkpt>
      <trkpt lat="-15.904346" lon="128.128265">
        <ele>143.802589</ele>
        <time>2026-09-14T23:19:29.228Z</time>
      </trkpt>
      <trkpt lat="-15.904251" lon="128.128271">
        <ele>143.989290</ele>
        <time>2026-09-14T23:19:37.224Z</time>
      </trkpt>
      <trkpt lat="-15.904155" lon="128.128301">
        <ele>144.185930</ele>
        <time>2026-09-14T23:19:46.234Z</time>
      </trkpt>
      <trkpt lat="-15.904097" lon="128.128377">
        <ele>144.368966</ele>
        <time>2026-09-14T23:19:57.235Z</time>
      </trkpt>
      <trkpt lat="-15.904021" lon="128.128445">
        <ele>144.565649</ele>
        <time>2026-09-14T23:20:08.226Z</time>
      </trkpt>
      <trkpt lat="-15.903941" lon="128.128489">
        <ele>144.743182</ele>
        <time>2026-09-14T23:20:17.230Z</time>
      </trkpt>
      <trkpt lat="-15.903849" lon="128.128494">
        <ele>144.923901</ele>
        <time>2026-09-14T23:20:26.223Z</time>
      </trkpt>
      <trkpt lat="-15.903769" lon="128.128545">
        <ele>145.107980</ele>
        <time>2026-09-14T23:20:35.236Z</time>
      </trkpt>
      <trkpt lat="-15.903675" lon="128.128546">
        <ele>145.292385</ele>
        <time>2026-09-14T23:20:44.236Z</time>
      </trkpt>
      <trkpt lat="-15.903586" lon="128.128594">
        <ele>145.489060</ele>
        <time>2026-09-14T23:20:53.226Z</time>
      </trkpt>
      <trkpt lat="-15.903518" lon="128.128657">
        <ele>145.667721</ele>
        <time>2026-09-14T23:21:01.225Z</time>
      </trkpt>
      <trkpt lat="-15.903477" lon="128.128744">
        <ele>145.850499</ele>
        <time>2026-09-14T23:21:11.225Z</time>
      </trkpt>
      <trkpt lat="-15.903393" lon="128.128805">
        <ele>146.051486</ele>
        <time>2026-09-14T23:21:19.226Z</time>
      </trkpt>
      <trkpt lat="-15.903351" lon="128.128889">
        <ele>146.230095</ele>
        <time>2026-09-14T23:21:27.226Z</time>
      </trkpt>
      <trkpt lat="-15.903266" lon="128.128936">
        <ele>146.418946</ele>
        <time>2026-09-14T23:21:37.231Z</time>
      </trkpt>
      <trkpt lat="-15.903203" lon="128.129003">
        <ele>146.537558</ele>
        <time>2026-09-14T23:21:46.224Z</time>
      </trkpt>
      <trkpt lat="-15.903120" lon="128.129052">
        <ele>146.628210</ele>
        <time>2026-09-14T23:21:54.225Z</time>
      </trkpt>
      <trkpt lat="-15.903064" lon="128.129126">
        <ele>146.714222</ele>
        <time>2026-09-14T23:22:02.227Z</time>
      </trkpt>
      <trkpt lat="-15.903000" lon="128.129203">
        <ele>146.807184</ele>
        <time>2026-09-14T23:22:11.234Z</time>
      </trkpt>
      <trkpt lat="-15.902947" lon="128.129279">
        <ele>146.892935</ele>
        <time>2026-09-14T23:22:18.230Z</time>
      </trkpt>
      <trkpt lat="-15.902846" lon="128.129272">
        <ele>146.989076</ele>
        <time>2026-09-14T23:22:26.224Z</time>
      </trkpt>
      <trkpt lat="-15.902758" lon="128.129307">
        <ele>147.078563</ele>
        <time>2026-09-14T23:22:34.226Z</time>
      </trkpt>
      <trkpt lat="-15.902684" lon="128.129364">
        <ele>147.166032</ele>
        <time>2026-09-14T23:22:42.225Z</time>
      </trkpt>
      <trkpt lat="-15.902618" lon="128.129433">
        <ele>147.254925</ele>
        <time>2026-09-14T23:22:50.226Z</time>
      </trkpt>
      <trkpt lat="-15.902531" lon="128.129466">
        <ele>147.342883</ele>
        <time>2026-09-14T23:22:57.231Z</time>
      </trkpt>
      <trkpt lat="-15.902435" lon="128.129503">
        <ele>147.440125</ele>
        <time>2026-09-14T23:23:05.235Z</time>
      </trkpt>
      <trkpt lat="-15.902375" lon="128.129578">
        <ele>147.529236</ele>
        <time>2026-09-14T23:23:14.231Z</time>
      </trkpt>
      <trkpt lat="-15.902290" lon="128.129617">
        <ele>147.617479</ele>
        <time>2026-09-14T23:23:23.228Z</time>
      </trkpt>
      <trkpt lat="-15.902209" lon="128.129658">
        <ele>147.703043</ele>
        <time>2026-09-14T23:23:32.225Z</time>
      </trkpt>
      <trkpt lat="-15.902176" lon="128.129752">
        <ele>147.794448</ele>
        <time>2026-09-14T23:23:41.226Z</time>
      </trkpt>
      <trkpt lat="-15.902087" lon="128.129795">
        <ele>147.887659</ele>
        <time>2026-09-14T23:23:49.225Z</time>
      </trkpt>
      <trkpt lat="-15.902020" lon="128.129865">
        <ele>147.977870</ele>
        <time>2026-09-14T23:23:57.223Z</time>
      </trkpt>
      <trkpt lat="-15.901954" lon="128.129938">
        <ele>148.069390</ele>
        <time>2026-09-14T23:24:05.227Z</time>
      </trkpt>
      <trkpt lat="-15.901904" lon="128.130021">
        <ele>148.158851</ele>
        <time>2026-09-14T23:24:15.226Z</time>
      </trkpt>
      <trkpt lat="-15.901845" lon="128.130098">
        <ele>148.370174</ele>
        <time>2026-09-14T23:24:31.225Z</time>
      </trkpt>
      <trkpt lat="-15.901781" lon="128.130167">
        <ele>148.642639</ele>
        <time>2026-09-14T23:24:39.217Z</time>
      </trkpt>
      <trkpt lat="-15.901720" lon="128.130243">
        <ele>148.923996</ele>
        <time>2026-09-14T23:24:47.231Z</time>
      </trkpt>
      <trkpt lat="-15.901635" lon="128.130211">
        <ele>149.191161</ele>
        <time>2026-09-14T23:25:00.222Z</time>
      </trkpt>
      <trkpt lat="-15.901561" lon="128.130270">
        <ele>149.466751</ele>
        <time>2026-09-14T23:25:24.221Z</time>
      </trkpt>
      <trkpt lat="-15.901565" lon="128.130369">
        <ele>149.748385</ele>
        <time>2026-09-14T23:25:38.224Z</time>
      </trkpt>
      <trkpt lat="-15.901548" lon="128.130462">
        <ele>150.017449</ele>
        <time>2026-09-14T23:25:52.232Z</time>
      </trkpt>
      <trkpt lat="-15.901501" lon="128.130542">
        <ele>150.283901</ele>
        <time>2026-09-14T23:26:04.232Z</time>
      </trkpt>
      <trkpt lat="-15.901417" lon="128.130581">
        <ele>150.555776</ele>
        <time>2026-09-14T23:26:15.225Z</time>
      </trkpt>
      <trkpt lat="-15.901326" lon="128.130578">
        <ele>150.824850</ele>
        <time>2026-09-14T23:26:28.231Z</time>
      </trkpt>
      <trkpt lat="-15.901232" lon="128.130592">
        <ele>151.105490</ele>
        <time>2026-09-14T23:26:42.219Z</time>
      </trkpt>
      <trkpt lat="-15.901141" lon="128.130605">
        <ele>151.376955</ele>
        <time>2026-09-14T23:26:56.225Z</time>
      </trkpt>
      <trkpt lat="-15.901055" lon="128.130645">
        <ele>151.655386</ele>
        <time>2026-09-14T23:27:11.230Z</time>
      </trkpt>
      <trkpt lat="-15.901010" lon="128.130560">
        <ele>151.931166</ele>
        <time>2026-09-14T23:27:27.222Z</time>
      </trkpt>
      <trkpt lat="-15.900993" lon="128.130455">
        <ele>152.233806</ele>
        <time>2026-09-14T23:27:44.222Z</time>
      </trkpt>
      <trkpt lat="-15.900899" lon="128.130492">
        <ele>152.530850</ele>
        <time>2026-09-14T23:27:51.221Z</time>
      </trkpt>
      <trkpt lat="-15.900817" lon="128.130536">
        <ele>152.803557</ele>
        <time>2026-09-14T23:28:03.227Z</time>
      </trkpt>
      <trkpt lat="-15.900816" lon="128.130630">
        <ele>153.070748</ele>
        <time>2026-09-14T23:28:26.230Z</time>
      </trkpt>
      <trkpt lat="-15.900726" lon="128.130645">
        <ele>153.340127</ele>
        <time>2026-09-14T23:28:43.219Z</time>
      </trkpt>
      <trkpt lat="-15.900631" lon="128.130649">
        <ele>153.695467</ele>
        <time>2026-09-14T23:29:01.230Z</time>
      </trkpt>
      <trkpt lat="-15.900536" lon="128.130643">
        <ele>154.159917</ele>
        <time>2026-09-14T23:29:13.227Z</time>
      </trkpt>
      <trkpt lat="-15.900446" lon="128.130626">
        <ele>154.606301</ele>
        <time>2026-09-14T23:29:26.236Z</time>
      </trkpt>
      <trkpt lat="-15.900353" lon="128.130607">
        <ele>155.068814</ele>
        <time>2026-09-14T23:29:37.227Z</time>
      </trkpt>
      <trkpt lat="-15.900255" lon="128.130592">
        <ele>155.552203</ele>
        <time>2026-09-14T23:29:47.240Z</time>
      </trkpt>
      <trkpt lat="-15.900174" lon="128.130636">
        <ele>155.998171</ele>
        <time>2026-09-14T23:29:59.226Z</time>
      </trkpt>
      <trkpt lat="-15.900089" lon="128.130668">
        <ele>156.439318</ele>
        <time>2026-09-14T23:30:19.230Z</time>
      </trkpt>
      <trkpt lat="-15.899994" lon="128.130657">
        <ele>156.905779</ele>
        <time>2026-09-14T23:30:34.235Z</time>
      </trkpt>
      <trkpt lat="-15.899902" lon="128.130663">
        <ele>157.355617</ele>
        <time>2026-09-14T23:30:46.214Z</time>
      </trkpt>
      <trkpt lat="-15.899813" lon="128.130648">
        <ele>157.795602</ele>
        <time>2026-09-14T23:30:56.227Z</time>
      </trkpt>
      <trkpt lat="-15.899719" lon="128.130627">
        <ele>158.264786</ele>
        <time>2026-09-14T23:31:05.221Z</time>
      </trkpt>
      <trkpt lat="-15.899620" lon="128.130607">
        <ele>158.756936</ele>
        <time>2026-09-14T23:31:14.215Z</time>
      </trkpt>
      <trkpt lat="-15.899521" lon="128.130595">
        <ele>159.243323</ele>
        <time>2026-09-14T23:31:24.216Z</time>
      </trkpt>
      <trkpt lat="-15.899434" lon="128.130570">
        <ele>159.683794</ele>
        <time>2026-09-14T23:31:34.232Z</time>
      </trkpt>
      <trkpt lat="-15.899337" lon="128.130556">
        <ele>160.161688</ele>
        <time>2026-09-14T23:31:45.232Z</time>
      </trkpt>
      <trkpt lat="-15.899242" lon="128.130558">
        <ele>160.625378</ele>
        <time>2026-09-14T23:31:55.238Z</time>
      </trkpt>
      <trkpt lat="-15.899149" lon="128.130581">
        <ele>161.091875</ele>
        <time>2026-09-14T23:32:05.230Z</time>
      </trkpt>
      <trkpt lat="-15.899062" lon="128.130622">
        <ele>161.558002</ele>
        <time>2026-09-14T23:32:18.234Z</time>
      </trkpt>
      <trkpt lat="-15.898989" lon="128.130683">
        <ele>162.015022</ele>
        <time>2026-09-14T23:32:30.240Z</time>
      </trkpt>
      <trkpt lat="-15.898899" lon="128.130724">
        <ele>162.404012</ele>
        <time>2026-09-14T23:32:41.229Z</time>
      </trkpt>
      <trkpt lat="-15.898824" lon="128.130784">
        <ele>162.667035</ele>
        <time>2026-09-14T23:32:50.244Z</time>
      </trkpt>
      <trkpt lat="-15.898762" lon="128.130865">
        <ele>162.943768</ele>
        <time>2026-09-14T23:33:00.247Z</time>
      </trkpt>
      <trkpt lat="-15.898695" lon="128.130935">
        <ele>163.207765</ele>
        <time>2026-09-14T23:33:10.232Z</time>
      </trkpt>
      <trkpt lat="-15.898658" lon="128.131024">
        <ele>163.466953</ele>
        <time>2026-09-14T23:33:24.226Z</time>
      </trkpt>
      <trkpt lat="-15.898583" lon="128.131082">
        <ele>163.726751</ele>
        <time>2026-09-14T23:33:34.235Z</time>
      </trkpt>
      <trkpt lat="-15.898509" lon="128.131141">
        <ele>163.985942</ele>
        <time>2026-09-14T23:33:44.235Z</time>
      </trkpt>
      <trkpt lat="-15.898435" lon="128.131194">
        <ele>164.235698</ele>
        <time>2026-09-14T23:33:56.232Z</time>
      </trkpt>
      <trkpt lat="-15.898360" lon="128.131254">
        <ele>164.498721</ele>
        <time>2026-09-14T23:34:08.237Z</time>
      </trkpt>
      <trkpt lat="-15.898290" lon="128.131319">
        <ele>164.759579</ele>
        <time>2026-09-14T23:34:21.235Z</time>
      </trkpt>
      <trkpt lat="-15.898246" lon="128.131404">
        <ele>165.017620</ele>
        <time>2026-09-14T23:34:34.236Z</time>
      </trkpt>
      <trkpt lat="-15.898160" lon="128.131428">
        <ele>165.265117</ele>
        <time>2026-09-14T23:34:47.237Z</time>
      </trkpt>
      <trkpt lat="-15.898085" lon="128.131491">
        <ele>165.533106</ele>
        <time>2026-09-14T23:35:04.234Z</time>
      </trkpt>
      <trkpt lat="-15.898000" lon="128.131523">
        <ele>165.784372</ele>
        <time>2026-09-14T23:35:19.241Z</time>
      </trkpt>
      <trkpt lat="-15.897954" lon="128.131608">
        <ele>166.045095</ele>
        <time>2026-09-14T23:35:35.225Z</time>
      </trkpt>
      <trkpt lat="-15.897954" lon="128.131707">
        <ele>166.309740</ele>
        <time>2026-09-14T23:35:50.234Z</time>
      </trkpt>
      <trkpt lat="-15.897892" lon="128.131783">
        <ele>166.576145</ele>
        <time>2026-09-14T23:36:11.244Z</time>
      </trkpt>
      <trkpt lat="-15.897866" lon="128.131877">
        <ele>166.837609</ele>
        <time>2026-09-14T23:36:47.234Z</time>
      </trkpt>
      <trkpt lat="-15.897777" lon="128.131919">
        <ele>167.109270</ele>
        <time>2026-09-14T23:37:14.237Z</time>
      </trkpt>
      <trkpt lat="-15.897826" lon="128.132001">
        <ele>167.377551</ele>
        <time>2026-09-14T23:37:36.232Z</time>
      </trkpt>
      <trkpt lat="-15.897726" lon="128.131979">
        <ele>167.696293</ele>
        <time>2026-09-14T23:37:52.235Z</time>
      </trkpt>
      <trkpt lat="-15.897647" lon="128.132029">
        <ele>167.984695</ele>
        <time>2026-09-14T23:38:02.235Z</time>
      </trkpt>
      <trkpt lat="-15.897563" lon="128.132065">
        <ele>168.268017</ele>
        <time>2026-09-14T23:38:12.229Z</time>
      </trkpt>
      <trkpt lat="-15.897511" lon="128.132145">
        <ele>168.557604</ele>
        <time>2026-09-14T23:38:23.236Z</time>
      </trkpt>
      <trkpt lat="-15.897424" lon="128.132171">
        <ele>168.839886</ele>
        <time>2026-09-14T23:38:33.229Z</time>
      </trkpt>
      <trkpt lat="-15.897374" lon="128.132251">
        <ele>169.126027</ele>
        <time>2026-09-14T23:38:43.239Z</time>
      </trkpt>
      <trkpt lat="-15.897296" lon="128.132303">
        <ele>169.414963</ele>
        <time>2026-09-14T23:38:53.231Z</time>
      </trkpt>
      <trkpt lat="-15.897215" lon="128.132360">
        <ele>169.719963</ele>
        <time>2026-09-14T23:39:03.230Z</time>
      </trkpt>
      <trkpt lat="-15.897192" lon="128.132452">
        <ele>170.005051</ele>
        <time>2026-09-14T23:39:14.229Z</time>
      </trkpt>
      <trkpt lat="-15.897115" lon="128.132501">
        <ele>170.286567</ele>
        <time>2026-09-14T23:39:28.236Z</time>
      </trkpt>
      <trkpt lat="-15.897036" lon="128.132548">
        <ele>170.570396</ele>
        <time>2026-09-14T23:39:39.231Z</time>
      </trkpt>
      <trkpt lat="-15.896942" lon="128.132580">
        <ele>170.878834</ele>
        <time>2026-09-14T23:39:51.231Z</time>
      </trkpt>
      <trkpt lat="-15.896856" lon="128.132635">
        <ele>171.193683</ele>
        <time>2026-09-14T23:40:03.232Z</time>
      </trkpt>
      <trkpt lat="-15.896764" lon="128.132656">
        <ele>171.487406</ele>
        <time>2026-09-14T23:40:13.233Z</time>
      </trkpt>
      <trkpt lat="-15.896672" lon="128.132681">
        <ele>171.783932</ele>
        <time>2026-09-14T23:40:25.237Z</time>
      </trkpt>
      <trkpt lat="-15.896584" lon="128.132718">
        <ele>172.079937</ele>
        <time>2026-09-14T23:40:37.230Z</time>
      </trkpt>
      <trkpt lat="-15.896524" lon="128.132789">
        <ele>172.363398</ele>
        <time>2026-09-14T23:40:51.238Z</time>
      </trkpt>
      <trkpt lat="-15.896494" lon="128.132878">
        <ele>172.646239</ele>
        <time>2026-09-14T23:41:05.232Z</time>
      </trkpt>
      <trkpt lat="-15.896405" lon="128.132910">
        <ele>172.964471</ele>
        <time>2026-09-14T23:41:18.230Z</time>
      </trkpt>
      <trkpt lat="-15.896315" lon="128.132922">
        <ele>173.393807</ele>
        <time>2026-09-14T23:41:33.240Z</time>
      </trkpt>
      <trkpt lat="-15.896224" lon="128.132921">
        <ele>173.824412</ele>
        <time>2026-09-14T23:41:48.243Z</time>
      </trkpt>
      <trkpt lat="-15.896136" lon="128.132883">
        <ele>174.275279</ele>
        <time>2026-09-14T23:42:04.237Z</time>
      </trkpt>
      <trkpt lat="-15.896054" lon="128.132840">
        <ele>174.709827</ele>
        <time>2026-09-14T23:42:28.240Z</time>
      </trkpt>
      <trkpt lat="-15.896039" lon="128.132745">
        <ele>175.147933</ele>
        <time>2026-09-14T23:42:48.238Z</time>
      </trkpt>
      <trkpt lat="-15.895961" lon="128.132798">
        <ele>175.588823</ele>
        <time>2026-09-14T23:43:14.243Z</time>
      </trkpt>
      <trkpt lat="-15.895864" lon="128.132801">
        <ele>176.047997</ele>
        <time>2026-09-14T23:43:26.234Z</time>
      </trkpt>
      <trkpt lat="-15.895779" lon="128.132832">
        <ele>176.474212</ele>
        <time>2026-09-14T23:43:40.227Z</time>
      </trkpt>
      <trkpt lat="-15.895681" lon="128.133023">
        <ele>177.459357</ele>
        <time>2026-09-14T23:45:04.235Z</time>
      </trkpt>
      <trkpt lat="-15.895506" lon="128.133040">
        <ele>178.291003</ele>
        <time>2026-09-14T23:46:29.234Z</time>
      </trkpt>
      <trkpt lat="-15.895417" lon="128.133013">
        <ele>178.729680</ele>
        <time>2026-09-14T23:46:47.231Z</time>
      </trkpt>
      <trkpt lat="-15.895362" lon="128.133098">
        <ele>179.195887</ele>
        <time>2026-09-14T23:46:57.224Z</time>
      </trkpt>
      <trkpt lat="-15.895355" lon="128.133192">
        <ele>179.624937</ele>
        <time>2026-09-14T23:47:12.230Z</time>
      </trkpt>
      <trkpt lat="-15.895253" lon="128.133174">
        <ele>180.114468</ele>
        <time>2026-09-14T23:47:22.231Z</time>
      </trkpt>
      <trkpt lat="-15.895161" lon="128.133183">
        <ele>180.551703</ele>
        <time>2026-09-14T23:47:35.223Z</time>
      </trkpt>
      <trkpt lat="-15.895088" lon="128.133247">
        <ele>181.003515</ele>
        <time>2026-09-14T23:47:47.221Z</time>
      </trkpt>
      <trkpt lat="-15.895035" lon="128.133325">
        <ele>181.410426</ele>
        <time>2026-09-14T23:48:03.229Z</time>
      </trkpt>
      <trkpt lat="-15.894987" lon="128.133405">
        <ele>181.501410</ele>
        <time>2026-09-14T23:48:18.229Z</time>
      </trkpt>
      <trkpt lat="-15.894941" lon="128.133490">
        <ele>181.595521</ele>
        <time>2026-09-14T23:48:35.231Z</time>
      </trkpt>
      <trkpt lat="-15.894877" lon="128.133559">
        <ele>181.688019</ele>
        <time>2026-09-14T23:48:47.235Z</time>
      </trkpt>
      <trkpt lat="-15.894845" lon="128.133653">
        <ele>181.784236</ele>
        <time>2026-09-14T23:49:05.231Z</time>
      </trkpt>
      <trkpt lat="-15.894786" lon="128.133724">
        <ele>181.874776</ele>
        <time>2026-09-14T23:49:18.230Z</time>
      </trkpt>
      <trkpt lat="-15.894701" lon="128.133787">
        <ele>181.979504</ele>
        <time>2026-09-14T23:49:30.212Z</time>
      </trkpt>
      <trkpt lat="-15.894498" lon="128.133618">
        <ele>182.240411</ele>
        <time>2026-09-15T00:34:33.225Z</time>
      </trkpt>
      <trkpt lat="-15.894683" lon="128.133545">
        <ele>182.438935</ele>
        <time>2026-09-15T00:36:01.232Z</time>
      </trkpt>
      <trkpt lat="-15.894767" lon="128.133506">
        <ele>182.531232</ele>
        <time>2026-09-15T00:36:15.230Z</time>
      </trkpt>
      <trkpt lat="-15.894842" lon="128.133455">
        <ele>182.621141</ele>
        <time>2026-09-15T00:36:40.238Z</time>
      </trkpt>
      <trkpt lat="-15.894903" lon="128.133384">
        <ele>182.713005</ele>
        <time>2026-09-15T00:36:59.226Z</time>
      </trkpt>
      <trkpt lat="-15.895013" lon="128.133214">
        <ele>182.910712</ele>
        <time>2026-09-15T00:39:10.239Z</time>
      </trkpt>
      <trkpt lat="-15.895097" lon="128.133171">
        <ele>183.004648</ele>
        <time>2026-09-15T00:39:20.236Z</time>
      </trkpt>
      <trkpt lat="-15.895184" lon="128.133127">
        <ele>183.101711</ele>
        <time>2026-09-15T00:39:29.233Z</time>
      </trkpt>
      <trkpt lat="-15.895277" lon="128.133123">
        <ele>183.195096</ele>
        <time>2026-09-15T00:39:42.236Z</time>
      </trkpt>
      <trkpt lat="-15.895363" lon="128.133161">
        <ele>182.649690</ele>
        <time>2026-09-15T00:40:01.233Z</time>
      </trkpt>
      <trkpt lat="-15.895372" lon="128.133033">
        <ele>181.800237</ele>
        <time>2026-09-15T00:40:29.220Z</time>
      </trkpt>
      <trkpt lat="-15.895421" lon="128.132951">
        <ele>181.161279</ele>
        <time>2026-09-15T00:41:00.242Z</time>
      </trkpt>
      <trkpt lat="-15.895512" lon="128.132955">
        <ele>180.534474</ele>
        <time>2026-09-15T00:41:19.227Z</time>
      </trkpt>
      <trkpt lat="-15.895602" lon="128.132962">
        <ele>179.913380</ele>
        <time>2026-09-15T00:42:00.238Z</time>
      </trkpt>
      <trkpt lat="-15.895693" lon="128.132964">
        <ele>179.286995</ele>
        <time>2026-09-15T00:42:50.235Z</time>
      </trkpt>
      <trkpt lat="-15.895806" lon="128.132739">
        <ele>177.606979</ele>
        <time>2026-09-15T00:44:09.232Z</time>
      </trkpt>
      <trkpt lat="-15.895897" lon="128.132759">
        <ele>176.966897</ele>
        <time>2026-09-15T00:44:21.236Z</time>
      </trkpt>
      <trkpt lat="-15.895988" lon="128.132768">
        <ele>176.337824</ele>
        <time>2026-09-15T00:44:34.231Z</time>
      </trkpt>
      <trkpt lat="-15.896059" lon="128.132709">
        <ele>175.712341</ele>
        <time>2026-09-15T00:44:58.232Z</time>
      </trkpt>
      <trkpt lat="-15.896097" lon="128.132806">
        <ele>175.019114</ele>
        <time>2026-09-15T00:45:13.235Z</time>
      </trkpt>
      <trkpt lat="-15.896185" lon="128.132834">
        <ele>174.385792</ele>
        <time>2026-09-15T00:45:45.236Z</time>
      </trkpt>
      <trkpt lat="-15.896275" lon="128.132855">
        <ele>173.751025</ele>
        <time>2026-09-15T00:45:57.238Z</time>
      </trkpt>
      <trkpt lat="-15.896365" lon="128.132846">
        <ele>173.128803</ele>
        <time>2026-09-15T00:46:09.238Z</time>
      </trkpt>
      <trkpt lat="-15.896456" lon="128.132823">
        <ele>172.484321</ele>
        <time>2026-09-15T00:46:24.227Z</time>
      </trkpt>
      <trkpt lat="-15.896508" lon="128.132746">
        <ele>171.861594</ele>
        <time>2026-09-15T00:46:41.233Z</time>
      </trkpt>
      <trkpt lat="-15.896579" lon="128.132678">
        <ele>171.197290</ele>
        <time>2026-09-15T00:46:56.236Z</time>
      </trkpt>
      <trkpt lat="-15.896662" lon="128.132622">
        <ele>170.697449</ele>
        <time>2026-09-15T00:47:10.232Z</time>
      </trkpt>
      <trkpt lat="-15.896752" lon="128.132598">
        <ele>170.427692</ele>
        <time>2026-09-15T00:47:20.238Z</time>
      </trkpt>
      <trkpt lat="-15.896837" lon="128.132563">
        <ele>170.162261</ele>
        <time>2026-09-15T00:47:30.228Z</time>
      </trkpt>
      <trkpt lat="-15.896924" lon="128.132517">
        <ele>169.878888</ele>
        <time>2026-09-15T00:47:41.238Z</time>
      </trkpt>
      <trkpt lat="-15.897011" lon="128.132470">
        <ele>169.594238</ele>
        <time>2026-09-15T00:47:52.236Z</time>
      </trkpt>
      <trkpt lat="-15.897098" lon="128.132441">
        <ele>169.328985</ele>
        <time>2026-09-15T00:48:03.240Z</time>
      </trkpt>
      <trkpt lat="-15.897180" lon="128.132391">
        <ele>169.052993</ele>
        <time>2026-09-15T00:48:13.235Z</time>
      </trkpt>
      <trkpt lat="-15.897217" lon="128.132302">
        <ele>168.782254</ele>
        <time>2026-09-15T00:48:25.229Z</time>
      </trkpt>
      <trkpt lat="-15.897301" lon="128.132248">
        <ele>168.495525</ele>
        <time>2026-09-15T00:48:35.230Z</time>
      </trkpt>
      <trkpt lat="-15.897361" lon="128.132165">
        <ele>168.205596</ele>
        <time>2026-09-15T00:48:44.236Z</time>
      </trkpt>
      <trkpt lat="-15.897450" lon="128.132124">
        <ele>167.922972</ele>
        <time>2026-09-15T00:48:52.230Z</time>
      </trkpt>
      <trkpt lat="-15.897523" lon="128.132055">
        <ele>167.636544</ele>
        <time>2026-09-15T00:49:02.231Z</time>
      </trkpt>
      <trkpt lat="-15.897613" lon="128.132012">
        <ele>167.348977</ele>
        <time>2026-09-15T00:49:11.226Z</time>
      </trkpt>
      <trkpt lat="-15.897683" lon="128.131943">
        <ele>167.068932</ele>
        <time>2026-09-15T00:49:21.226Z</time>
      </trkpt>
      <trkpt lat="-15.897755" lon="128.131885">
        <ele>166.804496</ele>
        <time>2026-09-15T00:49:30.236Z</time>
      </trkpt>
      <trkpt lat="-15.897817" lon="128.131817">
        <ele>166.542856</ele>
        <time>2026-09-15T00:49:39.225Z</time>
      </trkpt>
      <trkpt lat="-15.897901" lon="128.131770">
        <ele>166.265906</ele>
        <time>2026-09-15T00:49:51.240Z</time>
      </trkpt>
      <trkpt lat="-15.897833" lon="128.131701">
        <ele>165.990047</ele>
        <time>2026-09-15T00:50:05.232Z</time>
      </trkpt>
      <trkpt lat="-15.897917" lon="128.131663">
        <ele>165.724083</ele>
        <time>2026-09-15T00:50:21.222Z</time>
      </trkpt>
      <trkpt lat="-15.897917" lon="128.131563">
        <ele>165.311695</ele>
        <time>2026-09-15T00:50:35.234Z</time>
      </trkpt>
      <trkpt lat="-15.898080" lon="128.131441">
        <ele>164.251233</ele>
        <time>2026-09-15T00:51:25.230Z</time>
      </trkpt>
      <trkpt lat="-15.898267" lon="128.131309">
        <ele>163.057804</ele>
        <time>2026-09-15T00:52:50.238Z</time>
      </trkpt>
      <trkpt lat="-15.898303" lon="128.131215">
        <ele>162.543998</ele>
        <time>2026-09-15T00:53:07.234Z</time>
      </trkpt>
      <trkpt lat="-15.898387" lon="128.131172">
        <ele>162.049625</ele>
        <time>2026-09-15T00:53:18.227Z</time>
      </trkpt>
      <trkpt lat="-15.898468" lon="128.131126">
        <ele>161.562297</ele>
        <time>2026-09-15T00:53:31.240Z</time>
      </trkpt>
      <trkpt lat="-15.898555" lon="128.131099">
        <ele>161.082897</ele>
        <time>2026-09-15T00:53:42.227Z</time>
      </trkpt>
      <trkpt lat="-15.898610" lon="128.131013">
        <ele>160.558430</ele>
        <time>2026-09-15T00:53:55.235Z</time>
      </trkpt>
      <trkpt lat="-15.898680" lon="128.130954">
        <ele>160.082635</ele>
        <time>2026-09-15T00:54:08.229Z</time>
      </trkpt>
      <trkpt lat="-15.898722" lon="128.130869">
        <ele>159.597353</ele>
        <time>2026-09-15T00:54:22.227Z</time>
      </trkpt>
      <trkpt lat="-15.898773" lon="128.130787">
        <ele>159.101455</ele>
        <time>2026-09-15T00:54:33.239Z</time>
      </trkpt>
      <trkpt lat="-15.898853" lon="128.130729">
        <ele>158.586495</ele>
        <time>2026-09-15T00:54:43.231Z</time>
      </trkpt>
      <trkpt lat="-15.898933" lon="128.130682">
        <ele>158.101316</ele>
        <time>2026-09-15T00:54:52.233Z</time>
      </trkpt>
      <trkpt lat="-15.899010" lon="128.130628">
        <ele>157.610910</ele>
        <time>2026-09-15T00:55:02.236Z</time>
      </trkpt>
      <trkpt lat="-15.899085" lon="128.130568">
        <ele>157.111247</ele>
        <time>2026-09-15T00:55:14.234Z</time>
      </trkpt>
      <trkpt lat="-15.899173" lon="128.130539">
        <ele>156.623814</ele>
        <time>2026-09-15T00:55:30.226Z</time>
      </trkpt>
      <trkpt lat="-15.899265" lon="128.130524">
        <ele>156.132103</ele>
        <time>2026-09-15T00:55:48.215Z</time>
      </trkpt>
      <trkpt lat="-15.899360" lon="128.130519">
        <ele>155.933179</ele>
        <time>2026-09-15T00:56:03.229Z</time>
      </trkpt>
      <trkpt lat="-15.899452" lon="128.130555">
        <ele>155.741782</ele>
        <time>2026-09-15T00:56:15.232Z</time>
      </trkpt>
      <trkpt lat="-15.899547" lon="128.130568">
        <ele>155.555214</ele>
        <time>2026-09-15T00:56:25.231Z</time>
      </trkpt>
      <trkpt lat="-15.899644" lon="128.130575">
        <ele>155.365893</ele>
        <time>2026-09-15T00:56:34.236Z</time>
      </trkpt>
      <trkpt lat="-15.899739" lon="128.130592">
        <ele>155.178201</ele>
        <time>2026-09-15T00:56:44.235Z</time>
      </trkpt>
      <trkpt lat="-15.899828" lon="128.130622">
        <ele>154.996032</ele>
        <time>2026-09-15T00:56:53.232Z</time>
      </trkpt>
      <trkpt lat="-15.899922" lon="128.130630">
        <ele>154.812394</ele>
        <time>2026-09-15T00:57:03.226Z</time>
      </trkpt>
      <trkpt lat="-15.900017" lon="128.130633">
        <ele>154.627336</ele>
        <time>2026-09-15T00:57:13.224Z</time>
      </trkpt>
      <trkpt lat="-15.900109" lon="128.130608">
        <ele>154.442188</ele>
        <time>2026-09-15T00:57:27.231Z</time>
      </trkpt>
      <trkpt lat="-15.900178" lon="128.130545">
        <ele>154.263394</ele>
        <time>2026-09-15T00:57:40.236Z</time>
      </trkpt>
      <trkpt lat="-15.900273" lon="128.130543">
        <ele>154.078384</ele>
        <time>2026-09-15T00:57:52.231Z</time>
      </trkpt>
      <trkpt lat="-15.900364" lon="128.130564">
        <ele>153.896888</ele>
        <time>2026-09-15T00:58:04.228Z</time>
      </trkpt>
      <trkpt lat="-15.900458" lon="128.130591">
        <ele>153.707007</ele>
        <time>2026-09-15T00:58:20.235Z</time>
      </trkpt>
      <trkpt lat="-15.900551" lon="128.130603">
        <ele>153.524539</ele>
        <time>2026-09-15T00:58:35.231Z</time>
      </trkpt>
      <trkpt lat="-15.900643" lon="128.130604">
        <ele>153.345398</ele>
        <time>2026-09-15T00:58:50.226Z</time>
      </trkpt>
      <trkpt lat="-15.900734" lon="128.130604">
        <ele>153.168213</ele>
        <time>2026-09-15T00:59:08.237Z</time>
      </trkpt>
      <trkpt lat="-15.900825" lon="128.130576">
        <ele>152.983434</ele>
        <time>2026-09-15T00:59:30.238Z</time>
      </trkpt>
      <trkpt lat="-15.900873" lon="128.130492">
        <ele>152.800467</ele>
        <time>2026-09-15T00:59:50.228Z</time>
      </trkpt>
      <trkpt lat="-15.900967" lon="128.130481">
        <ele>152.616285</ele>
        <time>2026-09-15T01:00:07.226Z</time>
      </trkpt>
      <trkpt lat="-15.901035" lon="128.130543">
        <ele>152.266013</ele>
        <time>2026-09-15T01:00:27.231Z</time>
      </trkpt>
      <trkpt lat="-15.901126" lon="128.130562">
        <ele>151.898015</ele>
        <time>2026-09-15T01:00:45.240Z</time>
      </trkpt>
      <trkpt lat="-15.901217" lon="128.130565">
        <ele>151.537037</ele>
        <time>2026-09-15T01:01:00.213Z</time>
      </trkpt>
      <trkpt lat="-15.901309" lon="128.130569">
        <ele>151.171957</ele>
        <time>2026-09-15T01:01:15.235Z</time>
      </trkpt>
      <trkpt lat="-15.901401" lon="128.130547">
        <ele>150.797674</ele>
        <time>2026-09-15T01:01:31.214Z</time>
      </trkpt>
      <trkpt lat="-15.901490" lon="128.130513">
        <ele>150.421745</ele>
        <time>2026-09-15T01:01:46.233Z</time>
      </trkpt>
      <trkpt lat="-15.901520" lon="128.130424">
        <ele>150.062140</ele>
        <time>2026-09-15T01:02:01.230Z</time>
      </trkpt>
      <trkpt lat="-15.901519" lon="128.130329">
        <ele>149.699876</ele>
        <time>2026-09-15T01:02:16.235Z</time>
      </trkpt>
      <trkpt lat="-15.901570" lon="128.130246">
        <ele>149.324310</ele>
        <time>2026-09-15T01:02:30.236Z</time>
      </trkpt>
      <trkpt lat="-15.901639" lon="128.130186">
        <ele>148.967682</ele>
        <time>2026-09-15T01:02:44.245Z</time>
      </trkpt>
      <trkpt lat="-15.901731" lon="128.130182">
        <ele>148.602602</ele>
        <time>2026-09-15T01:02:57.225Z</time>
      </trkpt>
      <trkpt lat="-15.901809" lon="128.130119">
        <ele>148.211008</ele>
        <time>2026-09-15T01:03:10.235Z</time>
      </trkpt>
      <trkpt lat="-15.901863" lon="128.130037">
        <ele>147.832060</ele>
        <time>2026-09-15T01:03:23.227Z</time>
      </trkpt>
      <trkpt lat="-15.901911" lon="128.129958">
        <ele>147.475747</ele>
        <time>2026-09-15T01:03:38.242Z</time>
      </trkpt>
      <trkpt lat="-15.901976" lon="128.129890">
        <ele>147.110170</ele>
        <time>2026-09-15T01:03:49.228Z</time>
      </trkpt>
      <trkpt lat="-15.902047" lon="128.129816">
        <ele>146.711597</ele>
        <time>2026-09-15T01:03:59.227Z</time>
      </trkpt>
      <trkpt lat="-15.902133" lon="128.129769">
        <ele>146.326396</ele>
        <time>2026-09-15T01:04:08.228Z</time>
      </trkpt>
      <trkpt lat="-15.902180" lon="128.129679">
        <ele>145.935890</ele>
        <time>2026-09-15T01:04:18.234Z</time>
      </trkpt>
      <trkpt lat="-15.902261" lon="128.129616">
        <ele>145.534837</ele>
        <time>2026-09-15T01:04:27.240Z</time>
      </trkpt>
      <trkpt lat="-15.902345" lon="128.129573">
        <ele>145.497089</ele>
        <time>2026-09-15T01:04:36.232Z</time>
      </trkpt>
      <trkpt lat="-15.902412" lon="128.129500">
        <ele>145.521732</ele>
        <time>2026-09-15T01:04:45.237Z</time>
      </trkpt>
      <trkpt lat="-15.902505" lon="128.129458">
        <ele>145.547479</ele>
        <time>2026-09-15T01:04:54.236Z</time>
      </trkpt>
      <trkpt lat="-15.902593" lon="128.129423">
        <ele>145.571403</ele>
        <time>2026-09-15T01:05:02.230Z</time>
      </trkpt>
      <trkpt lat="-15.902668" lon="128.129354">
        <ele>145.596833</ele>
        <time>2026-09-15T01:05:11.234Z</time>
      </trkpt>
      <trkpt lat="-15.902748" lon="128.129292">
        <ele>145.622169</ele>
        <time>2026-09-15T01:05:20.228Z</time>
      </trkpt>
      <trkpt lat="-15.902844" lon="128.129262">
        <ele>145.647624</ele>
        <time>2026-09-15T01:05:29.242Z</time>
      </trkpt>
      <trkpt lat="-15.902934" lon="128.129255">
        <ele>145.670541</ele>
        <time>2026-09-15T01:05:37.235Z</time>
      </trkpt>
      <trkpt lat="-15.903003" lon="128.129181">
        <ele>145.695712</ele>
        <time>2026-09-15T01:05:47.240Z</time>
      </trkpt>
      <trkpt lat="-15.903042" lon="128.129091">
        <ele>145.719819</ele>
        <time>2026-09-15T01:05:56.221Z</time>
      </trkpt>
      <trkpt lat="-15.903118" lon="128.129039">
        <ele>145.742921</ele>
        <time>2026-09-15T01:06:04.232Z</time>
      </trkpt>
      <trkpt lat="-15.903192" lon="128.128975">
        <ele>145.767363</ele>
        <time>2026-09-15T01:06:13.227Z</time>
      </trkpt>
      <trkpt lat="-15.903269" lon="128.128919">
        <ele>145.791223</ele>
        <time>2026-09-15T01:06:22.234Z</time>
      </trkpt>
      <trkpt lat="-15.903329" lon="128.128847">
        <ele>145.814489</ele>
        <time>2026-09-15T01:06:33.239Z</time>
      </trkpt>
      <trkpt lat="-15.903402" lon="128.128779">
        <ele>145.839377</ele>
        <time>2026-09-15T01:06:43.229Z</time>
      </trkpt>
      <trkpt lat="-15.903460" lon="128.128700">
        <ele>145.863648</ele>
        <time>2026-09-15T01:06:53.230Z</time>
      </trkpt>
      <trkpt lat="-15.903508" lon="128.128618">
        <ele>145.887091</ele>
        <time>2026-09-15T01:07:04.231Z</time>
      </trkpt>
      <trkpt lat="-15.903587" lon="128.128564">
        <ele>145.911098</ele>
        <time>2026-09-15T01:07:12.220Z</time>
      </trkpt>
      <trkpt lat="-15.903679" lon="128.128530">
        <ele>145.925904</ele>
        <time>2026-09-15T01:07:21.235Z</time>
      </trkpt>
      <trkpt lat="-15.903770" lon="128.128514">
        <ele>145.840192</ele>
        <time>2026-09-15T01:07:30.235Z</time>
      </trkpt>
      <trkpt lat="-15.903858" lon="128.128479">
        <ele>145.752691</ele>
        <time>2026-09-15T01:07:39.231Z</time>
      </trkpt>
      <trkpt lat="-15.903955" lon="128.128468">
        <ele>145.662072</ele>
        <time>2026-09-15T01:07:49.227Z</time>
      </trkpt>
      <trkpt lat="-15.904028" lon="128.128406">
        <ele>145.574534</ele>
        <time>2026-09-15T01:07:58.240Z</time>
      </trkpt>
      <trkpt lat="-15.904090" lon="128.128336">
        <ele>145.489538</ele>
        <time>2026-09-15T01:08:07.232Z</time>
      </trkpt>
      <trkpt lat="-15.904157" lon="128.128265">
        <ele>145.400695</ele>
        <time>2026-09-15T01:08:18.222Z</time>
      </trkpt>
      <trkpt lat="-15.904248" lon="128.128255">
        <ele>145.315711</ele>
        <time>2026-09-15T01:08:26.231Z</time>
      </trkpt>
      <trkpt lat="-15.904345" lon="128.128256">
        <ele>145.225622</ele>
        <time>2026-09-15T01:08:35.241Z</time>
      </trkpt>
      <trkpt lat="-15.904442" lon="128.128289">
        <ele>145.130838</ele>
        <time>2026-09-15T01:08:43.231Z</time>
      </trkpt>
      <trkpt lat="-15.904533" lon="128.128291">
        <ele>145.046307</ele>
        <time>2026-09-15T01:08:50.237Z</time>
      </trkpt>
      <trkpt lat="-15.904636" lon="128.128300">
        <ele>144.950312</ele>
        <time>2026-09-15T01:08:58.230Z</time>
      </trkpt>
      <trkpt lat="-15.904735" lon="128.128314">
        <ele>144.857524</ele>
        <time>2026-09-15T01:09:06.223Z</time>
      </trkpt>
      <trkpt lat="-15.904831" lon="128.128328">
        <ele>144.767495</ele>
        <time>2026-09-15T01:09:14.228Z</time>
      </trkpt>
      <trkpt lat="-15.904924" lon="128.128346">
        <ele>144.679641</ele>
        <time>2026-09-15T01:09:23.237Z</time>
      </trkpt>
      <trkpt lat="-15.905016" lon="128.128353">
        <ele>144.593971</ele>
        <time>2026-09-15T01:09:31.232Z</time>
      </trkpt>
      <trkpt lat="-15.905110" lon="128.128361">
        <ele>144.506381</ele>
        <time>2026-09-15T01:09:39.224Z</time>
      </trkpt>
      <trkpt lat="-15.905212" lon="128.128364">
        <ele>144.411614</ele>
        <time>2026-09-15T01:09:48.232Z</time>
      </trkpt>
      <trkpt lat="-15.905304" lon="128.128376">
        <ele>144.325503</ele>
        <time>2026-09-15T01:09:56.227Z</time>
      </trkpt>
      <trkpt lat="-15.905403" lon="128.128375">
        <ele>144.263329</ele>
        <time>2026-09-15T01:10:05.228Z</time>
      </trkpt>
      <trkpt lat="-15.905503" lon="128.128385">
        <ele>144.263329</ele>
        <time>2026-09-15T01:10:14.240Z</time>
      </trkpt>
      <trkpt lat="-15.905594" lon="128.128405">
        <ele>144.263329</ele>
        <time>2026-09-15T01:10:22.225Z</time>
      </trkpt>
      <trkpt lat="-15.905687" lon="128.128425">
        <ele>144.263329</ele>
        <time>2026-09-15T01:10:30.223Z</time>
      </trkpt>
      <trkpt lat="-15.905785" lon="128.128435">
        <ele>144.263329</ele>
        <time>2026-09-15T01:10:38.230Z</time>
      </trkpt>
      <trkpt lat="-15.905883" lon="128.128439">
        <ele>144.263329</ele>
        <time>2026-09-15T01:10:46.226Z</time>
      </trkpt>
      <trkpt lat="-15.905984" lon="128.128446">
        <ele>144.263329</ele>
        <time>2026-09-15T01:10:54.229Z</time>
      </trkpt>
      <trkpt lat="-15.906074" lon="128.128460">
        <ele>144.263329</ele>
        <time>2026-09-15T01:11:01.224Z</time>
      </trkpt>
      <trkpt lat="-15.906166" lon="128.128483">
        <ele>144.263329</ele>
        <time>2026-09-15T01:11:09.234Z</time>
      </trkpt>
      <trkpt lat="-15.906259" lon="128.128505">
        <ele>144.263329</ele>
        <time>2026-09-15T01:11:17.236Z</time>
      </trkpt>
      <trkpt lat="-15.906356" lon="128.128541">
        <ele>144.263329</ele>
        <time>2026-09-15T01:11:25.236Z</time>
      </trkpt>
      <trkpt lat="-15.906446" lon="128.128560">
        <ele>144.263329</ele>
        <time>2026-09-15T01:11:33.235Z</time>
      </trkpt>
      <trkpt lat="-15.906537" lon="128.128589">
        <ele>144.263329</ele>
        <time>2026-09-15T01:11:41.236Z</time>
      </trkpt>
      <trkpt lat="-15.906615" lon="128.128639">
        <ele>144.263329</ele>
        <time>2026-09-15T01:11:49.235Z</time>
      </trkpt>
      <trkpt lat="-15.906706" lon="128.128680">
        <ele>144.263329</ele>
        <time>2026-09-15T01:11:57.230Z</time>
      </trkpt>
    </trkseg>
  </trk>
</gpx>