<?xml version='1.0' encoding='UTF-8'?>
<gpx version="1.1" creator="https://www.komoot.de" xmlns="http://www.topografix.com/GPX/1/1" xmlns:xsi="http://www.w3.org/2001/XMLSchema-instance" xsi:schemaLocation="http://www.topografix.com/GPX/1/1 http://www.topografix.com/GPX/1/1/gpx.xsd">
  <metadata>
    <name>Lawn Hill</name>
    <author>
      <link href="https://www.komoot.de">
        <text>komoot</text>
        <type>text/html</type>
      </link>
    </author>
  </metadata>
  <trk>
    <name>Lawn Hill</name>
    <type>hike</type>
    <trkseg>
      <trkpt lat="-18.701367" lon="138.487547">
        <ele>147.032501</ele>
        <time>2026-09-03T23:01:27.092Z</time>
      </trkpt>
      <trkpt lat="-18.701359" lon="138.487447">
        <ele>147.032501</ele>
        <time>2026-09-03T23:01:38.807Z</time>
      </trkpt>
      <trkpt lat="-18.701322" lon="138.487358">
        <ele>147.032501</ele>
        <time>2026-09-03T23:01:47.815Z</time>
      </trkpt>
      <trkpt lat="-18.701300" lon="138.487265">
        <ele>147.032501</ele>
        <time>2026-09-03T23:01:55.819Z</time>
      </trkpt>
      <trkpt lat="-18.701292" lon="138.487166">
        <ele>147.032501</ele>
        <time>2026-09-03T23:02:04.818Z</time>
      </trkpt>
      <trkpt lat="-18.701288" lon="138.487068">
        <ele>147.032501</ele>
        <time>2026-09-03T23:02:13.810Z</time>
      </trkpt>
      <trkpt lat="-18.701278" lon="138.486879">
        <ele>147.032501</ele>
        <time>2026-09-03T23:02:54.814Z</time>
      </trkpt>
      <trkpt lat="-18.701285" lon="138.486983">
        <ele>147.032501</ele>
        <time>2026-09-03T23:03:17.824Z</time>
      </trkpt>
      <trkpt lat="-18.701289" lon="138.487089">
        <ele>147.032501</ele>
        <time>2026-09-03T23:03:24.815Z</time>
      </trkpt>
      <trkpt lat="-18.701295" lon="138.487191">
        <ele>146.954779</ele>
        <time>2026-09-03T23:03:31.823Z</time>
      </trkpt>
      <trkpt lat="-18.701300" lon="138.487286">
        <ele>146.783782</ele>
        <time>2026-09-03T23:03:38.818Z</time>
      </trkpt>
      <trkpt lat="-18.701264" lon="138.487387">
        <ele>146.589839</ele>
        <time>2026-09-03T23:03:45.813Z</time>
      </trkpt>
      <trkpt lat="-18.701178" lon="138.487445">
        <ele>146.396213</ele>
        <time>2026-09-03T23:03:52.819Z</time>
      </trkpt>
      <trkpt lat="-18.701103" lon="138.487503">
        <ele>146.219816</ele>
        <time>2026-09-03T23:03:59.811Z</time>
      </trkpt>
      <trkpt lat="-18.701031" lon="138.487567">
        <ele>146.041232</ele>
        <time>2026-09-03T23:04:06.803Z</time>
      </trkpt>
      <trkpt lat="-18.700935" lon="138.487580">
        <ele>145.857592</ele>
        <time>2026-09-03T23:04:13.811Z</time>
      </trkpt>
      <trkpt lat="-18.700844" lon="138.487551">
        <ele>145.677237</ele>
        <time>2026-09-03T23:04:20.831Z</time>
      </trkpt>
      <trkpt lat="-18.700770" lon="138.487625">
        <ele>145.483844</ele>
        <time>2026-09-03T23:04:30.825Z</time>
      </trkpt>
      <trkpt lat="-18.700733" lon="138.487726">
        <ele>145.289223</ele>
        <time>2026-09-03T23:04:38.818Z</time>
      </trkpt>
      <trkpt lat="-18.700709" lon="138.487822">
        <ele>145.110784</ele>
        <time>2026-09-03T23:04:45.813Z</time>
      </trkpt>
      <trkpt lat="-18.700673" lon="138.487918">
        <ele>144.925223</ele>
        <time>2026-09-03T23:04:52.818Z</time>
      </trkpt>
      <trkpt lat="-18.700659" lon="138.488019">
        <ele>144.741772</ele>
        <time>2026-09-03T23:04:59.818Z</time>
      </trkpt>
      <trkpt lat="-18.700567" lon="138.487981">
        <ele>144.554330</ele>
        <time>2026-09-03T23:05:12.810Z</time>
      </trkpt>
      <trkpt lat="-18.700495" lon="138.487909">
        <ele>144.366163</ele>
        <time>2026-09-03T23:05:19.816Z</time>
      </trkpt>
      <trkpt lat="-18.700401" lon="138.487890">
        <ele>144.184571</ele>
        <time>2026-09-03T23:05:26.815Z</time>
      </trkpt>
      <trkpt lat="-18.700323" lon="138.487843">
        <ele>144.014167</ele>
        <time>2026-09-03T23:05:32.816Z</time>
      </trkpt>
      <trkpt lat="-18.700269" lon="138.487750">
        <ele>143.818122</ele>
        <time>2026-09-03T23:05:39.822Z</time>
      </trkpt>
      <trkpt lat="-18.700209" lon="138.487674">
        <ele>143.640312</ele>
        <time>2026-09-03T23:05:46.829Z</time>
      </trkpt>
      <trkpt lat="-18.700119" lon="138.487681">
        <ele>143.268868</ele>
        <time>2026-09-03T23:05:52.816Z</time>
      </trkpt>
      <trkpt lat="-18.700028" lon="138.487698">
        <ele>142.860593</ele>
        <time>2026-09-03T23:06:00.820Z</time>
      </trkpt>
      <trkpt lat="-18.699938" lon="138.487719">
        <ele>142.453387</ele>
        <time>2026-09-03T23:06:07.825Z</time>
      </trkpt>
      <trkpt lat="-18.699889" lon="138.487807">
        <ele>142.026220</ele>
        <time>2026-09-03T23:06:15.824Z</time>
      </trkpt>
      <trkpt lat="-18.699828" lon="138.487880">
        <ele>141.618856</ele>
        <time>2026-09-03T23:06:22.819Z</time>
      </trkpt>
      <trkpt lat="-18.699752" lon="138.487937">
        <ele>141.206995</ele>
        <time>2026-09-03T23:06:30.815Z</time>
      </trkpt>
      <trkpt lat="-18.699686" lon="138.487867">
        <ele>140.793683</ele>
        <time>2026-09-03T23:06:38.819Z</time>
      </trkpt>
      <trkpt lat="-18.699655" lon="138.487774">
        <ele>140.381112</ele>
        <time>2026-09-03T23:06:46.812Z</time>
      </trkpt>
      <trkpt lat="-18.699594" lon="138.487701">
        <ele>139.973749</ele>
        <time>2026-09-03T23:06:57.818Z</time>
      </trkpt>
      <trkpt lat="-18.699550" lon="138.487786">
        <ele>139.568399</ele>
        <time>2026-09-03T23:08:37.820Z</time>
      </trkpt>
      <trkpt lat="-18.699627" lon="138.487859">
        <ele>139.111190</ele>
        <time>2026-09-03T23:08:45.811Z</time>
      </trkpt>
      <trkpt lat="-18.699720" lon="138.487838">
        <ele>138.691032</ele>
        <time>2026-09-03T23:08:49.810Z</time>
      </trkpt>
      <trkpt lat="-18.698073" lon="138.498994">
        <ele>235.190942</ele>
        <time>2026-09-03T23:54:05.813Z</time>
      </trkpt>
      <trkpt lat="-18.698146" lon="138.499057">
        <ele>235.737267</ele>
        <time>2026-09-03T23:54:18.804Z</time>
      </trkpt>
      <trkpt lat="-18.698198" lon="138.499139">
        <ele>236.278865</ele>
        <time>2026-09-03T23:54:29.799Z</time>
      </trkpt>
      <trkpt lat="-18.698260" lon="138.499214">
        <ele>236.825215</ele>
        <time>2026-09-03T23:54:39.795Z</time>
      </trkpt>
      <trkpt lat="-18.698333" lon="138.499275">
        <ele>237.364659</ele>
        <time>2026-09-03T23:54:50.802Z</time>
      </trkpt>
      <trkpt lat="-18.698411" lon="138.499332">
        <ele>237.914322</ele>
        <time>2026-09-03T23:54:59.812Z</time>
      </trkpt>
      <trkpt lat="-18.698509" lon="138.499341">
        <ele>238.484303</ele>
        <time>2026-09-03T23:55:07.818Z</time>
      </trkpt>
      <trkpt lat="-18.698606" lon="138.499344">
        <ele>239.046587</ele>
        <time>2026-09-03T23:55:23.803Z</time>
      </trkpt>
      <trkpt lat="-18.698694" lon="138.499367">
        <ele>239.571875</ele>
        <time>2026-09-03T23:55:34.800Z</time>
      </trkpt>
      <trkpt lat="-18.698786" lon="138.499385">
        <ele>239.039189</ele>
        <time>2026-09-03T23:55:45.811Z</time>
      </trkpt>
      <trkpt lat="-18.698864" lon="138.499327">
        <ele>238.116759</ele>
        <time>2026-09-03T23:55:57.814Z</time>
      </trkpt>
      <trkpt lat="-18.698926" lon="138.499245">
        <ele>237.155877</ele>
        <time>2026-09-03T23:56:14.819Z</time>
      </trkpt>
      <trkpt lat="-18.698988" lon="138.499174">
        <ele>236.271493</ele>
        <time>2026-09-03T23:56:24.817Z</time>
      </trkpt>
      <trkpt lat="-18.699043" lon="138.499089">
        <ele>235.328756</ele>
        <time>2026-09-03T23:56:35.809Z</time>
      </trkpt>
      <trkpt lat="-18.699050" lon="138.498983">
        <ele>234.355635</ele>
        <time>2026-09-03T23:56:42.816Z</time>
      </trkpt>
      <trkpt lat="-18.699042" lon="138.498882">
        <ele>233.427432</ele>
        <time>2026-09-03T23:56:53.801Z</time>
      </trkpt>
      <trkpt lat="-18.698989" lon="138.498800">
        <ele>232.518289</ele>
        <time>2026-09-03T23:57:01.812Z</time>
      </trkpt>
      <trkpt lat="-18.698988" lon="138.498699">
        <ele>231.593264</ele>
        <time>2026-09-03T23:57:13.813Z</time>
      </trkpt>
      <trkpt lat="-18.699009" lon="138.498604">
        <ele>230.699861</ele>
        <time>2026-09-03T23:57:23.810Z</time>
      </trkpt>
      <trkpt lat="-18.698992" lon="138.498509">
        <ele>229.814446</ele>
        <time>2026-09-03T23:57:35.814Z</time>
      </trkpt>
      <trkpt lat="-18.698993" lon="138.498412">
        <ele>228.926051</ele>
        <time>2026-09-03T23:57:46.816Z</time>
      </trkpt>
      <trkpt lat="-18.698990" lon="138.498309">
        <ele>227.982315</ele>
        <time>2026-09-03T23:57:58.811Z</time>
      </trkpt>
      <trkpt lat="-18.698982" lon="138.498209">
        <ele>227.063238</ele>
        <time>2026-09-03T23:58:09.814Z</time>
      </trkpt>
      <trkpt lat="-18.698983" lon="138.498113">
        <ele>226.184001</ele>
        <time>2026-09-03T23:58:19.799Z</time>
      </trkpt>
      <trkpt lat="-18.698960" lon="138.498016">
        <ele>225.268248</ele>
        <time>2026-09-03T23:58:34.803Z</time>
      </trkpt>
      <trkpt lat="-18.698930" lon="138.497924">
        <ele>224.377168</ele>
        <time>2026-09-03T23:58:45.802Z</time>
      </trkpt>
      <trkpt lat="-18.698922" lon="138.497824">
        <ele>223.458090</ele>
        <time>2026-09-03T23:59:23.819Z</time>
      </trkpt>
      <trkpt lat="-18.698878" lon="138.497738">
        <ele>222.562940</ele>
        <time>2026-09-03T23:59:36.795Z</time>
      </trkpt>
      <trkpt lat="-18.698852" lon="138.497643">
        <ele>220.772552</ele>
        <time>2026-09-03T23:59:50.811Z</time>
      </trkpt>
      <trkpt lat="-18.698930" lon="138.497590">
        <ele>218.680203</ele>
        <time>2026-09-04T00:00:13.822Z</time>
      </trkpt>
      <trkpt lat="-18.699014" lon="138.497552">
        <ele>216.618809</ele>
        <time>2026-09-04T00:00:25.809Z</time>
      </trkpt>
      <trkpt lat="-18.699046" lon="138.497461">
        <ele>214.544830</ele>
        <time>2026-09-04T00:00:36.810Z</time>
      </trkpt>
      <trkpt lat="-18.699018" lon="138.497366">
        <ele>212.419056</ele>
        <time>2026-09-04T00:00:46.819Z</time>
      </trkpt>
      <trkpt lat="-18.698996" lon="138.497268">
        <ele>210.267174</ele>
        <time>2026-09-04T00:00:59.822Z</time>
      </trkpt>
      <trkpt lat="-18.698992" lon="138.497166">
        <ele>208.085963</ele>
        <time>2026-09-04T00:01:12.805Z</time>
      </trkpt>
      <trkpt lat="-18.698969" lon="138.497074">
        <ele>206.052968</ele>
        <time>2026-09-04T00:01:23.819Z</time>
      </trkpt>
      <trkpt lat="-18.698965" lon="138.496970">
        <ele>203.829060</ele>
        <time>2026-09-04T00:01:37.827Z</time>
      </trkpt>
      <trkpt lat="-18.698931" lon="138.496879">
        <ele>201.738952</ele>
        <time>2026-09-04T00:01:52.823Z</time>
      </trkpt>
      <trkpt lat="-18.698916" lon="138.496779">
        <ele>199.575714</ele>
        <time>2026-09-04T00:02:06.805Z</time>
      </trkpt>
      <trkpt lat="-18.698939" lon="138.496687">
        <ele>197.542718</ele>
        <time>2026-09-04T00:02:20.810Z</time>
      </trkpt>
      <trkpt lat="-18.698950" lon="138.496586">
        <ele>195.370522</ele>
        <time>2026-09-04T00:02:34.813Z</time>
      </trkpt>
      <trkpt lat="-18.698962" lon="138.496489">
        <ele>193.280406</ele>
        <time>2026-09-04T00:02:48.831Z</time>
      </trkpt>
      <trkpt lat="-18.698968" lon="138.496392">
        <ele>191.203477</ele>
        <time>2026-09-04T00:03:01.810Z</time>
      </trkpt>
      <trkpt lat="-18.698974" lon="138.496293">
        <ele>189.083906</ele>
        <time>2026-09-04T00:03:16.804Z</time>
      </trkpt>
      <trkpt lat="-18.698936" lon="138.496204">
        <ele>186.998062</ele>
        <time>2026-09-04T00:03:29.820Z</time>
      </trkpt>
      <trkpt lat="-18.698881" lon="138.496126">
        <ele>184.920429</ele>
        <time>2026-09-04T00:03:40.816Z</time>
      </trkpt>
      <trkpt lat="-18.698823" lon="138.496053">
        <ele>182.884654</ele>
        <time>2026-09-04T00:03:52.822Z</time>
      </trkpt>
      <trkpt lat="-18.698761" lon="138.495980">
        <ele>181.183933</ele>
        <time>2026-09-04T00:04:04.821Z</time>
      </trkpt>
      <trkpt lat="-18.698649" lon="138.495878">
        <ele>179.217789</ele>
        <time>2026-09-04T00:17:08.809Z</time>
      </trkpt>
      <trkpt lat="-18.698632" lon="138.495780">
        <ele>177.963366</ele>
        <time>2026-09-04T00:17:16.815Z</time>
      </trkpt>
      <trkpt lat="-18.698640" lon="138.495683">
        <ele>176.737434</ele>
        <time>2026-09-04T00:17:26.816Z</time>
      </trkpt>
      <trkpt lat="-18.698619" lon="138.495586">
        <ele>175.484629</ele>
        <time>2026-09-04T00:17:39.830Z</time>
      </trkpt>
      <trkpt lat="-18.698601" lon="138.495482">
        <ele>174.153502</ele>
        <time>2026-09-04T00:17:52.809Z</time>
      </trkpt>
      <trkpt lat="-18.698656" lon="138.495401">
        <ele>172.898674</ele>
        <time>2026-09-04T00:18:02.813Z</time>
      </trkpt>
      <trkpt lat="-18.698683" lon="138.495300">
        <ele>171.577326</ele>
        <time>2026-09-04T00:18:11.803Z</time>
      </trkpt>
      <trkpt lat="-18.698731" lon="138.495215">
        <ele>170.331347</ele>
        <time>2026-09-04T00:18:20.816Z</time>
      </trkpt>
      <trkpt lat="-18.698809" lon="138.495160">
        <ele>169.084541</ele>
        <time>2026-09-04T00:18:29.805Z</time>
      </trkpt>
      <trkpt lat="-18.698864" lon="138.495074">
        <ele>167.778033</ele>
        <time>2026-09-04T00:18:41.815Z</time>
      </trkpt>
      <trkpt lat="-18.698797" lon="138.495010">
        <ele>166.576996</ele>
        <time>2026-09-04T00:18:57.822Z</time>
      </trkpt>
      <trkpt lat="-18.698872" lon="138.495099">
        <ele>165.077136</ele>
        <time>2026-09-04T00:19:19.816Z</time>
      </trkpt>
      <trkpt lat="-18.698957" lon="138.495063">
        <ele>163.859749</ele>
        <time>2026-09-04T00:19:29.824Z</time>
      </trkpt>
      <trkpt lat="-18.699019" lon="138.494990">
        <ele>162.625249</ele>
        <time>2026-09-04T00:19:40.797Z</time>
      </trkpt>
      <trkpt lat="-18.699076" lon="138.494909">
        <ele>161.354750</ele>
        <time>2026-09-04T00:19:50.805Z</time>
      </trkpt>
      <trkpt lat="-18.699145" lon="138.494832">
        <ele>160.020161</ele>
        <time>2026-09-04T00:20:00.810Z</time>
      </trkpt>
      <trkpt lat="-18.699195" lon="138.494748">
        <ele>158.771042</ele>
        <time>2026-09-04T00:20:08.805Z</time>
      </trkpt>
      <trkpt lat="-18.699219" lon="138.494655">
        <ele>157.625727</ele>
        <time>2026-09-04T00:20:17.805Z</time>
      </trkpt>
      <trkpt lat="-18.699277" lon="138.494573">
        <ele>156.647409</ele>
        <time>2026-09-04T00:20:27.802Z</time>
      </trkpt>
      <trkpt lat="-18.699331" lon="138.494494">
        <ele>155.716100</ele>
        <time>2026-09-04T00:20:37.805Z</time>
      </trkpt>
      <trkpt lat="-18.699358" lon="138.494402">
        <ele>154.795377</ele>
        <time>2026-09-04T00:20:49.803Z</time>
      </trkpt>
      <trkpt lat="-18.699398" lon="138.494310">
        <ele>153.827677</ele>
        <time>2026-09-04T00:21:00.799Z</time>
      </trkpt>
      <trkpt lat="-18.699445" lon="138.494227">
        <ele>152.903262</ele>
        <time>2026-09-04T00:21:11.804Z</time>
      </trkpt>
      <trkpt lat="-18.699498" lon="138.494146">
        <ele>151.962156</ele>
        <time>2026-09-04T00:21:22.807Z</time>
      </trkpt>
      <trkpt lat="-18.699524" lon="138.494048">
        <ele>150.989269</ele>
        <time>2026-09-04T00:21:34.816Z</time>
      </trkpt>
      <trkpt lat="-18.699610" lon="138.494011">
        <ele>150.052031</ele>
        <time>2026-09-04T00:21:46.801Z</time>
      </trkpt>
      <trkpt lat="-18.699632" lon="138.493916">
        <ele>149.117130</ele>
        <time>2026-09-04T00:21:58.802Z</time>
      </trkpt>
      <trkpt lat="-18.699665" lon="138.493824">
        <ele>148.176708</ele>
        <time>2026-09-04T00:22:13.816Z</time>
      </trkpt>
      <trkpt lat="-18.699737" lon="138.493764">
        <ele>147.250969</ele>
        <time>2026-09-04T00:22:24.815Z</time>
      </trkpt>
      <trkpt lat="-18.699828" lon="138.493731">
        <ele>146.279904</ele>
        <time>2026-09-04T00:22:34.816Z</time>
      </trkpt>
      <trkpt lat="-18.699891" lon="138.493658">
        <ele>145.335847</ele>
        <time>2026-09-04T00:22:43.806Z</time>
      </trkpt>
      <trkpt lat="-18.699998" lon="138.493570">
        <ele>143.966979</ele>
        <time>2026-09-04T00:23:33.807Z</time>
      </trkpt>
      <trkpt lat="-18.700124" lon="138.493509">
        <ele>142.568027</ele>
        <time>2026-09-04T00:24:03.818Z</time>
      </trkpt>
      <trkpt lat="-18.700206" lon="138.493464">
        <ele>141.635334</ele>
        <time>2026-09-04T00:24:19.820Z</time>
      </trkpt>
      <trkpt lat="-18.700294" lon="138.493424">
        <ele>140.668396</ele>
        <time>2026-09-04T00:24:34.786Z</time>
      </trkpt>
      <trkpt lat="-18.700349" lon="138.493347">
        <ele>139.746485</ele>
        <time>2026-09-04T00:24:44.798Z</time>
      </trkpt>
      <trkpt lat="-18.700400" lon="138.493262">
        <ele>139.732637</ele>
        <time>2026-09-04T00:25:08.810Z</time>
      </trkpt>
      <trkpt lat="-18.700490" lon="138.493249">
        <ele>139.777109</ele>
        <time>2026-09-04T00:25:20.808Z</time>
      </trkpt>
      <trkpt lat="-18.700528" lon="138.493159">
        <ele>139.822803</ele>
        <time>2026-09-04T00:25:35.807Z</time>
      </trkpt>
      <trkpt lat="-18.700590" lon="138.493087">
        <ele>139.867926</ele>
        <time>2026-09-04T00:25:49.820Z</time>
      </trkpt>
      <trkpt lat="-18.700673" lon="138.493035">
        <ele>139.915177</ele>
        <time>2026-09-04T00:26:01.812Z</time>
      </trkpt>
      <trkpt lat="-18.700733" lon="138.492959">
        <ele>139.961057</ele>
        <time>2026-09-04T00:26:11.816Z</time>
      </trkpt>
      <trkpt lat="-18.700760" lon="138.492862">
        <ele>140.007940</ele>
        <time>2026-09-04T00:26:56.789Z</time>
      </trkpt>
      <trkpt lat="-18.700805" lon="138.492777">
        <ele>140.053096</ele>
        <time>2026-09-04T00:27:09.824Z</time>
      </trkpt>
      <trkpt lat="-18.700865" lon="138.492702">
        <ele>140.098620</ele>
        <time>2026-09-04T00:27:19.822Z</time>
      </trkpt>
      <trkpt lat="-18.700900" lon="138.492603">
        <ele>140.147623</ele>
        <time>2026-09-04T00:27:29.819Z</time>
      </trkpt>
      <trkpt lat="-18.700922" lon="138.492510">
        <ele>140.192074</ele>
        <time>2026-09-04T00:27:38.811Z</time>
      </trkpt>
      <trkpt lat="-18.700951" lon="138.492414">
        <ele>140.238801</ele>
        <time>2026-09-04T00:27:47.819Z</time>
      </trkpt>
      <trkpt lat="-18.700971" lon="138.492321">
        <ele>140.283025</ele>
        <time>2026-09-04T00:27:57.813Z</time>
      </trkpt>
      <trkpt lat="-18.700880" lon="138.492336">
        <ele>140.328116</ele>
        <time>2026-09-04T00:28:16.815Z</time>
      </trkpt>
      <trkpt lat="-18.700842" lon="138.492243">
        <ele>140.375084</ele>
        <time>2026-09-04T00:28:47.814Z</time>
      </trkpt>
      <trkpt lat="-18.700895" lon="138.492323">
        <ele>140.420355</ele>
        <time>2026-09-04T00:32:03.804Z</time>
      </trkpt>
      <trkpt lat="-18.700978" lon="138.492286">
        <ele>140.464464</ele>
        <time>2026-09-04T00:32:19.808Z</time>
      </trkpt>
      <trkpt lat="-18.701000" lon="138.492191">
        <ele>140.509815</ele>
        <time>2026-09-04T00:32:27.810Z</time>
      </trkpt>
      <trkpt lat="-18.701015" lon="138.492093">
        <ele>140.555850</ele>
        <time>2026-09-04T00:32:43.806Z</time>
      </trkpt>
      <trkpt lat="-18.701001" lon="138.491996">
        <ele>140.521702</ele>
        <time>2026-09-04T00:32:53.811Z</time>
      </trkpt>
      <trkpt lat="-18.701005" lon="138.491891">
        <ele>140.449168</ele>
        <time>2026-09-04T00:33:03.810Z</time>
      </trkpt>
      <trkpt lat="-18.700994" lon="138.491793">
        <ele>140.381050</ele>
        <time>2026-09-04T00:33:12.815Z</time>
      </trkpt>
      <trkpt lat="-18.700978" lon="138.491695">
        <ele>140.312408</ele>
        <time>2026-09-04T00:33:29.827Z</time>
      </trkpt>
      <trkpt lat="-18.701031" lon="138.491604">
        <ele>140.238672</ele>
        <time>2026-09-04T00:33:39.817Z</time>
      </trkpt>
      <trkpt lat="-18.701088" lon="138.491517">
        <ele>140.165655</ele>
        <time>2026-09-04T00:33:47.819Z</time>
      </trkpt>
      <trkpt lat="-18.701134" lon="138.491424">
        <ele>140.093236</ele>
        <time>2026-09-04T00:33:55.814Z</time>
      </trkpt>
      <trkpt lat="-18.701193" lon="138.491347">
        <ele>140.024875</ele>
        <time>2026-09-04T00:34:06.804Z</time>
      </trkpt>
      <trkpt lat="-18.701251" lon="138.491270">
        <ele>139.956969</ele>
        <time>2026-09-04T00:34:24.810Z</time>
      </trkpt>
      <trkpt lat="-18.701334" lon="138.491214">
        <ele>139.885188</ele>
        <time>2026-09-04T00:34:34.807Z</time>
      </trkpt>
      <trkpt lat="-18.701376" lon="138.491121">
        <ele>139.814073</ele>
        <time>2026-09-04T00:34:43.812Z</time>
      </trkpt>
      <trkpt lat="-18.701396" lon="138.491024">
        <ele>139.745551</ele>
        <time>2026-09-04T00:35:02.793Z</time>
      </trkpt>
      <trkpt lat="-18.701403" lon="138.490923">
        <ele>139.675650</ele>
        <time>2026-09-04T00:35:11.805Z</time>
      </trkpt>
      <trkpt lat="-18.701374" lon="138.490823">
        <ele>139.603462</ele>
        <time>2026-09-04T00:35:19.799Z</time>
      </trkpt>
      <trkpt lat="-18.701381" lon="138.490721">
        <ele>139.532873</ele>
        <time>2026-09-04T00:35:26.818Z</time>
      </trkpt>
      <trkpt lat="-18.701358" lon="138.490626">
        <ele>139.465191</ele>
        <time>2026-09-04T00:35:36.817Z</time>
      </trkpt>
      <trkpt lat="-18.701331" lon="138.490523">
        <ele>139.391424</ele>
        <time>2026-09-04T00:35:45.795Z</time>
      </trkpt>
      <trkpt lat="-18.701308" lon="138.490430">
        <ele>139.325079</ele>
        <time>2026-09-04T00:35:51.798Z</time>
      </trkpt>
      <trkpt lat="-18.701278" lon="138.490335">
        <ele>139.262714</ele>
        <time>2026-09-04T00:35:58.802Z</time>
      </trkpt>
      <trkpt lat="-18.701258" lon="138.490235">
        <ele>139.370130</ele>
        <time>2026-09-04T00:36:06.803Z</time>
      </trkpt>
      <trkpt lat="-18.701272" lon="138.490133">
        <ele>139.478450</ele>
        <time>2026-09-04T00:36:14.807Z</time>
      </trkpt>
      <trkpt lat="-18.701273" lon="138.490037">
        <ele>139.579350</ele>
        <time>2026-09-04T00:36:21.811Z</time>
      </trkpt>
      <trkpt lat="-18.701233" lon="138.489945">
        <ele>139.685740</ele>
        <time>2026-09-04T00:36:29.804Z</time>
      </trkpt>
      <trkpt lat="-18.701191" lon="138.489845">
        <ele>139.800707</ele>
        <time>2026-09-04T00:36:37.809Z</time>
      </trkpt>
      <trkpt lat="-18.701147" lon="138.489752">
        <ele>139.909963</ele>
        <time>2026-09-04T00:36:45.791Z</time>
      </trkpt>
      <trkpt lat="-18.701104" lon="138.489664">
        <ele>140.014031</ele>
        <time>2026-09-04T00:36:52.795Z</time>
      </trkpt>
      <trkpt lat="-18.701032" lon="138.489588">
        <ele>140.127001</ele>
        <time>2026-09-04T00:37:00.796Z</time>
      </trkpt>
      <trkpt lat="-18.700977" lon="138.489504">
        <ele>140.234323</ele>
        <time>2026-09-04T00:37:08.805Z</time>
      </trkpt>
      <trkpt lat="-18.700939" lon="138.489408">
        <ele>140.343674</ele>
        <time>2026-09-04T00:37:16.812Z</time>
      </trkpt>
      <trkpt lat="-18.700901" lon="138.489313">
        <ele>140.452055</ele>
        <time>2026-09-04T00:37:24.822Z</time>
      </trkpt>
      <trkpt lat="-18.700890" lon="138.489216">
        <ele>140.554728</ele>
        <time>2026-09-04T00:37:34.823Z</time>
      </trkpt>
      <trkpt lat="-18.700818" lon="138.489123">
        <ele>140.680965</ele>
        <time>2026-09-04T00:39:34.795Z</time>
      </trkpt>
      <trkpt lat="-18.700778" lon="138.489034">
        <ele>140.784498</ele>
        <time>2026-09-04T00:39:43.804Z</time>
      </trkpt>
      <trkpt lat="-18.700774" lon="138.488937">
        <ele>140.886540</ele>
        <time>2026-09-04T00:39:51.813Z</time>
      </trkpt>
      <trkpt lat="-18.700787" lon="138.488840">
        <ele>140.989502</ele>
        <time>2026-09-04T00:39:59.822Z</time>
      </trkpt>
      <trkpt lat="-18.700821" lon="138.488748">
        <ele>141.093291</ele>
        <time>2026-09-04T00:40:07.816Z</time>
      </trkpt>
      <trkpt lat="-18.700811" lon="138.488645">
        <ele>141.202110</ele>
        <time>2026-09-04T00:40:15.821Z</time>
      </trkpt>
      <trkpt lat="-18.700779" lon="138.488550">
        <ele>141.318802</ele>
        <time>2026-09-04T00:40:23.823Z</time>
      </trkpt>
      <trkpt lat="-18.700772" lon="138.488455">
        <ele>141.438933</ele>
        <time>2026-09-04T00:40:31.800Z</time>
      </trkpt>
      <trkpt lat="-18.700778" lon="138.488353">
        <ele>141.567775</ele>
        <time>2026-09-04T00:40:39.807Z</time>
      </trkpt>
      <trkpt lat="-18.700763" lon="138.488256">
        <ele>141.691685</ele>
        <time>2026-09-04T00:40:47.816Z</time>
      </trkpt>
      <trkpt lat="-18.700695" lon="138.488183">
        <ele>141.820765</ele>
        <time>2026-09-04T00:40:56.822Z</time>
      </trkpt>
      <trkpt lat="-18.700640" lon="138.488106">
        <ele>141.942349</ele>
        <time>2026-09-04T00:41:04.818Z</time>
      </trkpt>
      <trkpt lat="-18.700640" lon="138.488002">
        <ele>142.073465</ele>
        <time>2026-09-04T00:41:13.814Z</time>
      </trkpt>
      <trkpt lat="-18.700659" lon="138.487908">
        <ele>142.194642</ele>
        <time>2026-09-04T00:41:21.812Z</time>
      </trkpt>
      <trkpt lat="-18.700692" lon="138.487817">
        <ele>142.317489</ele>
        <time>2026-09-04T00:41:29.819Z</time>
      </trkpt>
      <trkpt lat="-18.700727" lon="138.487721">
        <ele>142.447174</ele>
        <time>2026-09-04T00:41:38.805Z</time>
      </trkpt>
      <trkpt lat="-18.700771" lon="138.487624">
        <ele>142.582765</ele>
        <time>2026-09-04T00:41:47.815Z</time>
      </trkpt>
      <trkpt lat="-18.700811" lon="138.487535">
        <ele>142.706960</ele>
        <time>2026-09-04T00:41:55.822Z</time>
      </trkpt>
      <trkpt lat="-18.700819" lon="138.487431">
        <ele>142.838507</ele>
        <time>2026-09-04T00:42:05.815Z</time>
      </trkpt>
      <trkpt lat="-18.700819" lon="138.487333">
        <ele>142.962058</ele>
        <time>2026-09-04T00:42:16.801Z</time>
      </trkpt>
      <trkpt lat="-18.700840" lon="138.487238">
        <ele>143.085046</ele>
        <time>2026-09-04T00:42:25.809Z</time>
      </trkpt>
      <trkpt lat="-18.700904" lon="138.487169">
        <ele>143.206798</ele>
        <time>2026-09-04T00:42:34.812Z</time>
      </trkpt>
      <trkpt lat="-18.700856" lon="138.487264">
        <ele>143.342541</ele>
        <time>2026-09-04T00:43:00.806Z</time>
      </trkpt>
      <trkpt lat="-18.700853" lon="138.487362">
        <ele>143.466157</ele>
        <time>2026-09-04T00:43:11.813Z</time>
      </trkpt>
      <trkpt lat="-18.700851" lon="138.487251">
        <ele>143.606123</ele>
        <time>2026-09-04T00:44:22.799Z</time>
      </trkpt>
      <trkpt lat="-18.700914" lon="138.487177">
        <ele>143.715440</ele>
        <time>2026-09-04T00:44:30.804Z</time>
      </trkpt>
      <trkpt lat="-18.701009" lon="138.487150">
        <ele>143.821020</ele>
        <time>2026-09-04T00:44:39.802Z</time>
      </trkpt>
      <trkpt lat="-18.701079" lon="138.487077">
        <ele>143.926611</ele>
        <time>2026-09-04T00:44:49.797Z</time>
      </trkpt>
      <trkpt lat="-18.701135" lon="138.486999">
        <ele>144.026100</ele>
        <time>2026-09-04T00:44:59.803Z</time>
      </trkpt>
      <trkpt lat="-18.701242" lon="138.486917">
        <ele>144.167992</ele>
        <time>2026-09-04T00:45:32.819Z</time>
      </trkpt>
      <trkpt lat="-18.701279" lon="138.487013">
        <ele>144.273345</ele>
        <time>2026-09-04T00:45:40.815Z</time>
      </trkpt>
      <trkpt lat="-18.701323" lon="138.487107">
        <ele>144.379927</ele>
        <time>2026-09-04T00:45:48.815Z</time>
      </trkpt>
      <trkpt lat="-18.701386" lon="138.487183">
        <ele>144.482587</ele>
        <time>2026-09-04T00:46:06.807Z</time>
      </trkpt>
      <trkpt lat="-18.701473" lon="138.487230">
        <ele>144.587466</ele>
        <time>2026-09-04T00:46:16.808Z</time>
      </trkpt>
      <trkpt lat="-18.701565" lon="138.487226">
        <ele>144.686280</ele>
        <time>2026-09-04T00:46:25.813Z</time>
      </trkpt>
      <trkpt lat="-18.701642" lon="138.487284">
        <ele>144.787790</ele>
        <time>2026-09-04T00:46:35.808Z</time>
      </trkpt>
      <trkpt lat="-18.701734" lon="138.487282">
        <ele>144.886542</ele>
        <time>2026-09-04T00:46:44.794Z</time>
      </trkpt>
      <trkpt lat="-18.701815" lon="138.487224">
        <ele>144.991575</ele>
        <time>2026-09-04T00:46:51.816Z</time>
      </trkpt>
      <trkpt lat="-18.701899" lon="138.487164">
        <ele>145.100414</ele>
        <time>2026-09-04T00:46:58.808Z</time>
      </trkpt>
      <trkpt lat="-18.701991" lon="138.487113">
        <ele>145.211928</ele>
        <time>2026-09-04T00:47:05.811Z</time>
      </trkpt>
      <trkpt lat="-18.702065" lon="138.487059">
        <ele>145.308466</ele>
        <time>2026-09-04T00:47:11.813Z</time>
      </trkpt>
      <trkpt lat="-18.702144" lon="138.486985">
        <ele>145.421805</ele>
        <time>2026-09-04T00:47:18.804Z</time>
      </trkpt>
      <trkpt lat="-18.702215" lon="138.486916">
        <ele>145.525366</ele>
        <time>2026-09-04T00:47:25.810Z</time>
      </trkpt>
      <trkpt lat="-18.702282" lon="138.486850">
        <ele>145.477974</ele>
        <time>2026-09-04T00:47:31.807Z</time>
      </trkpt>
      <trkpt lat="-18.702351" lon="138.486781">
        <ele>145.250675</ele>
        <time>2026-09-04T00:47:38.815Z</time>
      </trkpt>
      <trkpt lat="-18.702417" lon="138.486706">
        <ele>145.018765</ele>
        <time>2026-09-04T00:47:45.812Z</time>
      </trkpt>
      <trkpt lat="-18.702494" lon="138.486636">
        <ele>144.775744</ele>
        <time>2026-09-04T00:47:52.818Z</time>
      </trkpt>
      <trkpt lat="-18.702582" lon="138.486608">
        <ele>144.555931</ele>
        <time>2026-09-04T00:47:59.807Z</time>
      </trkpt>
      <trkpt lat="-18.702682" lon="138.486589">
        <ele>144.312926</ele>
        <time>2026-09-04T00:48:06.818Z</time>
      </trkpt>
      <trkpt lat="-18.702782" lon="138.486601">
        <ele>144.072223</ele>
        <time>2026-09-04T00:48:13.802Z</time>
      </trkpt>
      <trkpt lat="-18.702874" lon="138.486589">
        <ele>143.850520</ele>
        <time>2026-09-04T00:48:21.833Z</time>
      </trkpt>
      <trkpt lat="-18.702978" lon="138.486601">
        <ele>143.600309</ele>
        <time>2026-09-04T00:48:54.826Z</time>
      </trkpt>
      <trkpt lat="-18.703068" lon="138.486612">
        <ele>143.383625</ele>
        <time>2026-09-04T00:49:02.810Z</time>
      </trkpt>
      <trkpt lat="-18.703136" lon="138.486544">
        <ele>143.159621</ele>
        <time>2026-09-04T00:49:11.801Z</time>
      </trkpt>
      <trkpt lat="-18.703133" lon="138.486442">
        <ele>142.928445</ele>
        <time>2026-09-04T00:49:19.811Z</time>
      </trkpt>
      <trkpt lat="-18.703241" lon="138.486366">
        <ele>142.618030</ele>
        <time>2026-09-04T00:49:54.802Z</time>
      </trkpt>
      <trkpt lat="-18.703309" lon="138.486297">
        <ele>142.392462</ele>
        <time>2026-09-04T00:50:05.794Z</time>
      </trkpt>
      <trkpt lat="-18.703323" lon="138.486199">
        <ele>142.167949</ele>
        <time>2026-09-04T00:50:16.820Z</time>
      </trkpt>
      <trkpt lat="-18.703344" lon="138.486104">
        <ele>141.946960</ele>
        <time>2026-09-04T00:50:24.811Z</time>
      </trkpt>
      <trkpt lat="-18.703358" lon="138.486005">
        <ele>141.720206</ele>
        <time>2026-09-04T00:50:33.794Z</time>
      </trkpt>
      <trkpt lat="-18.703437" lon="138.485943">
        <ele>141.484783</ele>
        <time>2026-09-04T00:50:41.808Z</time>
      </trkpt>
      <trkpt lat="-18.703433" lon="138.485837">
        <ele>141.298853</ele>
        <time>2026-09-04T00:50:50.819Z</time>
      </trkpt>
      <trkpt lat="-18.703482" lon="138.485746">
        <ele>141.459596</ele>
        <time>2026-09-04T00:50:59.814Z</time>
      </trkpt>
      <trkpt lat="-18.703470" lon="138.485646">
        <ele>141.614384</ele>
        <time>2026-09-04T00:51:07.817Z</time>
      </trkpt>
      <trkpt lat="-18.703489" lon="138.485554">
        <ele>141.758980</ele>
        <time>2026-09-04T00:51:15.802Z</time>
      </trkpt>
      <trkpt lat="-18.703523" lon="138.485459">
        <ele>141.914929</ele>
        <time>2026-09-04T00:51:23.824Z</time>
      </trkpt>
      <trkpt lat="-18.703615" lon="138.485417">
        <ele>142.077429</ele>
        <time>2026-09-04T00:51:31.811Z</time>
      </trkpt>
      <trkpt lat="-18.703716" lon="138.485413">
        <ele>142.241288</ele>
        <time>2026-09-04T00:51:39.815Z</time>
      </trkpt>
      <trkpt lat="-18.703819" lon="138.485419">
        <ele>142.408529</ele>
        <time>2026-09-04T00:51:46.802Z</time>
      </trkpt>
      <trkpt lat="-18.703882" lon="138.485348">
        <ele>142.557925</ele>
        <time>2026-09-04T00:51:54.814Z</time>
      </trkpt>
      <trkpt lat="-18.703925" lon="138.485251">
        <ele>142.722385</ele>
        <time>2026-09-04T00:52:03.804Z</time>
      </trkpt>
      <trkpt lat="-18.703983" lon="138.485162">
        <ele>142.888277</ele>
        <time>2026-09-04T00:52:11.810Z</time>
      </trkpt>
      <trkpt lat="-18.704065" lon="138.485114">
        <ele>143.040285</ele>
        <time>2026-09-04T00:52:19.811Z</time>
      </trkpt>
      <trkpt lat="-18.704162" lon="138.485090">
        <ele>143.201804</ele>
        <time>2026-09-04T00:52:27.812Z</time>
      </trkpt>
      <trkpt lat="-18.704249" lon="138.485054">
        <ele>143.353298</ele>
        <time>2026-09-04T00:52:36.787Z</time>
      </trkpt>
      <trkpt lat="-18.704330" lon="138.485005">
        <ele>143.504647</ele>
        <time>2026-09-04T00:52:50.805Z</time>
      </trkpt>
      <trkpt lat="-18.704416" lon="138.484978">
        <ele>143.650107</ele>
        <time>2026-09-04T00:52:57.813Z</time>
      </trkpt>
      <trkpt lat="-18.704504" lon="138.484921">
        <ele>143.817485</ele>
        <time>2026-09-04T00:53:04.805Z</time>
      </trkpt>
      <trkpt lat="-18.704596" lon="138.484896">
        <ele>143.971499</ele>
        <time>2026-09-04T00:53:11.810Z</time>
      </trkpt>
      <trkpt lat="-18.704686" lon="138.484907">
        <ele>144.118384</ele>
        <time>2026-09-04T00:53:18.803Z</time>
      </trkpt>
      <trkpt lat="-18.704774" lon="138.484934">
        <ele>144.293606</ele>
        <time>2026-09-04T00:53:25.805Z</time>
      </trkpt>
      <trkpt lat="-18.704869" lon="138.484938">
        <ele>144.503210</ele>
        <time>2026-09-04T00:53:32.788Z</time>
      </trkpt>
      <trkpt lat="-18.704961" lon="138.484933">
        <ele>144.706303</ele>
        <time>2026-09-04T00:53:39.800Z</time>
      </trkpt>
      <trkpt lat="-18.705061" lon="138.484936">
        <ele>144.926853</ele>
        <time>2026-09-04T00:53:47.810Z</time>
      </trkpt>
      <trkpt lat="-18.705156" lon="138.484963">
        <ele>145.143747</ele>
        <time>2026-09-04T00:53:54.801Z</time>
      </trkpt>
      <trkpt lat="-18.705243" lon="138.485000">
        <ele>145.350525</ele>
        <time>2026-09-04T00:54:01.812Z</time>
      </trkpt>
      <trkpt lat="-18.705344" lon="138.485016">
        <ele>145.575683</ele>
        <time>2026-09-04T00:54:09.802Z</time>
      </trkpt>
      <trkpt lat="-18.705438" lon="138.485016">
        <ele>145.782916</ele>
        <time>2026-09-04T00:54:16.825Z</time>
      </trkpt>
      <trkpt lat="-18.705528" lon="138.485014">
        <ele>145.981375</ele>
        <time>2026-09-04T00:54:23.811Z</time>
      </trkpt>
      <trkpt lat="-18.705621" lon="138.485019">
        <ele>146.186669</ele>
        <time>2026-09-04T00:54:30.815Z</time>
      </trkpt>
      <trkpt lat="-18.705714" lon="138.485019">
        <ele>146.391698</ele>
        <time>2026-09-04T00:54:37.810Z</time>
      </trkpt>
      <trkpt lat="-18.705810" lon="138.485024">
        <ele>146.603598</ele>
        <time>2026-09-04T00:54:44.803Z</time>
      </trkpt>
      <trkpt lat="-18.705903" lon="138.485028">
        <ele>146.808797</ele>
        <time>2026-09-04T00:54:51.817Z</time>
      </trkpt>
      <trkpt lat="-18.705993" lon="138.485017">
        <ele>147.008536</ele>
        <time>2026-09-04T00:54:58.801Z</time>
      </trkpt>
      <trkpt lat="-18.706078" lon="138.484986">
        <ele>147.206794</ele>
        <time>2026-09-04T00:55:05.811Z</time>
      </trkpt>
      <trkpt lat="-18.706158" lon="138.484932">
        <ele>147.416128</ele>
        <time>2026-09-04T00:55:12.805Z</time>
      </trkpt>
      <trkpt lat="-18.706231" lon="138.484868">
        <ele>147.625319</ele>
        <time>2026-09-04T00:55:19.816Z</time>
      </trkpt>
      <trkpt lat="-18.706311" lon="138.484812">
        <ele>147.836932</ele>
        <time>2026-09-04T00:55:26.796Z</time>
      </trkpt>
      <trkpt lat="-18.706368" lon="138.484727">
        <ele>148.054405</ele>
        <time>2026-09-04T00:55:33.791Z</time>
      </trkpt>
      <trkpt lat="-18.706409" lon="138.484639">
        <ele>148.257059</ele>
        <time>2026-09-04T00:55:40.799Z</time>
      </trkpt>
      <trkpt lat="-18.706464" lon="138.484559">
        <ele>148.459123</ele>
        <time>2026-09-04T00:55:47.812Z</time>
      </trkpt>
      <trkpt lat="-18.706506" lon="138.484466">
        <ele>148.669726</ele>
        <time>2026-09-04T00:55:54.803Z</time>
      </trkpt>
      <trkpt lat="-18.706555" lon="138.484377">
        <ele>148.880151</ele>
        <time>2026-09-04T00:56:01.814Z</time>
      </trkpt>
      <trkpt lat="-18.706625" lon="138.484305">
        <ele>149.091057</ele>
        <time>2026-09-04T00:56:08.807Z</time>
      </trkpt>
      <trkpt lat="-18.706696" lon="138.484239">
        <ele>149.295210</ele>
        <time>2026-09-04T00:56:16.796Z</time>
      </trkpt>
      <trkpt lat="-18.706780" lon="138.484275">
        <ele>149.490857</ele>
        <time>2026-09-04T00:56:25.807Z</time>
      </trkpt>
      <trkpt lat="-18.706872" lon="138.484315">
        <ele>149.705578</ele>
        <time>2026-09-04T00:57:51.814Z</time>
      </trkpt>
      <trkpt lat="-18.706974" lon="138.484316">
        <ele>149.925713</ele>
        <time>2026-09-04T00:58:01.807Z</time>
      </trkpt>
      <trkpt lat="-18.707075" lon="138.484315">
        <ele>150.143690</ele>
        <time>2026-09-04T00:58:09.823Z</time>
      </trkpt>
      <trkpt lat="-18.707161" lon="138.484278">
        <ele>150.344104</ele>
        <time>2026-09-04T00:58:16.801Z</time>
      </trkpt>
      <trkpt lat="-18.707251" lon="138.484258">
        <ele>150.542589</ele>
        <time>2026-09-04T00:58:23.811Z</time>
      </trkpt>
      <trkpt lat="-18.707342" lon="138.484283">
        <ele>150.745515</ele>
        <time>2026-09-04T00:58:30.801Z</time>
      </trkpt>
      <trkpt lat="-18.707441" lon="138.484271">
        <ele>150.960570</ele>
        <time>2026-09-04T00:58:37.802Z</time>
      </trkpt>
      <trkpt lat="-18.707535" lon="138.484231">
        <ele>151.179288</ele>
        <time>2026-09-04T00:58:44.808Z</time>
      </trkpt>
      <trkpt lat="-18.707631" lon="138.484203">
        <ele>151.394225</ele>
        <time>2026-09-04T00:58:51.802Z</time>
      </trkpt>
      <trkpt lat="-18.707721" lon="138.484157">
        <ele>151.610017</ele>
        <time>2026-09-04T00:58:58.823Z</time>
      </trkpt>
      <trkpt lat="-18.707808" lon="138.484100">
        <ele>151.830984</ele>
        <time>2026-09-04T00:59:05.804Z</time>
      </trkpt>
      <trkpt lat="-18.707899" lon="138.484062">
        <ele>152.038956</ele>
        <time>2026-09-04T00:59:12.819Z</time>
      </trkpt>
      <trkpt lat="-18.707980" lon="138.484007">
        <ele>151.960817</ele>
        <time>2026-09-04T00:59:19.816Z</time>
      </trkpt>
      <trkpt lat="-18.708047" lon="138.483941">
        <ele>151.886468</ele>
        <time>2026-09-04T00:59:25.814Z</time>
      </trkpt>
      <trkpt lat="-18.708113" lon="138.483870">
        <ele>151.810016</ele>
        <time>2026-09-04T00:59:32.790Z</time>
      </trkpt>
      <trkpt lat="-18.708181" lon="138.483804">
        <ele>151.735072</ele>
        <time>2026-09-04T00:59:39.800Z</time>
      </trkpt>
      <trkpt lat="-18.708256" lon="138.483742">
        <ele>151.657785</ele>
        <time>2026-09-04T00:59:46.795Z</time>
      </trkpt>
      <trkpt lat="-18.708308" lon="138.483654">
        <ele>151.578075</ele>
        <time>2026-09-04T00:59:54.815Z</time>
      </trkpt>
      <trkpt lat="-18.708370" lon="138.483580">
        <ele>151.502150</ele>
        <time>2026-09-04T01:00:02.821Z</time>
      </trkpt>
      <trkpt lat="-18.708425" lon="138.483505">
        <ele>151.429256</ele>
        <time>2026-09-04T01:00:10.804Z</time>
      </trkpt>
      <trkpt lat="-18.708500" lon="138.483424">
        <ele>151.342205</ele>
        <time>2026-09-04T01:07:43.813Z</time>
      </trkpt>
      <trkpt lat="-18.708508" lon="138.483321">
        <ele>151.262784</ele>
        <time>2026-09-04T01:07:55.818Z</time>
      </trkpt>
      <trkpt lat="-18.708513" lon="138.483217">
        <ele>151.182758</ele>
        <time>2026-09-04T01:08:03.804Z</time>
      </trkpt>
      <trkpt lat="-18.708542" lon="138.483117">
        <ele>151.102386</ele>
        <time>2026-09-04T01:08:10.808Z</time>
      </trkpt>
      <trkpt lat="-18.708578" lon="138.483028">
        <ele>151.028014</ele>
        <time>2026-09-04T01:08:17.819Z</time>
      </trkpt>
      <trkpt lat="-18.708496" lon="138.482984">
        <ele>150.953382</ele>
        <time>2026-09-04T01:08:26.804Z</time>
      </trkpt>
      <trkpt lat="-18.708442" lon="138.482901">
        <ele>150.875999</ele>
        <time>2026-09-04T01:08:36.805Z</time>
      </trkpt>
      <trkpt lat="-18.708395" lon="138.482809">
        <ele>150.795668</ele>
        <time>2026-09-04T01:08:44.799Z</time>
      </trkpt>
      <trkpt lat="-18.708383" lon="138.482712">
        <ele>150.720491</ele>
        <time>2026-09-04T01:08:53.809Z</time>
      </trkpt>
      <trkpt lat="-18.708302" lon="138.482662">
        <ele>150.644361</ele>
        <time>2026-09-04T01:10:48.791Z</time>
      </trkpt>
      <trkpt lat="-18.708264" lon="138.482573">
        <ele>150.592527</ele>
        <time>2026-09-04T01:11:23.812Z</time>
      </trkpt>
      <trkpt lat="-18.708354" lon="138.482557">
        <ele>150.672675</ele>
        <time>2026-09-04T01:12:38.806Z</time>
      </trkpt>
      <trkpt lat="-18.708328" lon="138.482652">
        <ele>150.754926</ele>
        <time>2026-09-04T01:13:03.803Z</time>
      </trkpt>
      <trkpt lat="-18.708402" lon="138.482586">
        <ele>150.839994</ele>
        <time>2026-09-04T01:13:46.806Z</time>
      </trkpt>
      <trkpt lat="-18.708361" lon="138.482500">
        <ele>150.920077</ele>
        <time>2026-09-04T01:14:39.800Z</time>
      </trkpt>
      <trkpt lat="-18.708320" lon="138.482408">
        <ele>151.004647</ele>
        <time>2026-09-04T01:15:09.799Z</time>
      </trkpt>
      <trkpt lat="-18.708304" lon="138.482300">
        <ele>151.095571</ele>
        <time>2026-09-04T01:15:59.814Z</time>
      </trkpt>
      <trkpt lat="-18.708404" lon="138.482298">
        <ele>151.183404</ele>
        <time>2026-09-04T01:16:10.802Z</time>
      </trkpt>
      <trkpt lat="-18.708488" lon="138.482349">
        <ele>151.268497</ele>
        <time>2026-09-04T02:09:32.788Z</time>
      </trkpt>
      <trkpt lat="-18.708528" lon="138.482441">
        <ele>151.352697</ele>
        <time>2026-09-04T02:49:40.786Z</time>
      </trkpt>
      <trkpt lat="-18.708606" lon="138.482496">
        <ele>151.435067</ele>
        <time>2026-09-04T02:49:51.783Z</time>
      </trkpt>
      <trkpt lat="-18.708589" lon="138.482593">
        <ele>151.517118</ele>
        <time>2026-09-04T02:50:17.789Z</time>
      </trkpt>
      <trkpt lat="-18.708559" lon="138.482687">
        <ele>151.599623</ele>
        <time>2026-09-04T02:50:51.795Z</time>
      </trkpt>
      <trkpt lat="-18.708551" lon="138.482806">
        <ele>151.698853</ele>
        <time>2026-09-04T02:52:09.791Z</time>
      </trkpt>
      <trkpt lat="-18.708547" lon="138.482902">
        <ele>151.778780</ele>
        <time>2026-09-04T02:52:23.786Z</time>
      </trkpt>
      <trkpt lat="-18.708462" lon="138.482953">
        <ele>151.864636</ele>
        <time>2026-09-04T02:52:35.790Z</time>
      </trkpt>
      <trkpt lat="-18.708536" lon="138.483013">
        <ele>151.946573</ele>
        <time>2026-09-04T02:52:53.780Z</time>
      </trkpt>
      <trkpt lat="-18.708541" lon="138.483118">
        <ele>152.034019</ele>
        <time>2026-09-04T02:53:06.779Z</time>
      </trkpt>
      <trkpt lat="-18.708513" lon="138.483215">
        <ele>152.118365</ele>
        <time>2026-09-04T02:53:14.785Z</time>
      </trkpt>
      <trkpt lat="-18.708513" lon="138.483315">
        <ele>152.017900</ele>
        <time>2026-09-04T02:53:22.784Z</time>
      </trkpt>
      <trkpt lat="-18.708542" lon="138.483414">
        <ele>151.723167</ele>
        <time>2026-09-04T02:53:33.794Z</time>
      </trkpt>
      <trkpt lat="-18.708469" lon="138.483474">
        <ele>151.445364</ele>
        <time>2026-09-04T02:53:41.801Z</time>
      </trkpt>
      <trkpt lat="-18.708404" lon="138.483546">
        <ele>151.162463</ele>
        <time>2026-09-04T02:53:51.795Z</time>
      </trkpt>
      <trkpt lat="-18.708343" lon="138.483620">
        <ele>150.883446</ele>
        <time>2026-09-04T02:54:02.791Z</time>
      </trkpt>
      <trkpt lat="-18.708282" lon="138.483699">
        <ele>150.593551</ele>
        <time>2026-09-04T02:54:10.796Z</time>
      </trkpt>
      <trkpt lat="-18.708229" lon="138.483783">
        <ele>150.306483</ele>
        <time>2026-09-04T02:54:18.784Z</time>
      </trkpt>
      <trkpt lat="-18.708152" lon="138.483832">
        <ele>150.036510</ele>
        <time>2026-09-04T02:54:25.787Z</time>
      </trkpt>
      <trkpt lat="-18.708078" lon="138.483898">
        <ele>149.745622</ele>
        <time>2026-09-04T02:54:32.784Z</time>
      </trkpt>
      <trkpt lat="-18.708014" lon="138.483971">
        <ele>149.462703</ele>
        <time>2026-09-04T02:54:39.780Z</time>
      </trkpt>
      <trkpt lat="-18.707934" lon="138.484035">
        <ele>149.161299</ele>
        <time>2026-09-04T02:54:46.795Z</time>
      </trkpt>
      <trkpt lat="-18.707857" lon="138.484087">
        <ele>148.886824</ele>
        <time>2026-09-04T02:54:53.779Z</time>
      </trkpt>
      <trkpt lat="-18.707771" lon="138.484136">
        <ele>148.593373</ele>
        <time>2026-09-04T02:55:01.792Z</time>
      </trkpt>
      <trkpt lat="-18.707679" lon="138.484184">
        <ele>148.285218</ele>
        <time>2026-09-04T02:55:08.784Z</time>
      </trkpt>
      <trkpt lat="-18.707583" lon="138.484219">
        <ele>147.980240</ele>
        <time>2026-09-04T02:55:15.799Z</time>
      </trkpt>
      <trkpt lat="-18.707490" lon="138.484248">
        <ele>147.689049</ele>
        <time>2026-09-04T02:55:22.782Z</time>
      </trkpt>
      <trkpt lat="-18.707397" lon="138.484288">
        <ele>147.387499</ele>
        <time>2026-09-04T02:55:29.787Z</time>
      </trkpt>
      <trkpt lat="-18.707299" lon="138.484280">
        <ele>147.092340</ele>
        <time>2026-09-04T02:55:36.796Z</time>
      </trkpt>
      <trkpt lat="-18.707204" lon="138.484284">
        <ele>146.806842</ele>
        <time>2026-09-04T02:55:43.799Z</time>
      </trkpt>
      <trkpt lat="-18.707104" lon="138.484313">
        <ele>146.638104</ele>
        <time>2026-09-04T02:55:50.785Z</time>
      </trkpt>
      <trkpt lat="-18.707003" lon="138.484338">
        <ele>146.495265</ele>
        <time>2026-09-04T02:55:57.778Z</time>
      </trkpt>
      <trkpt lat="-18.706906" lon="138.484325">
        <ele>146.360632</ele>
        <time>2026-09-04T02:56:04.776Z</time>
      </trkpt>
      <trkpt lat="-18.706807" lon="138.484313">
        <ele>146.223422</ele>
        <time>2026-09-04T02:56:11.807Z</time>
      </trkpt>
      <trkpt lat="-18.706725" lon="138.484268">
        <ele>146.096173</ele>
        <time>2026-09-04T02:56:18.791Z</time>
      </trkpt>
      <trkpt lat="-18.706631" lon="138.484310">
        <ele>145.955630</ele>
        <time>2026-09-04T02:56:26.787Z</time>
      </trkpt>
      <trkpt lat="-18.706563" lon="138.484375">
        <ele>145.829325</ele>
        <time>2026-09-04T02:56:32.785Z</time>
      </trkpt>
      <trkpt lat="-18.706491" lon="138.484440">
        <ele>145.698886</ele>
        <time>2026-09-04T02:56:39.786Z</time>
      </trkpt>
      <trkpt lat="-18.706452" lon="138.484539">
        <ele>145.559050</ele>
        <time>2026-09-04T02:57:30.781Z</time>
      </trkpt>
      <trkpt lat="-18.706409" lon="138.484629">
        <ele>145.427586</ele>
        <time>2026-09-04T02:57:40.790Z</time>
      </trkpt>
      <trkpt lat="-18.706361" lon="138.484718">
        <ele>145.294017</ele>
        <time>2026-09-04T02:57:48.789Z</time>
      </trkpt>
      <trkpt lat="-18.706310" lon="138.484800">
        <ele>145.166079</ele>
        <time>2026-09-04T02:57:56.789Z</time>
      </trkpt>
      <trkpt lat="-18.706234" lon="138.484875">
        <ele>145.022838</ele>
        <time>2026-09-04T02:58:04.796Z</time>
      </trkpt>
      <trkpt lat="-18.706153" lon="138.484941">
        <ele>144.881955</ele>
        <time>2026-09-04T02:58:11.787Z</time>
      </trkpt>
      <trkpt lat="-18.706062" lon="138.484990">
        <ele>144.741300</ele>
        <time>2026-09-04T02:58:18.797Z</time>
      </trkpt>
      <trkpt lat="-18.705976" lon="138.485024">
        <ele>144.614855</ele>
        <time>2026-09-04T02:58:24.788Z</time>
      </trkpt>
      <trkpt lat="-18.705875" lon="138.485035">
        <ele>144.475049</ele>
        <time>2026-09-04T02:58:31.794Z</time>
      </trkpt>
      <trkpt lat="-18.705772" lon="138.485029">
        <ele>144.333011</ele>
        <time>2026-09-04T02:58:38.795Z</time>
      </trkpt>
      <trkpt lat="-18.705594" lon="138.485042">
        <ele>143.929177</ele>
        <time>2026-09-04T02:59:08.797Z</time>
      </trkpt>
      <trkpt lat="-18.705492" lon="138.485041">
        <ele>143.674816</ele>
        <time>2026-09-04T02:59:16.795Z</time>
      </trkpt>
      <trkpt lat="-18.705399" lon="138.485031">
        <ele>143.441710</ele>
        <time>2026-09-04T02:59:23.783Z</time>
      </trkpt>
      <trkpt lat="-18.705301" lon="138.485024">
        <ele>143.196776</ele>
        <time>2026-09-04T02:59:31.784Z</time>
      </trkpt>
      <trkpt lat="-18.705211" lon="138.484993">
        <ele>142.960708</ele>
        <time>2026-09-04T02:59:39.795Z</time>
      </trkpt>
      <trkpt lat="-18.705115" lon="138.484957">
        <ele>142.706667</ele>
        <time>2026-09-04T02:59:47.796Z</time>
      </trkpt>
      <trkpt lat="-18.705022" lon="138.484948">
        <ele>142.473788</ele>
        <time>2026-09-04T02:59:54.790Z</time>
      </trkpt>
      <trkpt lat="-18.704929" lon="138.484957">
        <ele>142.240909</ele>
        <time>2026-09-04T03:00:01.798Z</time>
      </trkpt>
      <trkpt lat="-18.704833" lon="138.484955">
        <ele>142.001475</ele>
        <time>2026-09-04T03:00:08.789Z</time>
      </trkpt>
      <trkpt lat="-18.704735" lon="138.484930">
        <ele>141.750067</ele>
        <time>2026-09-04T03:00:15.786Z</time>
      </trkpt>
      <trkpt lat="-18.704634" lon="138.484914">
        <ele>141.495391</ele>
        <time>2026-09-04T03:00:22.795Z</time>
      </trkpt>
      <trkpt lat="-18.704529" lon="138.484923">
        <ele>141.232699</ele>
        <time>2026-09-04T03:00:29.796Z</time>
      </trkpt>
      <trkpt lat="-18.704446" lon="138.484979">
        <ele>140.987074</ele>
        <time>2026-09-04T03:00:35.788Z</time>
      </trkpt>
      <trkpt lat="-18.704368" lon="138.485028">
        <ele>140.760743</ele>
        <time>2026-09-04T03:00:41.805Z</time>
      </trkpt>
      <trkpt lat="-18.704276" lon="138.485066">
        <ele>140.514398</ele>
        <time>2026-09-04T03:00:48.779Z</time>
      </trkpt>
      <trkpt lat="-18.704136" lon="138.485111">
        <ele>140.149469</ele>
        <time>2026-09-04T03:01:39.788Z</time>
      </trkpt>
      <trkpt lat="-18.704048" lon="138.485132">
        <ele>139.924495</ele>
        <time>2026-09-04T03:01:46.792Z</time>
      </trkpt>
      <trkpt lat="-18.703961" lon="138.485179">
        <ele>139.789927</ele>
        <time>2026-09-04T03:01:54.797Z</time>
      </trkpt>
      <trkpt lat="-18.703905" lon="138.485269">
        <ele>139.774028</ele>
        <time>2026-09-04T03:02:02.791Z</time>
      </trkpt>
      <trkpt lat="-18.703859" lon="138.485355">
        <ele>139.759445</ele>
        <time>2026-09-04T03:02:09.791Z</time>
      </trkpt>
      <trkpt lat="-18.703790" lon="138.485424">
        <ele>139.744630</ele>
        <time>2026-09-04T03:02:16.785Z</time>
      </trkpt>
      <trkpt lat="-18.703698" lon="138.485420">
        <ele>139.730276</ele>
        <time>2026-09-04T03:02:23.803Z</time>
      </trkpt>
      <trkpt lat="-18.703603" lon="138.485436">
        <ele>139.715280</ele>
        <time>2026-09-04T03:02:30.796Z</time>
      </trkpt>
      <trkpt lat="-18.703515" lon="138.485477">
        <ele>139.700286</ele>
        <time>2026-09-04T03:02:37.790Z</time>
      </trkpt>
      <trkpt lat="-18.703487" lon="138.485575">
        <ele>139.685172</ele>
        <time>2026-09-04T03:02:44.791Z</time>
      </trkpt>
      <trkpt lat="-18.703482" lon="138.485679">
        <ele>139.669796</ele>
        <time>2026-09-04T03:02:51.800Z</time>
      </trkpt>
      <trkpt lat="-18.703485" lon="138.485775">
        <ele>139.655614</ele>
        <time>2026-09-04T03:02:58.808Z</time>
      </trkpt>
      <trkpt lat="-18.703436" lon="138.485866">
        <ele>139.640158</ele>
        <time>2026-09-04T03:03:05.786Z</time>
      </trkpt>
      <trkpt lat="-18.703412" lon="138.485959">
        <ele>139.625926</ele>
        <time>2026-09-04T03:03:11.789Z</time>
      </trkpt>
      <trkpt lat="-18.703348" lon="138.486043">
        <ele>139.610009</ele>
        <time>2026-09-04T03:03:18.796Z</time>
      </trkpt>
      <trkpt lat="-18.703351" lon="138.486150">
        <ele>139.594203</ele>
        <time>2026-09-04T03:03:25.783Z</time>
      </trkpt>
      <trkpt lat="-18.703334" lon="138.486254">
        <ele>139.578620</ele>
        <time>2026-09-04T03:03:31.788Z</time>
      </trkpt>
      <trkpt lat="-18.703307" lon="138.486347">
        <ele>139.564258</ele>
        <time>2026-09-04T03:03:37.779Z</time>
      </trkpt>
      <trkpt lat="-18.703220" lon="138.486407">
        <ele>139.548059</ele>
        <time>2026-09-04T03:03:44.794Z</time>
      </trkpt>
      <trkpt lat="-18.703140" lon="138.486460">
        <ele>139.533336</ele>
        <time>2026-09-04T03:03:50.786Z</time>
      </trkpt>
      <trkpt lat="-18.703131" lon="138.486564">
        <ele>139.517916</ele>
        <time>2026-09-04T03:03:56.774Z</time>
      </trkpt>
      <trkpt lat="-18.703050" lon="138.486616">
        <ele>139.651785</ele>
        <time>2026-09-04T03:04:02.799Z</time>
      </trkpt>
      <trkpt lat="-18.702954" lon="138.486624">
        <ele>139.799825</ele>
        <time>2026-09-04T03:04:08.791Z</time>
      </trkpt>
      <trkpt lat="-18.702864" lon="138.486623">
        <ele>139.938189</ele>
        <time>2026-09-04T03:04:15.803Z</time>
      </trkpt>
      <trkpt lat="-18.702765" lon="138.486618">
        <ele>140.090555</ele>
        <time>2026-09-04T03:04:23.797Z</time>
      </trkpt>
      <trkpt lat="-18.702667" lon="138.486623">
        <ele>140.241385</ele>
        <time>2026-09-04T03:04:30.784Z</time>
      </trkpt>
      <trkpt lat="-18.702564" lon="138.486634">
        <ele>140.400535</ele>
        <time>2026-09-04T03:04:37.783Z</time>
      </trkpt>
      <trkpt lat="-18.702476" lon="138.486666">
        <ele>140.543616</ele>
        <time>2026-09-04T03:04:43.801Z</time>
      </trkpt>
      <trkpt lat="-18.702400" lon="138.486722">
        <ele>140.686092</ele>
        <time>2026-09-04T03:04:50.790Z</time>
      </trkpt>
      <trkpt lat="-18.702340" lon="138.486795">
        <ele>140.826829</ele>
        <time>2026-09-04T03:04:58.790Z</time>
      </trkpt>
      <trkpt lat="-18.702265" lon="138.486864">
        <ele>140.979761</ele>
        <time>2026-09-04T03:05:08.812Z</time>
      </trkpt>
      <trkpt lat="-18.702194" lon="138.486939">
        <ele>141.134162</ele>
        <time>2026-09-04T03:05:17.776Z</time>
      </trkpt>
      <trkpt lat="-18.702122" lon="138.487010">
        <ele>141.285620</ele>
        <time>2026-09-04T03:05:24.780Z</time>
      </trkpt>
      <trkpt lat="-18.702048" lon="138.487081">
        <ele>141.439340</ele>
        <time>2026-09-04T03:05:31.781Z</time>
      </trkpt>
      <trkpt lat="-18.701964" lon="138.487135">
        <ele>141.590529</ele>
        <time>2026-09-04T03:05:38.780Z</time>
      </trkpt>
      <trkpt lat="-18.701879" lon="138.487192">
        <ele>141.745330</ele>
        <time>2026-09-04T03:05:45.786Z</time>
      </trkpt>
      <trkpt lat="-18.701797" lon="138.487245">
        <ele>141.893136</ele>
        <time>2026-09-04T03:05:52.786Z</time>
      </trkpt>
      <trkpt lat="-18.701719" lon="138.487308">
        <ele>142.044111</ele>
        <time>2026-09-04T03:05:59.780Z</time>
      </trkpt>
      <trkpt lat="-18.701629" lon="138.487289">
        <ele>142.185207</ele>
        <time>2026-09-04T03:06:06.777Z</time>
      </trkpt>
      <trkpt lat="-18.701549" lon="138.487233">
        <ele>142.281866</ele>
        <time>2026-09-04T03:06:13.790Z</time>
      </trkpt>
      <trkpt lat="-18.701448" lon="138.487220">
        <ele>142.281866</ele>
        <time>2026-09-04T03:06:20.782Z</time>
      </trkpt>
      <trkpt lat="-18.701353" lon="138.487238">
        <ele>142.281866</ele>
        <time>2026-09-04T03:06:27.779Z</time>
      </trkpt>
      <trkpt lat="-18.701308" lon="138.487322">
        <ele>142.281866</ele>
        <time>2026-09-04T03:06:34.779Z</time>
      </trkpt>
      <trkpt lat="-18.701321" lon="138.487428">
        <ele>142.281866</ele>
        <time>2026-09-04T03:06:42.778Z</time>
      </trkpt>
      <trkpt lat="-18.701348" lon="138.487521">
        <ele>142.281866</ele>
        <time>2026-09-04T03:06:49.786Z</time>
      </trkpt>
      <trkpt lat="-18.701368" lon="138.487616">
        <ele>142.281866</ele>
        <time>2026-09-04T03:06:57.784Z</time>
      </trkpt>
      <trkpt lat="-18.701251" lon="138.487605">
        <ele>142.281866</ele>
        <time>2026-09-04T03:12:23.783Z</time>
      </trkpt>
      <trkpt lat="-18.701158" lon="138.487562">
        <ele>142.281866</ele>
        <time>2026-09-04T03:12:32.792Z</time>
      </trkpt>
      <trkpt lat="-18.701065" lon="138.487524">
        <ele>142.281866</ele>
        <time>2026-09-04T03:12:40.786Z</time>
      </trkpt>
      <trkpt lat="-18.700968" lon="138.487506">
        <ele>142.281866</ele>
        <time>2026-09-04T03:12:48.784Z</time>
      </trkpt>
      <trkpt lat="-18.700875" lon="138.487479">
        <ele>142.281866</ele>
        <time>2026-09-04T03:12:57.800Z</time>
      </trkpt>
      <trkpt lat="-18.700804" lon="138.487410">
        <ele>142.281866</ele>
        <time>2026-09-04T03:13:07.791Z</time>
      </trkpt>
      <trkpt lat="-18.700709" lon="138.487392">
        <ele>142.281866</ele>
        <time>2026-09-04T03:13:19.794Z</time>
      </trkpt>
    </trkseg>
  </trk>
</gpx>