<?xml version='1.0' encoding='UTF-8' standalone='yes' ?>
<gpx xmlns="http://www.topografix.com/GPX/1/1" xmlns:geotracker="http://ilyabogdanovich.com/gpx/extensions/geotracker" xmlns:xsi="http://www.w3.org/2001/XMLSchema-instance" xsi:schemaLocation="http://www.topografix.com/GPX/1/1 http://www.topografix.com/GPX/1/1/gpx.xsd" version="1.1" creator="Recorded in Geo Tracker for Android from Ilya Bogdanovich">
  <metadata>
    <name>Pentecoste</name>
    <author>
      <name>Recorded in Geo Tracker for Android from Ilya Bogdanovich</name>
      <link href="https://play.google.com/store/apps/details?id=com.ilyabogdanovich.geotracker" />
    </author>
    <link href="https://play.google.com/store/apps/details?id=com.ilyabogdanovich.geotracker" />
    <time>2026-09-15T23:29:58Z</time>
  </metadata>
  <wpt lat="-16.01483233" lon="127.97704783">
    <ele>150.7</ele>
    <time>2026-09-15T23:38:12Z</time>
    <name>Stop for ~5 min</name>
    <desc>Elevation: 151 m
Time from start: 00:08:13
Distance from start: 355 m</desc>
    <extensions>
      <geotracker:meta emoji="⏱️" />
    </extensions>
  </wpt>
  <wpt lat="-16.0209837" lon="127.97728067">
    <ele>153.1</ele>
    <time>2026-09-15T23:56:13Z</time>
    <name>Stop for ~4 min</name>
    <desc>Elevation: 153 m
Time from start: 00:26:14
Distance from start: 1.1 km</desc>
    <extensions>
      <geotracker:meta emoji="⏱️" />
    </extensions>
  </wpt>
  <wpt lat="-16.0329447" lon="127.97705919">
    <ele>167.37</ele>
    <time>2026-09-16T00:36:12Z</time>
    <name>Stop for ~2 min</name>
    <desc>Elevation: 167 m
Time from start: 01:06:13
Distance from start: 2.75 km</desc>
    <extensions>
      <geotracker:meta emoji="⏱️" />
    </extensions>
  </wpt>
  <wpt lat="-16.03135157" lon="127.97103741">
    <ele>198.4</ele>
    <time>2026-09-16T00:51:57Z</time>
    <name>Stop for ~9 min</name>
    <desc>Elevation: 198 m
Time from start: 01:21:58
Distance from start: 3.45 km</desc>
    <extensions>
      <geotracker:meta emoji="⏱️" />
    </extensions>
  </wpt>
  <wpt lat="-16.03064342" lon="127.96589296">
    <ele>202</ele>
    <time>2026-09-16T01:07:04Z</time>
    <name>Stop for ~34 min</name>
    <desc>Elevation: 202 m
Time from start: 01:37:05
Distance from start: 4.01 km</desc>
    <extensions>
      <geotracker:meta emoji="⏱️" />
    </extensions>
  </wpt>
  <wpt lat="-16.03175525" lon="127.96487868">
    <ele>213.7</ele>
    <time>2026-09-16T01:57:26Z</time>
    <name>Stop for ~1 h 36 min</name>
    <desc>Elevation: 214 m
Time from start: 02:27:27
Distance from start: 4.27 km</desc>
    <extensions>
      <geotracker:meta emoji="⏱️" />
    </extensions>
  </wpt>
  <wpt lat="-16.00816171" lon="127.98063216">
    <ele>141.7</ele>
    <time>2026-09-16T04:49:24Z</time>
    <name>Stop for ~11 min</name>
    <desc>Elevation: 142 m
Time from start: 05:19:25
Distance from start: 9 km</desc>
    <extensions>
      <geotracker:meta emoji="⏱️" />
    </extensions>
  </wpt>
  <trk>
    <name>Pentecoste</name>
    <src>Recorded in Geo Tracker for Android from Ilya Bogdanovich</src>
    <link href="https://play.google.com/store/apps/details?id=com.ilyabogdanovich.geotracker" />
    <extensions>
      <geotracker:meta>
        <geotracker:length>33221.7</geotracker:length>
        <geotracker:duration>33209195</geotracker:duration>
        <geotracker:creationtime>2026-09-15T23:29:58Z</geotracker:creationtime>
        <geotracker:activity>0</geotracker:activity>
      </geotracker:meta>
    </extensions>
    <trkseg>
      <trkpt lat="-16.01250833" lon="127.97890996">
        <ele>152.06</ele>
        <time>2026-09-15T23:31:05Z</time>
        <extensions>
          <geotracker:meta c="3.52" s="1.39" />
        </extensions>
      </trkpt>
      <trkpt lat="-16.0128843" lon="127.97853955">
        <ele>151.44</ele>
        <time>2026-09-15T23:31:45Z</time>
        <extensions>
          <geotracker:meta c="3.42" s="1.48" />
        </extensions>
      </trkpt>
      <trkpt lat="-16.01330985" lon="127.9783294">
        <ele>149.04</ele>
        <time>2026-09-15T23:32:24Z</time>
        <extensions>
          <geotracker:meta c="4.06" s="1.46" />
        </extensions>
      </trkpt>
      <trkpt lat="-16.01364323" lon="127.97800564">
        <ele>148.67</ele>
        <time>2026-09-15T23:33:01Z</time>
        <extensions>
          <geotracker:meta c="3.71" s="1.44" />
        </extensions>
      </trkpt>
      <trkpt lat="-16.01405213" lon="127.97762901">
        <ele>149.49</ele>
        <time>2026-09-15T23:33:46Z</time>
        <extensions>
          <geotracker:meta c="3.9" s="1.4" />
        </extensions>
      </trkpt>
      <trkpt lat="-16.01447515" lon="127.97735455">
        <ele>149.79</ele>
        <time>2026-09-15T23:34:50Z</time>
        <extensions>
          <geotracker:meta c="3.72" s="1.45" />
        </extensions>
      </trkpt>
      <trkpt lat="-16.01492638" lon="127.97730143">
        <ele>147.62</ele>
        <time>2026-09-15T23:35:35Z</time>
        <extensions>
          <geotracker:meta c="1.97" s="0.91" />
        </extensions>
      </trkpt>
      <trkpt lat="-16.01483233" lon="127.97704783">
        <ele>150.7</ele>
        <time>2026-09-15T23:38:12Z</time>
        <extensions>
          <geotracker:meta c="0.51" s="0.61" />
        </extensions>
      </trkpt>
      <trkpt lat="-16.01511797" lon="127.97724754">
        <ele>151.06</ele>
        <time>2026-09-15T23:41:04Z</time>
        <extensions>
          <geotracker:meta c="3.43" s="1" />
        </extensions>
      </trkpt>
      <trkpt lat="-16.01553852" lon="127.97697984">
        <ele>151.28</ele>
        <time>2026-09-15T23:42:27Z</time>
        <extensions>
          <geotracker:meta c="2.89" s="1.05" />
        </extensions>
      </trkpt>
      <trkpt lat="-16.01603786" lon="127.97684257">
        <ele>151.24</ele>
        <time>2026-09-15T23:43:12Z</time>
        <extensions>
          <geotracker:meta c="3.12" s="0.94" />
        </extensions>
      </trkpt>
      <trkpt lat="-16.0165641" lon="127.97666316">
        <ele>151.74</ele>
        <time>2026-09-15T23:44:06Z</time>
        <extensions>
          <geotracker:meta c="3.17" s="1.55" />
        </extensions>
      </trkpt>
      <trkpt lat="-16.01711124" lon="127.97660269">
        <ele>152.16</ele>
        <time>2026-09-15T23:44:51Z</time>
        <extensions>
          <geotracker:meta c="2.85" s="1.37" />
        </extensions>
      </trkpt>
      <trkpt lat="-16.01756574" lon="127.97660566">
        <ele>151.81</ele>
        <time>2026-09-15T23:45:27Z</time>
        <extensions>
          <geotracker:meta c="3.13" s="1.41" />
        </extensions>
      </trkpt>
      <trkpt lat="-16.01806526" lon="127.97660169">
        <ele>151.34</ele>
        <time>2026-09-15T23:46:12Z</time>
        <extensions>
          <geotracker:meta c="3.35" s="0.92" />
        </extensions>
      </trkpt>
      <trkpt lat="-16.01850247" lon="127.97672186">
        <ele>149.27</ele>
        <time>2026-09-15T23:47:04Z</time>
        <extensions>
          <geotracker:meta c="2.56" s="1.31" />
        </extensions>
      </trkpt>
      <trkpt lat="-16.01892315" lon="127.97689547">
        <ele>149.99</ele>
        <time>2026-09-15T23:47:58Z</time>
        <extensions>
          <geotracker:meta c="2.7" s="0.78" />
        </extensions>
      </trkpt>
      <trkpt lat="-16.01938326" lon="127.97707722">
        <ele>149.19</ele>
        <time>2026-09-15T23:49:01Z</time>
        <extensions>
          <geotracker:meta c="2.61" s="1.08" />
        </extensions>
      </trkpt>
      <trkpt lat="-16.01985529" lon="127.97708787">
        <ele>157.59</ele>
        <time>2026-09-15T23:50:31Z</time>
        <extensions>
          <geotracker:meta c="3.74" s="0.81" />
        </extensions>
      </trkpt>
      <trkpt lat="-16.02036101" lon="127.97700099">
        <ele>153.17</ele>
        <time>2026-09-15T23:52:28Z</time>
        <extensions>
          <geotracker:meta c="4.16" s="1.07" />
        </extensions>
      </trkpt>
      <trkpt lat="-16.02077911" lon="127.97684608">
        <ele>154.47</ele>
        <time>2026-09-15T23:54:34Z</time>
        <extensions>
          <geotracker:meta c="2.38" s="0.81" />
        </extensions>
      </trkpt>
      <trkpt lat="-16.0209837" lon="127.97728067">
        <ele>153.1</ele>
        <time>2026-09-15T23:56:13Z</time>
        <extensions>
          <geotracker:meta c="0.57" s="0.53" />
        </extensions>
      </trkpt>
      <trkpt lat="-16.02121565" lon="127.97782209">
        <ele>152.55</ele>
        <time>2026-09-15T23:59:04Z</time>
        <extensions>
          <geotracker:meta c="2.44" s="0.72" />
        </extensions>
      </trkpt>
      <trkpt lat="-16.02171676" lon="127.97790527">
        <ele>153.54</ele>
        <time>2026-09-16T00:00:07Z</time>
        <extensions>
          <geotracker:meta c="3.9" s="0.35" />
        </extensions>
      </trkpt>
      <trkpt lat="-16.02222045" lon="127.97803112">
        <ele>152.63</ele>
        <time>2026-09-16T00:02:13Z</time>
        <extensions>
          <geotracker:meta c="2.97" s="1.2" />
        </extensions>
      </trkpt>
      <trkpt lat="-16.02267283" lon="127.97821046">
        <ele>153.34</ele>
        <time>2026-09-16T00:03:42Z</time>
        <extensions>
          <geotracker:meta c="2.52" s="0.69" />
        </extensions>
      </trkpt>
      <trkpt lat="-16.02313105" lon="127.97834518">
        <ele>151.47</ele>
        <time>2026-09-16T00:05:12Z</time>
        <extensions>
          <geotracker:meta c="2.13" s="0.59" />
        </extensions>
      </trkpt>
      <trkpt lat="-16.0235924" lon="127.97857108">
        <ele>155.09</ele>
        <time>2026-09-16T00:06:24Z</time>
        <extensions>
          <geotracker:meta c="2.63" s="1.07" />
        </extensions>
      </trkpt>
      <trkpt lat="-16.02407292" lon="127.97872543">
        <ele>152.12</ele>
        <time>2026-09-16T00:07:09Z</time>
        <extensions>
          <geotracker:meta c="2.99" s="1.14" />
        </extensions>
      </trkpt>
      <trkpt lat="-16.02453807" lon="127.97887729">
        <ele>153.78</ele>
        <time>2026-09-16T00:07:54Z</time>
        <extensions>
          <geotracker:meta c="2.75" s="1.16" />
        </extensions>
      </trkpt>
      <trkpt lat="-16.02501197" lon="127.97897409">
        <ele>154.57</ele>
        <time>2026-09-16T00:08:48Z</time>
        <extensions>
          <geotracker:meta c="3.32" s="1.04" />
        </extensions>
      </trkpt>
      <trkpt lat="-16.02546973" lon="127.97911476">
        <ele>152.97</ele>
        <time>2026-09-16T00:10:54Z</time>
        <extensions>
          <geotracker:meta c="1.7" s="2.63" />
        </extensions>
      </trkpt>
      <trkpt lat="-16.02595626" lon="127.97928054">
        <ele>153.64</ele>
        <time>2026-09-16T00:12:15Z</time>
        <extensions>
          <geotracker:meta c="2.26" s="1.1" />
        </extensions>
      </trkpt>
      <trkpt lat="-16.02638449" lon="127.97952924">
        <ele>155.46</ele>
        <time>2026-09-16T00:13:18Z</time>
        <extensions>
          <geotracker:meta c="2.39" s="1.03" />
        </extensions>
      </trkpt>
      <trkpt lat="-16.02692389" lon="127.9797775">
        <ele>156.44</ele>
        <time>2026-09-16T00:14:30Z</time>
        <extensions>
          <geotracker:meta c="2.5" s="1.34" />
        </extensions>
      </trkpt>
      <trkpt lat="-16.02738819" lon="127.98017421">
        <ele>155.51</ele>
        <time>2026-09-16T00:16:00Z</time>
        <extensions>
          <geotracker:meta c="2.56" s="1.22" />
        </extensions>
      </trkpt>
      <trkpt lat="-16.02782198" lon="127.98037185">
        <ele>157.65</ele>
        <time>2026-09-16T00:16:45Z</time>
        <extensions>
          <geotracker:meta c="2.69" s="1.13" />
        </extensions>
      </trkpt>
      <trkpt lat="-16.02835576" lon="127.98044446">
        <ele>158.17</ele>
        <time>2026-09-16T00:17:48Z</time>
        <extensions>
          <geotracker:meta c="2.94" s="0.91" />
        </extensions>
      </trkpt>
      <trkpt lat="-16.02876563" lon="127.98065017">
        <ele>155.71</ele>
        <time>2026-09-16T00:18:46Z</time>
        <extensions>
          <geotracker:meta c="2.82" s="1.04" />
        </extensions>
      </trkpt>
      <trkpt lat="-16.02926812" lon="127.98068466">
        <ele>157.7</ele>
        <time>2026-09-16T00:19:49Z</time>
        <extensions>
          <geotracker:meta c="3.08" s="0.85" />
        </extensions>
      </trkpt>
      <trkpt lat="-16.02972018" lon="127.98066561">
        <ele>161</ele>
        <time>2026-09-16T00:20:43Z</time>
        <extensions>
          <geotracker:meta c="3.45" s="1.35" />
        </extensions>
      </trkpt>
      <trkpt lat="-16.03025983" lon="127.98056369">
        <ele>162.97</ele>
        <time>2026-09-16T00:21:28Z</time>
        <extensions>
          <geotracker:meta c="3.71" s="1.27" />
        </extensions>
      </trkpt>
      <trkpt lat="-16.03060486" lon="127.98034265">
        <ele>159.37</ele>
        <time>2026-09-16T00:24:01Z</time>
        <extensions>
          <geotracker:meta c="3.65" s="1.6" />
        </extensions>
      </trkpt>
      <trkpt lat="-16.03102038" lon="127.98003362">
        <ele>160.27</ele>
        <time>2026-09-16T00:24:46Z</time>
        <extensions>
          <geotracker:meta c="3.08" s="1.21" />
        </extensions>
      </trkpt>
      <trkpt lat="-16.03146572" lon="127.97988122">
        <ele>158.87</ele>
        <time>2026-09-16T00:25:40Z</time>
        <extensions>
          <geotracker:meta c="3.37" s="1.1" />
        </extensions>
      </trkpt>
      <trkpt lat="-16.03189841" lon="127.97956028">
        <ele>160.4</ele>
        <time>2026-09-16T00:26:25Z</time>
        <extensions>
          <geotracker:meta c="4.2" s="0.93" />
        </extensions>
      </trkpt>
      <trkpt lat="-16.03183906" lon="127.97899729">
        <ele>161.53</ele>
        <time>2026-09-16T00:27:37Z</time>
        <extensions>
          <geotracker:meta c="4.89" s="1.24" />
        </extensions>
      </trkpt>
      <trkpt lat="-16.03190607" lon="127.97842008">
        <ele>165.98</ele>
        <time>2026-09-16T00:28:31Z</time>
        <extensions>
          <geotracker:meta c="4.52" s="0.89" />
        </extensions>
      </trkpt>
      <trkpt lat="-16.03214943" lon="127.97806786">
        <ele>164.08</ele>
        <time>2026-09-16T00:30:37Z</time>
        <extensions>
          <geotracker:meta c="3.81" s="1.31" />
        </extensions>
      </trkpt>
      <trkpt lat="-16.03240729" lon="127.97767676">
        <ele>167.06</ele>
        <time>2026-09-16T00:32:25Z</time>
        <extensions>
          <geotracker:meta c="5.55" s="0.89" />
        </extensions>
      </trkpt>
      <trkpt lat="-16.03262753" lon="127.97746615">
        <ele>168.63</ele>
        <time>2026-09-16T00:34:31Z</time>
        <extensions>
          <geotracker:meta c="2.73" s="1.89" />
        </extensions>
      </trkpt>
      <trkpt lat="-16.0329447" lon="127.97705919">
        <ele>167.37</ele>
        <time>2026-09-16T00:36:12Z</time>
        <extensions>
          <geotracker:meta c="3.66" s="0.97" />
        </extensions>
      </trkpt>
      <trkpt lat="-16.0330942" lon="127.97651991">
        <ele>167.85</ele>
        <time>2026-09-16T00:37:24Z</time>
        <extensions>
          <geotracker:meta c="4.87" s="0.97" />
        </extensions>
      </trkpt>
      <trkpt lat="-16.03303831" lon="127.97596936">
        <ele>174.11</ele>
        <time>2026-09-16T00:38:45Z</time>
        <extensions>
          <geotracker:meta c="4.8" s="1.35" />
        </extensions>
      </trkpt>
      <trkpt lat="-16.03293258" lon="127.97546598">
        <ele>175.57</ele>
        <time>2026-09-16T00:39:30Z</time>
        <extensions>
          <geotracker:meta c="4.94" s="1.09" />
        </extensions>
      </trkpt>
      <trkpt lat="-16.03291145" lon="127.97496002">
        <ele>177.54</ele>
        <time>2026-09-16T00:40:24Z</time>
        <extensions>
          <geotracker:meta c="4.52" s="1.02" />
        </extensions>
      </trkpt>
      <trkpt lat="-16.03284503" lon="127.97444749">
        <ele>177.35</ele>
        <time>2026-09-16T00:41:18Z</time>
        <extensions>
          <geotracker:meta c="5.32" s="1.07" />
        </extensions>
      </trkpt>
      <trkpt lat="-16.03246323" lon="127.97418275">
        <ele>179.24</ele>
        <time>2026-09-16T00:42:12Z</time>
        <extensions>
          <geotracker:meta c="5.54" s="1.2" />
        </extensions>
      </trkpt>
      <trkpt lat="-16.03212425" lon="127.97380446">
        <ele>185.63</ele>
        <time>2026-09-16T00:43:15Z</time>
        <extensions>
          <geotracker:meta c="5.01" s="0.96" />
        </extensions>
      </trkpt>
      <trkpt lat="-16.03206986" lon="127.97332652">
        <ele>189.03</ele>
        <time>2026-09-16T00:44:09Z</time>
        <extensions>
          <geotracker:meta c="4.66" s="1.25" />
        </extensions>
      </trkpt>
      <trkpt lat="-16.03184884" lon="127.9728536">
        <ele>190.73</ele>
        <time>2026-09-16T00:45:30Z</time>
        <extensions>
          <geotracker:meta c="5.49" s="0.98" />
        </extensions>
      </trkpt>
      <trkpt lat="-16.03165912" lon="127.972286">
        <ele>188.08</ele>
        <time>2026-09-16T00:46:33Z</time>
        <extensions>
          <geotracker:meta c="4.59" s="0.95" />
        </extensions>
      </trkpt>
      <trkpt lat="-16.03146449" lon="127.97178486">
        <ele>191.04</ele>
        <time>2026-09-16T00:47:36Z</time>
        <extensions>
          <geotracker:meta c="5.43" s="1.29" />
        </extensions>
      </trkpt>
      <trkpt lat="-16.03137084" lon="127.97130973">
        <ele>194.56</ele>
        <time>2026-09-16T00:48:21Z</time>
        <extensions>
          <geotracker:meta c="5.03" s="1.2" />
        </extensions>
      </trkpt>
      <trkpt lat="-16.03135157" lon="127.97103741">
        <ele>198.4</ele>
        <time>2026-09-16T00:51:57Z</time>
        <extensions>
          <geotracker:meta c="2.91" s="0.23" />
        </extensions>
      </trkpt>
      <trkpt lat="-16.03128082" lon="127.97059825">
        <ele>198.23</ele>
        <time>2026-09-16T00:58:13Z</time>
        <extensions>
          <geotracker:meta c="4.04" s="1.21" />
        </extensions>
      </trkpt>
      <trkpt lat="-16.03121969" lon="127.97002668">
        <ele>194.3</ele>
        <time>2026-09-16T00:59:34Z</time>
        <extensions>
          <geotracker:meta c="3.79" s="0.49" />
        </extensions>
      </trkpt>
      <trkpt lat="-16.0311703" lon="127.96955617">
        <ele>202.64</ele>
        <time>2026-09-16T01:01:13Z</time>
        <extensions>
          <geotracker:meta c="5.48" s="0.91" />
        </extensions>
      </trkpt>
      <trkpt lat="-16.03109233" lon="127.96902071">
        <ele>205.07</ele>
        <time>2026-09-16T01:02:07Z</time>
        <extensions>
          <geotracker:meta c="4.45" s="1.21" />
        </extensions>
      </trkpt>
      <trkpt lat="-16.03091549" lon="127.96854061">
        <ele>203.81</ele>
        <time>2026-09-16T01:02:52Z</time>
        <extensions>
          <geotracker:meta c="5.06" s="1.22" />
        </extensions>
      </trkpt>
      <trkpt lat="-16.03069995" lon="127.96804989">
        <ele>203.11</ele>
        <time>2026-09-16T01:03:37Z</time>
        <extensions>
          <geotracker:meta c="4.82" s="1.39" />
        </extensions>
      </trkpt>
      <trkpt lat="-16.03072812" lon="127.9675067">
        <ele>205.36</ele>
        <time>2026-09-16T01:04:22Z</time>
        <extensions>
          <geotracker:meta c="4.34" s="1.34" />
        </extensions>
      </trkpt>
      <trkpt lat="-16.03082674" lon="127.96700574">
        <ele>206.95</ele>
        <time>2026-09-16T01:05:16Z</time>
        <extensions>
          <geotracker:meta c="5" s="1.06" />
        </extensions>
      </trkpt>
      <trkpt lat="-16.0306636" lon="127.96654725">
        <ele>205.59</ele>
        <time>2026-09-16T01:06:01Z</time>
        <extensions>
          <geotracker:meta c="5.19" s="1.28" />
        </extensions>
      </trkpt>
      <trkpt lat="-16.03064342" lon="127.96589296">
        <ele>202</ele>
        <time>2026-09-16T01:07:04Z</time>
        <extensions>
          <geotracker:meta c="4.46" s="1.03" />
        </extensions>
      </trkpt>
      <trkpt lat="-16.03111993" lon="127.96566013">
        <ele>210.58</ele>
        <time>2026-09-16T01:40:42Z</time>
        <extensions>
          <geotracker:meta c="3.7" s="0.91" />
        </extensions>
      </trkpt>
      <trkpt lat="-16.03139061" lon="127.96526979">
        <ele>211.82</ele>
        <time>2026-09-16T01:41:59Z</time>
        <extensions>
          <geotracker:meta c="5.71" s="0.32" />
        </extensions>
      </trkpt>
      <trkpt lat="-16.03147084" lon="127.96550937">
        <ele>212.73</ele>
        <time>2026-09-16T01:44:05Z</time>
        <extensions>
          <geotracker:meta c="2.65" s="0.34" />
        </extensions>
      </trkpt>
      <trkpt lat="-16.03194714" lon="127.96549273">
        <ele>213.5</ele>
        <time>2026-09-16T01:45:26Z</time>
        <extensions>
          <geotracker:meta c="3.74" s="1.56" />
        </extensions>
      </trkpt>
      <trkpt lat="-16.03185628" lon="127.96497991">
        <ele>213.06</ele>
        <time>2026-09-16T01:46:29Z</time>
        <extensions>
          <geotracker:meta c="4.59" s="1.09" />
        </extensions>
      </trkpt>
      <trkpt lat="-16.03175525" lon="127.96487868">
        <ele>213.7</ele>
        <time>2026-09-16T01:57:26Z</time>
        <extensions>
          <geotracker:meta c="5.53" s="0.16" />
        </extensions>
      </trkpt>
      <trkpt lat="-16.03187778" lon="127.96507997">
        <ele>205.83</ele>
        <time>2026-09-16T03:22:48Z</time>
        <extensions>
          <geotracker:meta c="2.13" s="1.15" />
        </extensions>
      </trkpt>
      <trkpt lat="-16.03189842" lon="127.96555606">
        <ele>204.08</ele>
        <time>2026-09-16T03:23:35Z</time>
        <extensions>
          <geotracker:meta c="1.38" s="0.95" />
        </extensions>
      </trkpt>
      <trkpt lat="-16.03139847" lon="127.96570671">
        <ele>202.24</ele>
        <time>2026-09-16T03:24:29Z</time>
        <extensions>
          <geotracker:meta c="6.12" s="1.26" />
        </extensions>
      </trkpt>
      <trkpt lat="-16.03093916" lon="127.96577802">
        <ele>192.59</ele>
        <time>2026-09-16T03:25:41Z</time>
        <extensions>
          <geotracker:meta c="0.08" s="1.12" />
        </extensions>
      </trkpt>
      <trkpt lat="-16.03054485" lon="127.96603887">
        <ele>191.21</ele>
        <time>2026-09-16T03:26:44Z</time>
        <extensions>
          <geotracker:meta c="2.08" s="0.98" />
        </extensions>
      </trkpt>
      <trkpt lat="-16.030662" lon="127.96649142">
        <ele>197.08</ele>
        <time>2026-09-16T03:27:39Z</time>
        <extensions>
          <geotracker:meta c="1.62" s="1.07" />
        </extensions>
      </trkpt>
      <trkpt lat="-16.03080742" lon="127.96695025">
        <ele>199.82</ele>
        <time>2026-09-16T03:28:24Z</time>
        <extensions>
          <geotracker:meta c="2.06" s="1.32" />
        </extensions>
      </trkpt>
      <trkpt lat="-16.03071702" lon="127.96752235">
        <ele>194.59</ele>
        <time>2026-09-16T03:29:27Z</time>
        <extensions>
          <geotracker:meta c="1.17" s="1.5" />
        </extensions>
      </trkpt>
      <trkpt lat="-16.03068069" lon="127.96799158">
        <ele>193.79</ele>
        <time>2026-09-16T03:30:04Z</time>
        <extensions>
          <geotracker:meta c="1.55" s="1.34" />
        </extensions>
      </trkpt>
      <trkpt lat="-16.03089662" lon="127.96852165">
        <ele>194.93</ele>
        <time>2026-09-16T03:30:49Z</time>
        <extensions>
          <geotracker:meta c="1.94" s="1.19" />
        </extensions>
      </trkpt>
      <trkpt lat="-16.03107185" lon="127.9689849">
        <ele>191.98</ele>
        <time>2026-09-16T03:31:34Z</time>
        <extensions>
          <geotracker:meta c="1.63" s="1.55" />
        </extensions>
      </trkpt>
      <trkpt lat="-16.0311217" lon="127.96947874">
        <ele>189.69</ele>
        <time>2026-09-16T03:32:19Z</time>
        <extensions>
          <geotracker:meta c="1.61" s="1.28" />
        </extensions>
      </trkpt>
      <trkpt lat="-16.03120476" lon="127.97003785">
        <ele>182.34</ele>
        <time>2026-09-16T03:33:31Z</time>
        <extensions>
          <geotracker:meta c="2.05" s="2.06" />
        </extensions>
      </trkpt>
      <trkpt lat="-16.03129838" lon="127.97051774">
        <ele>187.77</ele>
        <time>2026-09-16T03:34:34Z</time>
        <extensions>
          <geotracker:meta c="1.4" s="1.11" />
        </extensions>
      </trkpt>
      <trkpt lat="-16.03131714" lon="127.97101373">
        <ele>186.24</ele>
        <time>2026-09-16T03:35:37Z</time>
        <extensions>
          <geotracker:meta c="1.69" s="0.99" />
        </extensions>
      </trkpt>
      <trkpt lat="-16.03143086" lon="127.97154795">
        <ele>180.99</ele>
        <time>2026-09-16T03:36:31Z</time>
        <extensions>
          <geotracker:meta c="1.57" s="1.23" />
        </extensions>
      </trkpt>
      <trkpt lat="-16.03155443" lon="127.97204342">
        <ele>179.38</ele>
        <time>2026-09-16T03:37:25Z</time>
        <extensions>
          <geotracker:meta c="1.57" s="1.2" />
        </extensions>
      </trkpt>
      <trkpt lat="-16.03173763" lon="127.97256101">
        <ele>180.3</ele>
        <time>2026-09-16T03:38:29Z</time>
        <extensions>
          <geotracker:meta c="1.8" s="1.36" />
        </extensions>
      </trkpt>
      <trkpt lat="-16.03197877" lon="127.97302997">
        <ele>182.49</ele>
        <time>2026-09-16T03:39:15Z</time>
        <extensions>
          <geotracker:meta c="2.03" s="1.28" />
        </extensions>
      </trkpt>
      <trkpt lat="-16.03202483" lon="127.97362397">
        <ele>178.51</ele>
        <time>2026-09-16T03:40:09Z</time>
        <extensions>
          <geotracker:meta c="1.84" s="1.04" />
        </extensions>
      </trkpt>
      <trkpt lat="-16.03228254" lon="127.9740368">
        <ele>170.59</ele>
        <time>2026-09-16T03:41:03Z</time>
        <extensions>
          <geotracker:meta c="1.95" s="0.83" />
        </extensions>
      </trkpt>
      <trkpt lat="-16.03270949" lon="127.97435664">
        <ele>173.02</ele>
        <time>2026-09-16T03:42:42Z</time>
        <extensions>
          <geotracker:meta c="2.93" s="1.23" />
        </extensions>
      </trkpt>
      <trkpt lat="-16.03290082" lon="127.97484551">
        <ele>171.82</ele>
        <time>2026-09-16T03:43:36Z</time>
        <extensions>
          <geotracker:meta c="1.59" s="0.99" />
        </extensions>
      </trkpt>
      <trkpt lat="-16.03294069" lon="127.97546796">
        <ele>169.04</ele>
        <time>2026-09-16T03:44:39Z</time>
        <extensions>
          <geotracker:meta c="1.82" s="1.32" />
        </extensions>
      </trkpt>
      <trkpt lat="-16.03304688" lon="127.97595384">
        <ele>166.62</ele>
        <time>2026-09-16T03:45:24Z</time>
        <extensions>
          <geotracker:meta c="1.95" s="1.33" />
        </extensions>
      </trkpt>
      <trkpt lat="-16.03309364" lon="127.9764704">
        <ele>163.59</ele>
        <time>2026-09-16T03:46:09Z</time>
        <extensions>
          <geotracker:meta c="1.83" s="0.99" />
        </extensions>
      </trkpt>
      <trkpt lat="-16.03299308" lon="127.97694992">
        <ele>154.21</ele>
        <time>2026-09-16T03:47:03Z</time>
        <extensions>
          <geotracker:meta c="1.02" s="2.39" />
        </extensions>
      </trkpt>
      <trkpt lat="-16.032711" lon="127.97734782">
        <ele>158.68</ele>
        <time>2026-09-16T03:47:57Z</time>
        <extensions>
          <geotracker:meta c="0.73" s="0.16" />
        </extensions>
      </trkpt>
      <trkpt lat="-16.03235923" lon="127.97765681">
        <ele>156.13</ele>
        <time>2026-09-16T03:50:13Z</time>
        <extensions>
          <geotracker:meta c="1.86" s="0.95" />
        </extensions>
      </trkpt>
      <trkpt lat="-16.03213637" lon="127.97807118">
        <ele>162.48</ele>
        <time>2026-09-16T03:51:17Z</time>
        <extensions>
          <geotracker:meta c="0.42" s="1.14" />
        </extensions>
      </trkpt>
      <trkpt lat="-16.0319464" lon="127.97823955">
        <ele>159.69</ele>
        <time>2026-09-16T03:53:33Z</time>
        <extensions>
          <geotracker:meta c="1.71" s="0.48" />
        </extensions>
      </trkpt>
      <trkpt lat="-16.03183724" lon="127.97885994">
        <ele>157.37</ele>
        <time>2026-09-16T03:55:20Z</time>
        <extensions>
          <geotracker:meta c="1.86" s="1.12" />
        </extensions>
      </trkpt>
      <trkpt lat="-16.03200427" lon="127.97930791">
        <ele>158.6</ele>
        <time>2026-09-16T03:56:06Z</time>
        <extensions>
          <geotracker:meta c="3.12" s="1.06" />
        </extensions>
      </trkpt>
      <trkpt lat="-16.03174774" lon="127.97970712">
        <ele>156.2</ele>
        <time>2026-09-16T03:57:00Z</time>
        <extensions>
          <geotracker:meta c="0.32" s="1.13" />
        </extensions>
      </trkpt>
      <trkpt lat="-16.03130033" lon="127.97993873">
        <ele>157.09</ele>
        <time>2026-09-16T03:57:45Z</time>
        <extensions>
          <geotracker:meta c="0.21" s="1.08" />
        </extensions>
      </trkpt>
      <trkpt lat="-16.0308296" lon="127.98015025">
        <ele>153.56</ele>
        <time>2026-09-16T03:58:39Z</time>
        <extensions>
          <geotracker:meta c="0.82" s="1.15" />
        </extensions>
      </trkpt>
      <trkpt lat="-16.03039252" lon="127.98048198">
        <ele>153.95</ele>
        <time>2026-09-16T03:59:25Z</time>
        <extensions>
          <geotracker:meta c="0.67" s="1.32" />
        </extensions>
      </trkpt>
      <trkpt lat="-16.02983022" lon="127.98062888">
        <ele>153.43</ele>
        <time>2026-09-16T04:00:10Z</time>
        <extensions>
          <geotracker:meta c="0.07" s="1.45" />
        </extensions>
      </trkpt>
      <trkpt lat="-16.02936481" lon="127.98068837">
        <ele>151.11</ele>
        <time>2026-09-16T04:00:55Z</time>
        <extensions>
          <geotracker:meta c="6" s="1.14" />
        </extensions>
      </trkpt>
      <trkpt lat="-16.02876561" lon="127.98062939">
        <ele>150.81</ele>
        <time>2026-09-16T04:02:00Z</time>
        <extensions>
          <geotracker:meta c="0.01" s="1.06" />
        </extensions>
      </trkpt>
      <trkpt lat="-16.02831107" lon="127.98045912">
        <ele>150.88</ele>
        <time>2026-09-16T04:02:54Z</time>
        <extensions>
          <geotracker:meta c="5.16" s="0.87" />
        </extensions>
      </trkpt>
      <trkpt lat="-16.02785316" lon="127.98037694">
        <ele>153.37</ele>
        <time>2026-09-16T04:03:40Z</time>
        <extensions>
          <geotracker:meta c="6.08" s="1.1" />
        </extensions>
      </trkpt>
      <trkpt lat="-16.02736583" lon="127.98016019">
        <ele>150.08</ele>
        <time>2026-09-16T04:04:28Z</time>
        <extensions>
          <geotracker:meta c="5.57" s="1.17" />
        </extensions>
      </trkpt>
      <trkpt lat="-16.0270137" lon="127.97983538">
        <ele>150.62</ele>
        <time>2026-09-16T04:05:13Z</time>
        <extensions>
          <geotracker:meta c="5.52" s="1.21" />
        </extensions>
      </trkpt>
      <trkpt lat="-16.02652592" lon="127.97958351">
        <ele>148.52</ele>
        <time>2026-09-16T04:06:07Z</time>
        <extensions>
          <geotracker:meta c="6.13" s="1.09" />
        </extensions>
      </trkpt>
      <trkpt lat="-16.02608167" lon="127.97936606">
        <ele>146.46</ele>
        <time>2026-09-16T04:07:02Z</time>
        <extensions>
          <geotracker:meta c="5.35" s="0.96" />
        </extensions>
      </trkpt>
      <trkpt lat="-16.02565303" lon="127.97917847">
        <ele>144.52</ele>
        <time>2026-09-16T04:07:56Z</time>
        <extensions>
          <geotracker:meta c="5.36" s="1.69" />
        </extensions>
      </trkpt>
      <trkpt lat="-16.02511244" lon="127.97900931">
        <ele>147.97</ele>
        <time>2026-09-16T04:09:00Z</time>
        <extensions>
          <geotracker:meta c="5.52" s="1.05" />
        </extensions>
      </trkpt>
      <trkpt lat="-16.02465653" lon="127.97889016">
        <ele>142.88</ele>
        <time>2026-09-16T04:10:05Z</time>
        <extensions>
          <geotracker:meta c="5.91" s="1.45" />
        </extensions>
      </trkpt>
      <trkpt lat="-16.02410499" lon="127.9787248">
        <ele>144.26</ele>
        <time>2026-09-16T04:11:01Z</time>
        <extensions>
          <geotracker:meta c="5.92" s="1.19" />
        </extensions>
      </trkpt>
      <trkpt lat="-16.02364574" lon="127.97859094">
        <ele>146.81</ele>
        <time>2026-09-16T04:11:47Z</time>
        <extensions>
          <geotracker:meta c="5.61" s="1.04" />
        </extensions>
      </trkpt>
      <trkpt lat="-16.02321326" lon="127.97838179">
        <ele>145.17</ele>
        <time>2026-09-16T04:12:41Z</time>
        <extensions>
          <geotracker:meta c="0.48" s="1.06" />
        </extensions>
      </trkpt>
      <trkpt lat="-16.02273053" lon="127.97821496">
        <ele>144.95</ele>
        <time>2026-09-16T04:14:20Z</time>
        <extensions>
          <geotracker:meta c="5.02" s="0.86" />
        </extensions>
      </trkpt>
      <trkpt lat="-16.02229601" lon="127.97805645">
        <ele>147.29</ele>
        <time>2026-09-16T04:15:51Z</time>
        <extensions>
          <geotracker:meta c="6.03" s="1.1" />
        </extensions>
      </trkpt>
      <trkpt lat="-16.02183051" lon="127.97793128">
        <ele>147.59</ele>
        <time>2026-09-16T04:17:07Z</time>
        <extensions>
          <geotracker:meta c="6.02" s="1.38" />
        </extensions>
      </trkpt>
      <trkpt lat="-16.02123978" lon="127.97782204">
        <ele>150.19</ele>
        <time>2026-09-16T04:18:11Z</time>
        <extensions>
          <geotracker:meta c="5.62" s="1.14" />
        </extensions>
      </trkpt>
      <trkpt lat="-16.02082458" lon="127.97759821">
        <ele>147.16</ele>
        <time>2026-09-16T04:18:50Z</time>
        <extensions>
          <geotracker:meta c="5.9" s="1.39" />
        </extensions>
      </trkpt>
      <trkpt lat="-16.02040118" lon="127.97734634">
        <ele>149.29</ele>
        <time>2026-09-16T04:19:54Z</time>
        <extensions>
          <geotracker:meta c="0.68" s="1.45" />
        </extensions>
      </trkpt>
      <trkpt lat="-16.01986162" lon="127.97723724">
        <ele>148.9</ele>
        <time>2026-09-16T04:20:41Z</time>
        <extensions>
          <geotracker:meta c="5.49" s="1.22" />
        </extensions>
      </trkpt>
      <trkpt lat="-16.01941764" lon="127.97709585">
        <ele>148.03</ele>
        <time>2026-09-16T04:21:17Z</time>
        <extensions>
          <geotracker:meta c="6.03" s="1.28" />
        </extensions>
      </trkpt>
      <trkpt lat="-16.01885787" lon="127.97687305">
        <ele>143</ele>
        <time>2026-09-16T04:22:11Z</time>
        <extensions>
          <geotracker:meta c="5.67" s="1.36" />
        </extensions>
      </trkpt>
      <trkpt lat="-16.01840317" lon="127.9766518">
        <ele>142.78</ele>
        <time>2026-09-16T04:22:57Z</time>
        <extensions>
          <geotracker:meta c="5.69" s="1.37" />
        </extensions>
      </trkpt>
      <trkpt lat="-16.01784797" lon="127.97659856">
        <ele>142.75</ele>
        <time>2026-09-16T04:23:44Z</time>
        <extensions>
          <geotracker:meta c="6.01" s="1.52" />
        </extensions>
      </trkpt>
      <trkpt lat="-16.01735371" lon="127.97658396">
        <ele>143.68</ele>
        <time>2026-09-16T04:24:22Z</time>
        <extensions>
          <geotracker:meta c="0.01" s="1.5" />
        </extensions>
      </trkpt>
      <trkpt lat="-16.01679929" lon="127.97664695">
        <ele>143.43</ele>
        <time>2026-09-16T04:25:01Z</time>
        <extensions>
          <geotracker:meta c="0.3" s="1.55" />
        </extensions>
      </trkpt>
      <trkpt lat="-16.01628846" lon="127.97673867">
        <ele>143.72</ele>
        <time>2026-09-16T04:25:38Z</time>
        <extensions>
          <geotracker:meta c="0.62" s="1.52" />
        </extensions>
      </trkpt>
      <trkpt lat="-16.01582582" lon="127.97690425">
        <ele>141.95</ele>
        <time>2026-09-16T04:26:15Z</time>
        <extensions>
          <geotracker:meta c="0.01" s="1.26" />
        </extensions>
      </trkpt>
      <trkpt lat="-16.01538525" lon="127.97705246">
        <ele>140.34</ele>
        <time>2026-09-16T04:26:53Z</time>
        <extensions>
          <geotracker:meta c="0.62" s="1.52" />
        </extensions>
      </trkpt>
      <trkpt lat="-16.01494098" lon="127.97727991">
        <ele>133.09</ele>
        <time>2026-09-16T04:27:40Z</time>
        <extensions>
          <geotracker:meta c="0.78" s="0.54" />
        </extensions>
      </trkpt>
      <trkpt lat="-16.01446703" lon="127.97733304">
        <ele>145.75</ele>
        <time>2026-09-16T04:29:31Z</time>
        <extensions>
          <geotracker:meta c="0.3" s="1.28" />
        </extensions>
      </trkpt>
      <trkpt lat="-16.01402255" lon="127.97767193">
        <ele>143.85</ele>
        <time>2026-09-16T04:30:16Z</time>
        <extensions>
          <geotracker:meta c="0.5" s="1.42" />
        </extensions>
      </trkpt>
      <trkpt lat="-16.01368667" lon="127.97800223">
        <ele>143.52</ele>
        <time>2026-09-16T04:30:53Z</time>
        <extensions>
          <geotracker:meta c="0.58" s="1.45" />
        </extensions>
      </trkpt>
      <trkpt lat="-16.01327228" lon="127.97839387">
        <ele>144.07</ele>
        <time>2026-09-16T04:31:41Z</time>
        <extensions>
          <geotracker:meta c="0.42" s="1.34" />
        </extensions>
      </trkpt>
      <trkpt lat="-16.01286123" lon="127.97859738">
        <ele>145</ele>
        <time>2026-09-16T04:32:19Z</time>
        <extensions>
          <geotracker:meta c="0.74" s="1.49" />
        </extensions>
      </trkpt>
      <trkpt lat="-16.01250555" lon="127.97892396">
        <ele>146.28</ele>
        <time>2026-09-16T04:32:56Z</time>
        <extensions>
          <geotracker:meta c="0.24" s="1.47" />
        </extensions>
      </trkpt>
      <trkpt lat="-16.01215427" lon="127.97907544">
        <ele>144.06</ele>
        <time>2026-09-16T04:35:26Z</time>
        <extensions>
          <geotracker:meta c="4.61" s="0.82" />
        </extensions>
      </trkpt>
      <trkpt lat="-16.01168448" lon="127.97890857">
        <ele>143.99</ele>
        <time>2026-09-16T04:35:58Z</time>
        <extensions>
          <geotracker:meta c="0.08" s="2.58" />
        </extensions>
      </trkpt>
      <trkpt lat="-16.01104226" lon="127.97914301">
        <ele>143.67</ele>
        <time>2026-09-16T04:36:18Z</time>
        <extensions>
          <geotracker:meta c="0.34" s="3.45" />
        </extensions>
      </trkpt>
      <trkpt lat="-16.01024546" lon="127.97939961">
        <ele>142.72</ele>
        <time>2026-09-16T04:36:38Z</time>
        <extensions>
          <geotracker:meta c="0.14" s="6.05" />
        </extensions>
      </trkpt>
      <trkpt lat="-16.00974208" lon="127.9794708">
        <ele>143.93</ele>
        <time>2026-09-16T04:36:48Z</time>
        <extensions>
          <geotracker:meta c="0.13" s="5.61" />
        </extensions>
      </trkpt>
      <trkpt lat="-16.00874479" lon="127.9795477">
        <ele>139.41</ele>
        <time>2026-09-16T04:37:08Z</time>
        <extensions>
          <geotracker:meta c="0.25" s="6.14" />
        </extensions>
      </trkpt>
      <trkpt lat="-16.00818142" lon="127.9801386">
        <ele>141.89</ele>
        <time>2026-09-16T04:37:28Z</time>
        <extensions>
          <geotracker:meta c="0.41" s="3.96" />
        </extensions>
      </trkpt>
      <trkpt lat="-16.00812187" lon="127.98066922">
        <ele>141.51</ele>
        <time>2026-09-16T04:39:16Z</time>
        <extensions>
          <geotracker:meta c="1.76" s="0.85" />
        </extensions>
      </trkpt>
      <trkpt lat="-16.00815885" lon="127.98061839">
        <ele>124.57</ele>
        <time>2026-09-16T04:41:38Z</time>
        <extensions>
          <geotracker:meta c="4.3" s="0.51" />
        </extensions>
      </trkpt>
      <trkpt lat="-16.00816171" lon="127.98063216">
        <ele>141.7</ele>
        <time>2026-09-16T04:49:24Z</time>
        <extensions>
          <geotracker:meta c="0.6" s="0.34" />
        </extensions>
      </trkpt>
      <trkpt lat="-16.00782283" lon="127.98088929">
        <ele>141.02</ele>
        <time>2026-09-16T04:53:01Z</time>
        <extensions>
          <geotracker:meta c="2.91" s="0.76" />
        </extensions>
      </trkpt>
    </trkseg>
    <trkseg>
      <trkpt lat="-15.91984551" lon="128.03193793">
        <ele>139.39</ele>
        <time>2026-09-16T08:08:51Z</time>
        <extensions>
          <geotracker:meta c="4.54" s="13.55" />
        </extensions>
      </trkpt>
      <trkpt lat="-15.91999051" lon="128.03120412">
        <ele>138.17</ele>
        <time>2026-09-16T08:09:09Z</time>
        <extensions>
          <geotracker:meta c="4.52" s="3.91" />
        </extensions>
      </trkpt>
      <trkpt lat="-15.92012095" lon="128.03049852">
        <ele>134.21</ele>
        <time>2026-09-16T08:09:18Z</time>
        <extensions>
          <geotracker:meta c="4.52" s="12.45" />
        </extensions>
      </trkpt>
      <trkpt lat="-15.92037399" lon="128.02917138">
        <ele>133.23</ele>
        <time>2026-09-16T08:09:27Z</time>
        <extensions>
          <geotracker:meta c="4.53" s="17.49" />
        </extensions>
      </trkpt>
      <trkpt lat="-15.92055284" lon="128.02742971">
        <ele>136.02</ele>
        <time>2026-09-16T08:09:37Z</time>
        <extensions>
          <geotracker:meta c="4.71" s="20.13" />
        </extensions>
      </trkpt>
      <trkpt lat="-15.92047839" lon="128.02549259">
        <ele>135.37</ele>
        <time>2026-09-16T08:09:47Z</time>
        <extensions>
          <geotracker:meta c="4.74" s="21.18" />
        </extensions>
      </trkpt>
      <trkpt lat="-15.92040471" lon="128.02376774">
        <ele>133.58</ele>
        <time>2026-09-16T08:09:56Z</time>
        <extensions>
          <geotracker:meta c="4.74" s="19.79" />
        </extensions>
      </trkpt>
      <trkpt lat="-15.92033044" lon="128.02194023">
        <ele>132.06</ele>
        <time>2026-09-16T08:10:06Z</time>
        <extensions>
          <geotracker:meta c="4.73" s="18.25" />
        </extensions>
      </trkpt>
      <trkpt lat="-15.92026474" lon="128.02018869">
        <ele>132.75</ele>
        <time>2026-09-16T08:10:16Z</time>
        <extensions>
          <geotracker:meta c="4.75" s="20.14" />
        </extensions>
      </trkpt>
      <trkpt lat="-15.92018811" lon="128.01836261">
        <ele>131.57</ele>
        <time>2026-09-16T08:10:25Z</time>
        <extensions>
          <geotracker:meta c="4.75" s="22.66" />
        </extensions>
      </trkpt>
      <trkpt lat="-15.91997185" lon="128.01645064">
        <ele>129.41</ele>
        <time>2026-09-16T08:10:34Z</time>
        <extensions>
          <geotracker:meta c="4.94" s="23.67" />
        </extensions>
      </trkpt>
      <trkpt lat="-15.91930037" lon="128.01453891">
        <ele>127.13</ele>
        <time>2026-09-16T08:10:43Z</time>
        <extensions>
          <geotracker:meta c="5.1" s="24.96" />
        </extensions>
      </trkpt>
      <trkpt lat="-15.91853506" lon="128.0126">
        <ele>127.52</ele>
        <time>2026-09-16T08:10:52Z</time>
        <extensions>
          <geotracker:meta c="5.1" s="25.07" />
        </extensions>
      </trkpt>
      <trkpt lat="-15.91778572" lon="128.01065509">
        <ele>126.65</ele>
        <time>2026-09-16T08:11:01Z</time>
        <extensions>
          <geotracker:meta c="5.04" s="24.67" />
        </extensions>
      </trkpt>
      <trkpt lat="-15.91731036" lon="128.00667145">
        <ele>120.66</ele>
        <time>2026-09-16T08:11:19Z</time>
        <extensions>
          <geotracker:meta c="4.71" s="23.67" />
        </extensions>
      </trkpt>
      <trkpt lat="-15.91695051" lon="128.00467367">
        <ele>117.96</ele>
        <time>2026-09-16T08:11:28Z</time>
        <extensions>
          <geotracker:meta c="5.16" s="25.5" />
        </extensions>
      </trkpt>
      <trkpt lat="-15.91567984" lon="128.00309735">
        <ele>112.49</ele>
        <time>2026-09-16T08:11:37Z</time>
        <extensions>
          <geotracker:meta c="5.58" s="23.9" />
        </extensions>
      </trkpt>
      <trkpt lat="-15.91393544" lon="128.00219262">
        <ele>109.26</ele>
        <time>2026-09-16T08:11:46Z</time>
        <extensions>
          <geotracker:meta c="5.88" s="25.29" />
        </extensions>
      </trkpt>
      <trkpt lat="-15.91208508" lon="128.00136712">
        <ele>106.94</ele>
        <time>2026-09-16T08:11:55Z</time>
        <extensions>
          <geotracker:meta c="5.88" s="24.62" />
        </extensions>
      </trkpt>
      <trkpt lat="-15.91020332" lon="128.00052646">
        <ele>106.65</ele>
        <time>2026-09-16T08:12:04Z</time>
        <extensions>
          <geotracker:meta c="5.87" s="25.25" />
        </extensions>
      </trkpt>
      <trkpt lat="-15.90835657" lon="127.99983252">
        <ele>106.93</ele>
        <time>2026-09-16T08:12:13Z</time>
        <extensions>
          <geotracker:meta c="6.08" s="23.79" />
        </extensions>
      </trkpt>
      <trkpt lat="-15.90641559" lon="127.99979419">
        <ele>105.93</ele>
        <time>2026-09-16T08:12:22Z</time>
        <extensions>
          <geotracker:meta c="0.05" s="24.3" />
        </extensions>
      </trkpt>
      <trkpt lat="-15.90445166" lon="127.99984747">
        <ele>104.43</ele>
        <time>2026-09-16T08:12:31Z</time>
        <extensions>
          <geotracker:meta c="6.28" s="24.06" />
        </extensions>
      </trkpt>
      <trkpt lat="-15.90077805" lon="127.99843549">
        <ele>104.39</ele>
        <time>2026-09-16T08:12:49Z</time>
        <extensions>
          <geotracker:meta c="5.85" s="26.8" />
        </extensions>
      </trkpt>
      <trkpt lat="-15.89882153" lon="127.99747258">
        <ele>102.16</ele>
        <time>2026-09-16T08:12:58Z</time>
        <extensions>
          <geotracker:meta c="5.84" s="25.91" />
        </extensions>
      </trkpt>
      <trkpt lat="-15.89689929" lon="127.99655023">
        <ele>103.69</ele>
        <time>2026-09-16T08:13:07Z</time>
        <extensions>
          <geotracker:meta c="5.89" s="25.47" />
        </extensions>
      </trkpt>
      <trkpt lat="-15.89492861" lon="127.9960082">
        <ele>108.77</ele>
        <time>2026-09-16T08:13:16Z</time>
        <extensions>
          <geotracker:meta c="6.16" s="24.4" />
        </extensions>
      </trkpt>
      <trkpt lat="-15.89293341" lon="127.99610249">
        <ele>110.64</ele>
        <time>2026-09-16T08:13:25Z</time>
        <extensions>
          <geotracker:meta c="0.19" s="24.22" />
        </extensions>
      </trkpt>
      <trkpt lat="-15.89111073" lon="127.99658768">
        <ele>112.18</ele>
        <time>2026-09-16T08:13:34Z</time>
        <extensions>
          <geotracker:meta c="0.25" s="22.65" />
        </extensions>
      </trkpt>
      <trkpt lat="-15.88930674" lon="127.99684338">
        <ele>112.43</ele>
        <time>2026-09-16T08:13:43Z</time>
        <extensions>
          <geotracker:meta c="6.24" s="22.52" />
        </extensions>
      </trkpt>
      <trkpt lat="-15.88737678" lon="127.9966592">
        <ele>108.3</ele>
        <time>2026-09-16T08:13:52Z</time>
        <extensions>
          <geotracker:meta c="6.17" s="24.59" />
        </extensions>
      </trkpt>
      <trkpt lat="-15.88544732" lon="127.99642128">
        <ele>110.15</ele>
        <time>2026-09-16T08:14:01Z</time>
        <extensions>
          <geotracker:meta c="6.11" s="23.73" />
        </extensions>
      </trkpt>
      <trkpt lat="-15.88202223" lon="127.99459603">
        <ele>111.32</ele>
        <time>2026-09-16T08:14:19Z</time>
        <extensions>
          <geotracker:meta c="5.63" s="24.84" />
        </extensions>
      </trkpt>
      <trkpt lat="-15.88038034" lon="127.99328439">
        <ele>108.52</ele>
        <time>2026-09-16T08:14:28Z</time>
        <extensions>
          <geotracker:meta c="5.63" s="26.36" />
        </extensions>
      </trkpt>
      <trkpt lat="-15.87866033" lon="127.9919162">
        <ele>109.59</ele>
        <time>2026-09-16T08:14:37Z</time>
        <extensions>
          <geotracker:meta c="5.62" s="26.87" />
        </extensions>
      </trkpt>
      <trkpt lat="-15.87701072" lon="127.99051145">
        <ele>116.16</ele>
        <time>2026-09-16T08:14:46Z</time>
        <extensions>
          <geotracker:meta c="5.5" s="25.81" />
        </extensions>
      </trkpt>
      <trkpt lat="-15.87588755" lon="127.98891679">
        <ele>118.1</ele>
        <time>2026-09-16T08:14:55Z</time>
        <extensions>
          <geotracker:meta c="5.2" s="22.4" />
        </extensions>
      </trkpt>
      <trkpt lat="-15.87525107" lon="127.98709479">
        <ele>117</ele>
        <time>2026-09-16T08:15:04Z</time>
        <extensions>
          <geotracker:meta c="4.92" s="23.24" />
        </extensions>
      </trkpt>
      <trkpt lat="-15.87493967" lon="127.98513106">
        <ele>112.29</ele>
        <time>2026-09-16T08:15:13Z</time>
        <extensions>
          <geotracker:meta c="4.87" s="24.72" />
        </extensions>
      </trkpt>
      <trkpt lat="-15.87462579" lon="127.98306239">
        <ele>107.08</ele>
        <time>2026-09-16T08:15:22Z</time>
        <extensions>
          <geotracker:meta c="4.86" s="26.09" />
        </extensions>
      </trkpt>
      <trkpt lat="-15.87428825" lon="127.98084692">
        <ele>103.02</ele>
        <time>2026-09-16T08:15:31Z</time>
        <extensions>
          <geotracker:meta c="4.87" s="27.54" />
        </extensions>
      </trkpt>
      <trkpt lat="-15.87356172" lon="127.9760891">
        <ele>95.92</ele>
        <time>2026-09-16T08:15:49Z</time>
        <extensions>
          <geotracker:meta c="4.89" s="26.77" />
        </extensions>
      </trkpt>
      <trkpt lat="-15.87280519" lon="127.97408071">
        <ele>101.58</ele>
        <time>2026-09-16T08:15:58Z</time>
        <extensions>
          <geotracker:meta c="5.23" s="26.54" />
        </extensions>
      </trkpt>
      <trkpt lat="-15.87155477" lon="127.97223619">
        <ele>102.8</ele>
        <time>2026-09-16T08:16:07Z</time>
        <extensions>
          <geotracker:meta c="5.38" s="27.34" />
        </extensions>
      </trkpt>
      <trkpt lat="-15.87018005" lon="127.97042359">
        <ele>103.17</ele>
        <time>2026-09-16T08:16:16Z</time>
        <extensions>
          <geotracker:meta c="5.37" s="28.46" />
        </extensions>
      </trkpt>
      <trkpt lat="-15.86880572" lon="127.96850244">
        <ele>96.87</ele>
        <time>2026-09-16T08:16:25Z</time>
        <extensions>
          <geotracker:meta c="5.24" s="27.74" />
        </extensions>
      </trkpt>
      <trkpt lat="-15.86795921" lon="127.966521">
        <ele>94.84</ele>
        <time>2026-09-16T08:16:34Z</time>
        <extensions>
          <geotracker:meta c="5.08" s="24.72" />
        </extensions>
      </trkpt>
      <trkpt lat="-15.86721729" lon="127.96452921">
        <ele>98.17</ele>
        <time>2026-09-16T08:16:43Z</time>
        <extensions>
          <geotracker:meta c="5.08" s="25.51" />
        </extensions>
      </trkpt>
      <trkpt lat="-15.86642403" lon="127.96240973">
        <ele>95.54</ele>
        <time>2026-09-16T08:16:52Z</time>
        <extensions>
          <geotracker:meta c="5.08" s="26.93" />
        </extensions>
      </trkpt>
      <trkpt lat="-15.86563317" lon="127.96029523">
        <ele>96.55</ele>
        <time>2026-09-16T08:17:01Z</time>
        <extensions>
          <geotracker:meta c="5.08" s="27.64" />
        </extensions>
      </trkpt>
      <trkpt lat="-15.86394076" lon="127.95577788">
        <ele>92.52</ele>
        <time>2026-09-16T08:17:19Z</time>
        <extensions>
          <geotracker:meta c="5.08" s="29.38" />
        </extensions>
      </trkpt>
      <trkpt lat="-15.86305255" lon="127.95340958">
        <ele>87.08</ele>
        <time>2026-09-16T08:17:28Z</time>
        <extensions>
          <geotracker:meta c="5.08" s="30.92" />
        </extensions>
      </trkpt>
      <trkpt lat="-15.86216293" lon="127.95103101">
        <ele>81.88</ele>
        <time>2026-09-16T08:17:37Z</time>
        <extensions>
          <geotracker:meta c="5.08" s="28.78" />
        </extensions>
      </trkpt>
      <trkpt lat="-15.86137975" lon="127.94893216">
        <ele>84.85</ele>
        <time>2026-09-16T08:17:46Z</time>
        <extensions>
          <geotracker:meta c="5.09" s="26.24" />
        </extensions>
      </trkpt>
      <trkpt lat="-15.86057774" lon="127.94677914">
        <ele>83.91</ele>
        <time>2026-09-16T08:17:55Z</time>
        <extensions>
          <geotracker:meta c="5.08" s="28.36" />
        </extensions>
      </trkpt>
      <trkpt lat="-15.85974061" lon="127.9445475">
        <ele>80.13</ele>
        <time>2026-09-16T08:18:04Z</time>
        <extensions>
          <geotracker:meta c="5.08" s="27.51" />
        </extensions>
      </trkpt>
      <trkpt lat="-15.85897476" lon="127.94249334">
        <ele>76.48</ele>
        <time>2026-09-16T08:18:13Z</time>
        <extensions>
          <geotracker:meta c="5.11" s="24.48" />
        </extensions>
      </trkpt>
      <trkpt lat="-15.85796407" lon="127.94073594">
        <ele>79.17</ele>
        <time>2026-09-16T08:18:22Z</time>
        <extensions>
          <geotracker:meta c="5.38" s="25.09" />
        </extensions>
      </trkpt>
      <trkpt lat="-15.85645698" lon="127.93909236">
        <ele>79.28</ele>
        <time>2026-09-16T08:18:31Z</time>
        <extensions>
          <geotracker:meta c="5.49" s="28" />
        </extensions>
      </trkpt>
      <trkpt lat="-15.85325201" lon="127.93572866">
        <ele>77.05</ele>
        <time>2026-09-16T08:18:49Z</time>
        <extensions>
          <geotracker:meta c="5.48" s="27.15" />
        </extensions>
      </trkpt>
      <trkpt lat="-15.85169575" lon="127.93406412">
        <ele>73.54</ele>
        <time>2026-09-16T08:18:58Z</time>
        <extensions>
          <geotracker:meta c="5.48" s="27.74" />
        </extensions>
      </trkpt>
      <trkpt lat="-15.85014737" lon="127.93238709">
        <ele>75.73</ele>
        <time>2026-09-16T08:19:07Z</time>
        <extensions>
          <geotracker:meta c="5.47" s="27.49" />
        </extensions>
      </trkpt>
      <trkpt lat="-15.84862219" lon="127.9307405">
        <ele>78.78</ele>
        <time>2026-09-16T08:19:16Z</time>
        <extensions>
          <geotracker:meta c="5.48" s="27.77" />
        </extensions>
      </trkpt>
      <trkpt lat="-15.8471593" lon="127.92901915">
        <ele>68.85</ele>
        <time>2026-09-16T08:19:25Z</time>
        <extensions>
          <geotracker:meta c="5.31" s="27.24" />
        </extensions>
      </trkpt>
      <trkpt lat="-15.84603078" lon="127.92706698">
        <ele>70.04</ele>
        <time>2026-09-16T08:19:34Z</time>
        <extensions>
          <geotracker:meta c="5.32" s="26.47" />
        </extensions>
      </trkpt>
      <trkpt lat="-15.84453756" lon="127.92538817">
        <ele>71</ele>
        <time>2026-09-16T08:19:43Z</time>
        <extensions>
          <geotracker:meta c="5.51" s="27.34" />
        </extensions>
      </trkpt>
      <trkpt lat="-15.84293472" lon="127.92379315">
        <ele>76.24</ele>
        <time>2026-09-16T08:19:52Z</time>
        <extensions>
          <geotracker:meta c="5.52" s="25.51" />
        </extensions>
      </trkpt>
      <trkpt lat="-15.84141042" lon="127.92227518">
        <ele>78.46</ele>
        <time>2026-09-16T08:20:01Z</time>
        <extensions>
          <geotracker:meta c="5.51" s="27.36" />
        </extensions>
      </trkpt>
      <trkpt lat="-15.83809259" lon="127.91897241">
        <ele>69.98</ele>
        <time>2026-09-16T08:20:19Z</time>
        <extensions>
          <geotracker:meta c="5.53" s="27.6" />
        </extensions>
      </trkpt>
      <trkpt lat="-15.83635457" lon="127.91769179">
        <ele>75.29</ele>
        <time>2026-09-16T08:20:28Z</time>
        <extensions>
          <geotracker:meta c="5.74" s="26.09" />
        </extensions>
      </trkpt>
      <trkpt lat="-15.83466288" lon="127.91653115">
        <ele>85.02</ele>
        <time>2026-09-16T08:20:37Z</time>
        <extensions>
          <geotracker:meta c="5.62" s="24.42" />
        </extensions>
      </trkpt>
      <trkpt lat="-15.83305386" lon="127.91512959">
        <ele>75</ele>
        <time>2026-09-16T08:20:46Z</time>
        <extensions>
          <geotracker:meta c="5.47" s="26.23" />
        </extensions>
      </trkpt>
      <trkpt lat="-15.83141263" lon="127.91362306">
        <ele>70.33</ele>
        <time>2026-09-16T08:20:55Z</time>
        <extensions>
          <geotracker:meta c="5.76" s="27.3" />
        </extensions>
      </trkpt>
      <trkpt lat="-15.82924747" lon="127.91309611">
        <ele>74.81</ele>
        <time>2026-09-16T08:21:04Z</time>
        <extensions>
          <geotracker:meta c="0" s="27.84" />
        </extensions>
      </trkpt>
      <trkpt lat="-15.82701462" lon="127.91308949">
        <ele>84.27</ele>
        <time>2026-09-16T08:21:13Z</time>
        <extensions>
          <geotracker:meta c="6.25" s="27.46" />
        </extensions>
      </trkpt>
      <trkpt lat="-15.82486583" lon="127.91283041">
        <ele>90.33</ele>
        <time>2026-09-16T08:21:22Z</time>
        <extensions>
          <geotracker:meta c="5.98" s="26.51" />
        </extensions>
      </trkpt>
      <trkpt lat="-15.82283643" lon="127.91189364">
        <ele>87.22</ele>
        <time>2026-09-16T08:21:31Z</time>
        <extensions>
          <geotracker:meta c="5.8" s="27.09" />
        </extensions>
      </trkpt>
      <trkpt lat="-15.8198097" lon="127.90894142">
        <ele>89.91</ele>
        <time>2026-09-16T08:21:49Z</time>
        <extensions>
          <geotracker:meta c="5.03" s="25.85" />
        </extensions>
      </trkpt>
      <trkpt lat="-15.81924686" lon="127.90683165">
        <ele>86.56</ele>
        <time>2026-09-16T08:21:58Z</time>
        <extensions>
          <geotracker:meta c="4.98" s="25.52" />
        </extensions>
      </trkpt>
      <trkpt lat="-15.81828272" lon="127.90475764">
        <ele>82.9</ele>
        <time>2026-09-16T08:22:07Z</time>
        <extensions>
          <geotracker:meta c="5.3" s="28.4" />
        </extensions>
      </trkpt>
      <trkpt lat="-15.81704961" lon="127.90284064">
        <ele>83.02</ele>
        <time>2026-09-16T08:22:16Z</time>
        <extensions>
          <geotracker:meta c="5.3" s="27.92" />
        </extensions>
      </trkpt>
      <trkpt lat="-15.81577251" lon="127.90085573">
        <ele>81.65</ele>
        <time>2026-09-16T08:22:25Z</time>
        <extensions>
          <geotracker:meta c="5.3" s="28.97" />
        </extensions>
      </trkpt>
      <trkpt lat="-15.81447078" lon="127.89883767">
        <ele>78.71</ele>
        <time>2026-09-16T08:22:34Z</time>
        <extensions>
          <geotracker:meta c="5.29" s="27.9" />
        </extensions>
      </trkpt>
      <trkpt lat="-15.81315445" lon="127.89710438">
        <ele>74.51</ele>
        <time>2026-09-16T08:22:43Z</time>
        <extensions>
          <geotracker:meta c="5.57" s="26.45" />
        </extensions>
      </trkpt>
      <trkpt lat="-15.81122046" lon="127.89602883">
        <ele>71.71</ele>
        <time>2026-09-16T08:22:52Z</time>
        <extensions>
          <geotracker:meta c="5.95" s="27.15" />
        </extensions>
      </trkpt>
      <trkpt lat="-15.80911336" lon="127.89527792">
        <ele>73.25</ele>
        <time>2026-09-16T08:23:01Z</time>
        <extensions>
          <geotracker:meta c="5.95" s="27.52" />
        </extensions>
      </trkpt>
      <trkpt lat="-15.80495811" lon="127.89379492">
        <ele>76.47</ele>
        <time>2026-09-16T08:23:19Z</time>
        <extensions>
          <geotracker:meta c="5.91" s="26.51" />
        </extensions>
      </trkpt>
      <trkpt lat="-15.80320141" lon="127.89250493">
        <ele>76.64</ele>
        <time>2026-09-16T08:23:28Z</time>
        <extensions>
          <geotracker:meta c="5.44" s="26.17" />
        </extensions>
      </trkpt>
      <trkpt lat="-15.80198907" lon="127.89076225">
        <ele>77.63</ele>
        <time>2026-09-16T08:23:37Z</time>
        <extensions>
          <geotracker:meta c="5.45" s="26.08" />
        </extensions>
      </trkpt>
      <trkpt lat="-15.80041926" lon="127.88915351">
        <ele>70.62</ele>
        <time>2026-09-16T08:23:46Z</time>
        <extensions>
          <geotracker:meta c="5.5" s="26.55" />
        </extensions>
      </trkpt>
      <trkpt lat="-15.79891517" lon="127.88761777">
        <ele>74.26</ele>
        <time>2026-09-16T08:23:55Z</time>
        <extensions>
          <geotracker:meta c="5.48" s="24.11" />
        </extensions>
      </trkpt>
      <trkpt lat="-15.79790406" lon="127.88498337">
        <ele>59.14</ele>
        <time>2026-09-16T08:24:10Z</time>
        <extensions>
          <geotracker:meta c="5" s="20.68" />
        </extensions>
      </trkpt>
      <trkpt lat="-15.79755471" lon="127.88384322">
        <ele>53.58</ele>
        <time>2026-09-16T08:24:19Z</time>
        <extensions>
          <geotracker:meta c="5.16" s="6.59" />
        </extensions>
      </trkpt>
      <trkpt lat="-15.79740621" lon="127.88335619">
        <ele>50.19</ele>
        <time>2026-09-16T08:24:28Z</time>
        <extensions>
          <geotracker:meta c="5.02" s="6.47" />
        </extensions>
      </trkpt>
      <trkpt lat="-15.7972634" lon="127.88290119">
        <ele>50.64</ele>
        <time>2026-09-16T08:24:37Z</time>
        <extensions>
          <geotracker:meta c="5.03" s="5.53" />
        </extensions>
      </trkpt>
      <trkpt lat="-15.79690198" lon="127.88255528">
        <ele>50.03</ele>
        <time>2026-09-16T08:24:55Z</time>
        <extensions>
          <geotracker:meta c="6.15" s="3.07" />
        </extensions>
      </trkpt>
      <trkpt lat="-15.79633044" lon="127.88251394">
        <ele>50.63</ele>
        <time>2026-09-16T08:25:22Z</time>
        <extensions>
          <geotracker:meta c="0.5" s="2.91" />
        </extensions>
      </trkpt>
      <trkpt lat="-15.79584264" lon="127.88256185">
        <ele>51.04</ele>
        <time>2026-09-16T08:25:40Z</time>
        <extensions>
          <geotracker:meta c="0.56" s="3.07" />
        </extensions>
      </trkpt>
      <trkpt lat="-15.79531784" lon="127.88273245">
        <ele>51.71</ele>
        <time>2026-09-16T08:25:58Z</time>
        <extensions>
          <geotracker:meta c="0.06" s="5.1" />
        </extensions>
      </trkpt>
      <trkpt lat="-15.7945231" lon="127.88273671">
        <ele>50.98</ele>
        <time>2026-09-16T08:26:16Z</time>
        <extensions>
          <geotracker:meta c="6.18" s="5.53" />
        </extensions>
      </trkpt>
      <trkpt lat="-15.79406136" lon="127.88275189">
        <ele>51.36</ele>
        <time>2026-09-16T08:26:25Z</time>
        <extensions>
          <geotracker:meta c="0.49" s="5.23" />
        </extensions>
      </trkpt>
      <trkpt lat="-15.79342839" lon="127.88271956">
        <ele>50.71</ele>
        <time>2026-09-16T08:26:43Z</time>
        <extensions>
          <geotracker:meta c="6.23" s="5.23" />
        </extensions>
      </trkpt>
      <trkpt lat="-15.79249213" lon="127.88275294">
        <ele>50.31</ele>
        <time>2026-09-16T08:27:10Z</time>
        <extensions>
          <geotracker:meta c="6.08" s="3.86" />
        </extensions>
      </trkpt>
      <trkpt lat="-15.79198439" lon="127.88264797">
        <ele>49.78</ele>
        <time>2026-09-16T08:27:28Z</time>
        <extensions>
          <geotracker:meta c="6.2" s="2.97" />
        </extensions>
      </trkpt>
      <trkpt lat="-15.79140987" lon="127.8828521">
        <ele>51.46</ele>
        <time>2026-09-16T08:27:46Z</time>
        <extensions>
          <geotracker:meta c="6.23" s="5.37" />
        </extensions>
      </trkpt>
      <trkpt lat="-15.79093196" lon="127.88279225">
        <ele>51.87</ele>
        <time>2026-09-16T08:27:55Z</time>
        <extensions>
          <geotracker:meta c="5.99" s="5.3" />
        </extensions>
      </trkpt>
      <trkpt lat="-15.79019264" lon="127.8826736">
        <ele>51.91</ele>
        <time>2026-09-16T08:28:13Z</time>
        <extensions>
          <geotracker:meta c="6.15" s="4.39" />
        </extensions>
      </trkpt>
      <trkpt lat="-15.78903731" lon="127.88253497">
        <ele>50.46</ele>
        <time>2026-09-16T08:28:40Z</time>
        <extensions>
          <geotracker:meta c="6.22" s="1.51" />
        </extensions>
      </trkpt>
      <trkpt lat="-15.78857381" lon="127.88239904">
        <ele>51.92</ele>
        <time>2026-09-16T08:36:46Z</time>
        <extensions>
          <geotracker:meta c="3.52" s="0.53" />
        </extensions>
      </trkpt>
      <trkpt lat="-15.78839946" lon="127.88243594">
        <ele>48.98</ele>
        <time>2026-09-16T08:38:52Z</time>
        <extensions>
          <geotracker:meta c="2.89" s="0.47" />
        </extensions>
      </trkpt>
    </trkseg>
  </trk>
</gpx>