<?xml version='1.0' encoding='UTF-8' standalone='yes' ?>
<gpx xmlns="http://www.topografix.com/GPX/1/1" xmlns:geotracker="http://ilyabogdanovich.com/gpx/extensions/geotracker" xmlns:xsi="http://www.w3.org/2001/XMLSchema-instance" xsi:schemaLocation="http://www.topografix.com/GPX/1/1 http://www.topografix.com/GPX/1/1/gpx.xsd" version="1.1" creator="Recorded in Geo Tracker for Android from Ilya Bogdanovich">
  <metadata>
    <name>Aug 30, 2026 11:36:34</name>
    <author>
      <name>Recorded in Geo Tracker for Android from Ilya Bogdanovich</name>
      <link href="https://play.google.com/store/apps/details?id=com.ilyabogdanovich.geotracker" />
    </author>
    <link href="https://play.google.com/store/apps/details?id=com.ilyabogdanovich.geotracker" />
    <time>2026-08-30T01:36:34Z</time>
  </metadata>
  <wpt lat="-23.54224624" lon="145.19802017">
    <ele>310.73</ele>
    <time>2026-08-30T01:52:42Z</time>
    <name>Stop for ~1 h 31 min</name>
    <desc>Elevation: 311 m
Time from start: 00:16:07
Distance from start: 6.71 km</desc>
    <extensions>
      <geotracker:meta emoji="⏱️" />
    </extensions>
  </wpt>
  <wpt lat="-23.51246912" lon="144.67012156">
    <ele>287.44</ele>
    <time>2026-08-30T04:13:34Z</time>
    <name>Stop for ~13 min</name>
    <desc>Elevation: 287 m
Time from start: 02:36:59
Distance from start: 32.45 km</desc>
    <extensions>
      <geotracker:meta emoji="⏱️" />
    </extensions>
  </wpt>
  <trk>
    <name>Aug 30, 2026 11:36:34</name>
    <src>Recorded in Geo Tracker for Android from Ilya Bogdanovich</src>
    <link href="https://play.google.com/store/apps/details?id=com.ilyabogdanovich.geotracker" />
    <extensions>
      <geotracker:meta>
        <geotracker:length>59711.82</geotracker:length>
        <geotracker:duration>15453585</geotracker:duration>
        <geotracker:creationtime>2026-08-30T01:36:34Z</geotracker:creationtime>
        <geotracker:activity>0</geotracker:activity>
      </geotracker:meta>
    </extensions>
    <trkseg>
      <trkpt lat="-23.55702568" lon="145.2863787">
        <ele>315.77</ele>
        <time>2026-08-30T01:37:25Z</time>
        <extensions>
          <geotracker:meta c="4.78" s="8.47" />
        </extensions>
      </trkpt>
      <trkpt lat="-23.5569755" lon="145.28551581">
        <ele>312.75</ele>
        <time>2026-08-30T01:37:37Z</time>
        <extensions>
          <geotracker:meta c="4.72" s="8.63" />
        </extensions>
      </trkpt>
      <trkpt lat="-23.55690678" lon="145.28456552">
        <ele>316.94</ele>
        <time>2026-08-30T01:37:47Z</time>
        <extensions>
          <geotracker:meta c="4.63" s="10.29" />
        </extensions>
      </trkpt>
      <trkpt lat="-23.55684798" lon="145.28379951">
        <ele>321.08</ele>
        <time>2026-08-30T01:37:57Z</time>
        <extensions>
          <geotracker:meta c="4.49" s="3.07" />
        </extensions>
      </trkpt>
      <trkpt lat="-23.55565491" lon="145.28379338">
        <ele>310.92</ele>
        <time>2026-08-30T01:38:17Z</time>
        <extensions>
          <geotracker:meta c="6.23" s="6.53" />
        </extensions>
      </trkpt>
      <trkpt lat="-23.55536606" lon="145.28369298">
        <ele>307.49</ele>
        <time>2026-08-30T01:44:02Z</time>
        <extensions>
          <geotracker:meta c="1.37" s="2.1" />
        </extensions>
      </trkpt>
      <trkpt lat="-23.55398881" lon="145.28397562">
        <ele>309.35</ele>
        <time>2026-08-30T01:44:22Z</time>
        <extensions>
          <geotracker:meta c="0.08" s="12.17" />
        </extensions>
      </trkpt>
      <trkpt lat="-23.55293957" lon="145.28398075">
        <ele>311.24</ele>
        <time>2026-08-30T01:44:32Z</time>
        <extensions>
          <geotracker:meta c="0.06" s="10.58" />
        </extensions>
      </trkpt>
      <trkpt lat="-23.55209791" lon="145.28346003">
        <ele>309.06</ele>
        <time>2026-08-30T01:44:52Z</time>
        <extensions>
          <geotracker:meta c="4.75" s="9.08" />
        </extensions>
      </trkpt>
      <trkpt lat="-23.55181902" lon="145.27931674">
        <ele>307.38</ele>
        <time>2026-08-30T01:45:22Z</time>
        <extensions>
          <geotracker:meta c="4.77" s="15.48" />
        </extensions>
      </trkpt>
      <trkpt lat="-23.55161767" lon="145.27630419">
        <ele>304.12</ele>
        <time>2026-08-30T01:45:42Z</time>
        <extensions>
          <geotracker:meta c="4.79" s="16.07" />
        </extensions>
      </trkpt>
      <trkpt lat="-23.55124016" lon="145.27047802">
        <ele>310.01</ele>
        <time>2026-08-30T01:46:12Z</time>
        <extensions>
          <geotracker:meta c="4.79" s="22.09" />
        </extensions>
      </trkpt>
      <trkpt lat="-23.550941" lon="145.26623898">
        <ele>314.36</ele>
        <time>2026-08-30T01:46:32Z</time>
        <extensions>
          <geotracker:meta c="4.78" s="22.31" />
        </extensions>
      </trkpt>
      <trkpt lat="-23.55072316" lon="145.26154256">
        <ele>315.27</ele>
        <time>2026-08-30T01:46:52Z</time>
        <extensions>
          <geotracker:meta c="4.77" s="25.47" />
        </extensions>
      </trkpt>
      <trkpt lat="-23.55044832" lon="145.25657621">
        <ele>311.86</ele>
        <time>2026-08-30T01:47:12Z</time>
        <extensions>
          <geotracker:meta c="4.78" s="25.11" />
        </extensions>
      </trkpt>
    </trkseg>
    <trkseg>
      <trkpt lat="-23.54893591" lon="145.22143201">
        <ele>305.42</ele>
        <time>2026-08-30T01:49:32Z</time>
        <extensions>
          <geotracker:meta c="4.7" s="24.87" />
        </extensions>
      </trkpt>
      <trkpt lat="-23.54888013" lon="145.21895164">
        <ele>308.86</ele>
        <time>2026-08-30T01:49:42Z</time>
        <extensions>
          <geotracker:meta c="4.8" s="25.38" />
        </extensions>
      </trkpt>
      <trkpt lat="-23.54846136" lon="145.2140963">
        <ele>303.25</ele>
        <time>2026-08-30T01:50:02Z</time>
        <extensions>
          <geotracker:meta c="4.81" s="25.2" />
        </extensions>
      </trkpt>
      <trkpt lat="-23.54800281" lon="145.20887492">
        <ele>309.02</ele>
        <time>2026-08-30T01:50:22Z</time>
        <extensions>
          <geotracker:meta c="4.8" s="27.05" />
        </extensions>
      </trkpt>
      <trkpt lat="-23.54716957" lon="145.1994664">
        <ele>313.95</ele>
        <time>2026-08-30T01:51:02Z</time>
        <extensions>
          <geotracker:meta c="4.8" s="21.85" />
        </extensions>
      </trkpt>
      <trkpt lat="-23.54691688" lon="145.19637713">
        <ele>318.65</ele>
        <time>2026-08-30T01:51:22Z</time>
        <extensions>
          <geotracker:meta c="4.8" s="9.95" />
        </extensions>
      </trkpt>
      <trkpt lat="-23.54562451" lon="145.19593992">
        <ele>316.69</ele>
        <time>2026-08-30T01:51:52Z</time>
        <extensions>
          <geotracker:meta c="0.4" s="5.12" />
        </extensions>
      </trkpt>
      <trkpt lat="-23.54496371" lon="145.19605456">
        <ele>317.04</ele>
        <time>2026-08-30T01:52:02Z</time>
        <extensions>
          <geotracker:meta c="0.07" s="9.16" />
        </extensions>
      </trkpt>
      <trkpt lat="-23.54330317" lon="145.19729176">
        <ele>312.01</ele>
        <time>2026-08-30T01:52:22Z</time>
        <extensions>
          <geotracker:meta c="0.63" s="10.84" />
        </extensions>
      </trkpt>
      <trkpt lat="-23.54224624" lon="145.19802017">
        <ele>310.73</ele>
        <time>2026-08-30T01:52:42Z</time>
        <extensions>
          <geotracker:meta c="1.88" s="3.4" />
        </extensions>
      </trkpt>
      <trkpt lat="-23.54405831" lon="145.19653516">
        <ele>316.64</ele>
        <time>2026-08-30T03:23:25Z</time>
        <extensions>
          <geotracker:meta c="3.94" s="6.48" />
        </extensions>
      </trkpt>
      <trkpt lat="-23.54501551" lon="145.19603108">
        <ele>314.53</ele>
        <time>2026-08-30T03:23:41Z</time>
        <extensions>
          <geotracker:meta c="3.23" s="8.05" />
        </extensions>
      </trkpt>
      <trkpt lat="-23.54665985" lon="145.19590773">
        <ele>319.71</ele>
        <time>2026-08-30T03:24:22Z</time>
        <extensions>
          <geotracker:meta c="2.99" s="4.54" />
        </extensions>
      </trkpt>
      <trkpt lat="-23.54664751" lon="145.19357459">
        <ele>315.85</ele>
        <time>2026-08-30T03:25:33Z</time>
        <extensions>
          <geotracker:meta c="4.79" s="16.86" />
        </extensions>
      </trkpt>
      <trkpt lat="-23.54612104" lon="145.18745158">
        <ele>312.18</ele>
        <time>2026-08-30T03:26:03Z</time>
        <extensions>
          <geotracker:meta c="4.8" s="24.33" />
        </extensions>
      </trkpt>
      <trkpt lat="-23.54549394" lon="145.18024137">
        <ele>314.45</ele>
        <time>2026-08-30T03:26:33Z</time>
        <extensions>
          <geotracker:meta c="4.81" s="26.35" />
        </extensions>
      </trkpt>
      <trkpt lat="-23.54487098" lon="145.17299448">
        <ele>318.51</ele>
        <time>2026-08-30T03:27:03Z</time>
        <extensions>
          <geotracker:meta c="4.8" s="24.24" />
        </extensions>
      </trkpt>
      <trkpt lat="-23.54445808" lon="145.16819619">
        <ele>314.11</ele>
        <time>2026-08-30T03:27:23Z</time>
        <extensions>
          <geotracker:meta c="4.81" s="24.74" />
        </extensions>
      </trkpt>
      <trkpt lat="-23.54424669" lon="145.16579402">
        <ele>316.82</ele>
        <time>2026-08-30T03:27:33Z</time>
        <extensions>
          <geotracker:meta c="4.8" s="24.62" />
        </extensions>
      </trkpt>
      <trkpt lat="-23.54404057" lon="145.16345073">
        <ele>317.52</ele>
        <time>2026-08-30T03:27:43Z</time>
        <extensions>
          <geotracker:meta c="4.81" s="23.86" />
        </extensions>
      </trkpt>
      <trkpt lat="-23.5436497" lon="145.1587102">
        <ele>319.58</ele>
        <time>2026-08-30T03:28:03Z</time>
        <extensions>
          <geotracker:meta c="4.78" s="24.74" />
        </extensions>
      </trkpt>
      <trkpt lat="-23.54332989" lon="145.15401242">
        <ele>319.73</ele>
        <time>2026-08-30T03:28:23Z</time>
        <extensions>
          <geotracker:meta c="4.78" s="24.45" />
        </extensions>
      </trkpt>
      <trkpt lat="-23.54300783" lon="145.14908768">
        <ele>317.11</ele>
        <time>2026-08-30T03:28:43Z</time>
        <extensions>
          <geotracker:meta c="4.79" s="25.73" />
        </extensions>
      </trkpt>
      <trkpt lat="-23.54248339" lon="145.14140358">
        <ele>319.76</ele>
        <time>2026-08-30T03:29:13Z</time>
        <extensions>
          <geotracker:meta c="4.78" s="27.22" />
        </extensions>
      </trkpt>
    </trkseg>
    <trkseg>
      <trkpt lat="-23.53943622" lon="145.09485904">
        <ele>315.05</ele>
        <time>2026-08-30T03:32:13Z</time>
        <extensions>
          <geotracker:meta c="4.81" s="24.89" />
        </extensions>
      </trkpt>
      <trkpt lat="-23.53904039" lon="145.08990758">
        <ele>310.27</ele>
        <time>2026-08-30T03:32:33Z</time>
        <extensions>
          <geotracker:meta c="4.78" s="25.57" />
        </extensions>
      </trkpt>
      <trkpt lat="-23.53886151" lon="145.08737733">
        <ele>310.02</ele>
        <time>2026-08-30T03:32:43Z</time>
        <extensions>
          <geotracker:meta c="4.79" s="26.09" />
        </extensions>
      </trkpt>
      <trkpt lat="-23.53869782" lon="145.08481372">
        <ele>309.83</ele>
        <time>2026-08-30T03:32:53Z</time>
        <extensions>
          <geotracker:meta c="4.79" s="26.25" />
        </extensions>
      </trkpt>
      <trkpt lat="-23.53852622" lon="145.08227447">
        <ele>311.07</ele>
        <time>2026-08-30T03:33:03Z</time>
        <extensions>
          <geotracker:meta c="4.79" s="25.71" />
        </extensions>
      </trkpt>
      <trkpt lat="-23.53806793" lon="145.07455585">
        <ele>311.47</ele>
        <time>2026-08-30T03:33:33Z</time>
        <extensions>
          <geotracker:meta c="4.71" s="25.31" />
        </extensions>
      </trkpt>
      <trkpt lat="-23.5380872" lon="145.07216903">
        <ele>310.75</ele>
        <time>2026-08-30T03:33:43Z</time>
        <extensions>
          <geotracker:meta c="4.71" s="23.81" />
        </extensions>
      </trkpt>
      <trkpt lat="-23.53811917" lon="145.06974072">
        <ele>312.86</ele>
        <time>2026-08-30T03:33:53Z</time>
        <extensions>
          <geotracker:meta c="4.7" s="25.4" />
        </extensions>
      </trkpt>
      <trkpt lat="-23.53815415" lon="145.06720129">
        <ele>312.98</ele>
        <time>2026-08-30T03:34:03Z</time>
        <extensions>
          <geotracker:meta c="4.7" s="26.21" />
        </extensions>
      </trkpt>
      <trkpt lat="-23.53817472" lon="145.06463006">
        <ele>316.22</ele>
        <time>2026-08-30T03:34:13Z</time>
        <extensions>
          <geotracker:meta c="4.71" s="26.3" />
        </extensions>
      </trkpt>
      <trkpt lat="-23.53809052" lon="145.06204852">
        <ele>313.54</ele>
        <time>2026-08-30T03:34:23Z</time>
        <extensions>
          <geotracker:meta c="4.76" s="26.89" />
        </extensions>
      </trkpt>
      <trkpt lat="-23.5376924" lon="145.05410449">
        <ele>312.74</ele>
        <time>2026-08-30T03:34:53Z</time>
        <extensions>
          <geotracker:meta c="4.76" s="26.7" />
        </extensions>
      </trkpt>
      <trkpt lat="-23.53732176" lon="145.04651368">
        <ele>311.93</ele>
        <time>2026-08-30T03:35:23Z</time>
        <extensions>
          <geotracker:meta c="4.76" s="25.21" />
        </extensions>
      </trkpt>
      <trkpt lat="-23.53707551" lon="145.04154579">
        <ele>316.16</ele>
        <time>2026-08-30T03:35:43Z</time>
        <extensions>
          <geotracker:meta c="4.76" s="25.45" />
        </extensions>
      </trkpt>
    </trkseg>
    <trkseg>
      <trkpt lat="-23.53237869" lon="144.95683594">
        <ele>308.38</ele>
        <time>2026-08-30T03:41:23Z</time>
        <extensions>
          <geotracker:meta c="4.79" s="26.16" />
        </extensions>
      </trkpt>
      <trkpt lat="-23.53217001" lon="144.95355014">
        <ele>308.16</ele>
        <time>2026-08-30T03:41:36Z</time>
        <extensions>
          <geotracker:meta c="4.8" s="25.24" />
        </extensions>
      </trkpt>
      <trkpt lat="-23.53226125" lon="144.94856834">
        <ele>306.66</ele>
        <time>2026-08-30T03:41:57Z</time>
        <extensions>
          <geotracker:meta c="4.58" s="24.15" />
        </extensions>
      </trkpt>
      <trkpt lat="-23.5323208" lon="144.94383663">
        <ele>305</ele>
        <time>2026-08-30T03:42:17Z</time>
        <extensions>
          <geotracker:meta c="4.78" s="24.09" />
        </extensions>
      </trkpt>
      <trkpt lat="-23.53204223" lon="144.94148419">
        <ele>307.06</ele>
        <time>2026-08-30T03:42:27Z</time>
        <extensions>
          <geotracker:meta c="4.92" s="24.35" />
        </extensions>
      </trkpt>
      <trkpt lat="-23.53087625" lon="144.93456048">
        <ele>309.9</ele>
        <time>2026-08-30T03:42:57Z</time>
        <extensions>
          <geotracker:meta c="4.79" s="23.1" />
        </extensions>
      </trkpt>
      <trkpt lat="-23.53024476" lon="144.92506226">
        <ele>302.5</ele>
        <time>2026-08-30T03:43:37Z</time>
        <extensions>
          <geotracker:meta c="4.79" s="24.89" />
        </extensions>
      </trkpt>
      <trkpt lat="-23.529769" lon="144.91780641">
        <ele>303.49</ele>
        <time>2026-08-30T03:44:07Z</time>
        <extensions>
          <geotracker:meta c="4.78" s="24.7" />
        </extensions>
      </trkpt>
      <trkpt lat="-23.52945425" lon="144.9129073">
        <ele>306.14</ele>
        <time>2026-08-30T03:44:27Z</time>
        <extensions>
          <geotracker:meta c="4.78" s="24.92" />
        </extensions>
      </trkpt>
      <trkpt lat="-23.52928716" lon="144.91048685">
        <ele>308.52</ele>
        <time>2026-08-30T03:44:37Z</time>
        <extensions>
          <geotracker:meta c="4.79" s="23.83" />
        </extensions>
      </trkpt>
      <trkpt lat="-23.52914473" lon="144.90837707">
        <ele>307.16</ele>
        <time>2026-08-30T03:44:47Z</time>
        <extensions>
          <geotracker:meta c="4.79" s="20.71" />
        </extensions>
      </trkpt>
      <trkpt lat="-23.52899505" lon="144.9061282">
        <ele>304.17</ele>
        <time>2026-08-30T03:44:57Z</time>
        <extensions>
          <geotracker:meta c="4.8" s="24.21" />
        </extensions>
      </trkpt>
      <trkpt lat="-23.52883099" lon="144.90376698">
        <ele>303.48</ele>
        <time>2026-08-30T03:45:07Z</time>
        <extensions>
          <geotracker:meta c="4.78" s="23.79" />
        </extensions>
      </trkpt>
      <trkpt lat="-23.52867701" lon="144.9014852">
        <ele>303.44</ele>
        <time>2026-08-30T03:45:17Z</time>
        <extensions>
          <geotracker:meta c="4.79" s="23.43" />
        </extensions>
      </trkpt>
      <trkpt lat="-23.52852347" lon="144.89920642">
        <ele>305.27</ele>
        <time>2026-08-30T03:45:27Z</time>
        <extensions>
          <geotracker:meta c="4.78" s="23.64" />
        </extensions>
      </trkpt>
      <trkpt lat="-23.52836737" lon="144.89683603">
        <ele>305.88</ele>
        <time>2026-08-30T03:45:37Z</time>
        <extensions>
          <geotracker:meta c="4.79" s="24.95" />
        </extensions>
      </trkpt>
      <trkpt lat="-23.528207" lon="144.89440627">
        <ele>304.91</ele>
        <time>2026-08-30T03:45:47Z</time>
        <extensions>
          <geotracker:meta c="4.77" s="24.12" />
        </extensions>
      </trkpt>
      <trkpt lat="-23.52806715" lon="144.89233832">
        <ele>307.2</ele>
        <time>2026-08-30T03:45:56Z</time>
        <extensions>
          <geotracker:meta c="4.78" s="23.13" />
        </extensions>
      </trkpt>
      <trkpt lat="-23.52790494" lon="144.89008818">
        <ele>309.93</ele>
        <time>2026-08-30T03:46:06Z</time>
        <extensions>
          <geotracker:meta c="4.81" s="23.03" />
        </extensions>
      </trkpt>
      <trkpt lat="-23.52766168" lon="144.88802042">
        <ele>307.71</ele>
        <time>2026-08-30T03:46:15Z</time>
        <extensions>
          <geotracker:meta c="4.85" s="24.26" />
        </extensions>
      </trkpt>
      <trkpt lat="-23.52722729" lon="144.88455972">
        <ele>305.97</ele>
        <time>2026-08-30T03:46:30Z</time>
        <extensions>
          <geotracker:meta c="4.85" s="23.94" />
        </extensions>
      </trkpt>
      <trkpt lat="-23.52692368" lon="144.88215093">
        <ele>308.13</ele>
        <time>2026-08-30T03:46:40Z</time>
        <extensions>
          <geotracker:meta c="4.85" s="25.32" />
        </extensions>
      </trkpt>
      <trkpt lat="-23.52660531" lon="144.8796333">
        <ele>303.4</ele>
        <time>2026-08-30T03:46:50Z</time>
        <extensions>
          <geotracker:meta c="4.85" s="26.18" />
        </extensions>
      </trkpt>
      <trkpt lat="-23.52597875" lon="144.8745015">
        <ele>297.68</ele>
        <time>2026-08-30T03:47:10Z</time>
        <extensions>
          <geotracker:meta c="4.85" s="26.13" />
        </extensions>
      </trkpt>
      <trkpt lat="-23.52529204" lon="144.86932914">
        <ele>301.77</ele>
        <time>2026-08-30T03:47:30Z</time>
        <extensions>
          <geotracker:meta c="4.85" s="26.51" />
        </extensions>
      </trkpt>
      <trkpt lat="-23.52498343" lon="144.86686392">
        <ele>301.49</ele>
        <time>2026-08-30T03:47:40Z</time>
        <extensions>
          <geotracker:meta c="4.84" s="25.17" />
        </extensions>
      </trkpt>
      <trkpt lat="-23.52467736" lon="144.86440963">
        <ele>304.89</ele>
        <time>2026-08-30T03:47:50Z</time>
        <extensions>
          <geotracker:meta c="4.86" s="25.46" />
        </extensions>
      </trkpt>
      <trkpt lat="-23.52403466" lon="144.85939007">
        <ele>309.01</ele>
        <time>2026-08-30T03:48:10Z</time>
        <extensions>
          <geotracker:meta c="4.85" s="26.87" />
        </extensions>
      </trkpt>
      <trkpt lat="-23.52323006" lon="144.85155737">
        <ele>307.7</ele>
        <time>2026-08-30T03:48:40Z</time>
        <extensions>
          <geotracker:meta c="4.78" s="26.47" />
        </extensions>
      </trkpt>
    </trkseg>
    <trkseg>
      <trkpt lat="-23.52120432" lon="144.82140198">
        <ele>318.71</ele>
        <time>2026-08-30T03:50:40Z</time>
        <extensions>
          <geotracker:meta c="4.78" s="24.95" />
        </extensions>
      </trkpt>
      <trkpt lat="-23.52105787" lon="144.81901315">
        <ele>322.23</ele>
        <time>2026-08-30T03:50:50Z</time>
        <extensions>
          <geotracker:meta c="4.79" s="24.59" />
        </extensions>
      </trkpt>
      <trkpt lat="-23.52071297" lon="144.81414203">
        <ele>321.89</ele>
        <time>2026-08-30T03:51:10Z</time>
        <extensions>
          <geotracker:meta c="4.79" s="25.19" />
        </extensions>
      </trkpt>
      <trkpt lat="-23.52012263" lon="144.80445057">
        <ele>316.87</ele>
        <time>2026-08-30T03:51:50Z</time>
        <extensions>
          <geotracker:meta c="4.77" s="24.7" />
        </extensions>
      </trkpt>
      <trkpt lat="-23.51992993" lon="144.80198881">
        <ele>318.25</ele>
        <time>2026-08-30T03:52:00Z</time>
        <extensions>
          <geotracker:meta c="4.78" s="25.99" />
        </extensions>
      </trkpt>
    </trkseg>
    <trkseg>
      <trkpt lat="-23.51329337" lon="144.69891337">
        <ele>286.55</ele>
        <time>2026-08-30T03:59:00Z</time>
        <extensions>
          <geotracker:meta c="4.93" s="25.47" />
        </extensions>
      </trkpt>
      <trkpt lat="-23.51268398" lon="144.69306019">
        <ele>285.9</ele>
        <time>2026-08-30T03:59:24Z</time>
        <extensions>
          <geotracker:meta c="4.78" s="25.31" />
        </extensions>
      </trkpt>
      <trkpt lat="-23.51219101" lon="144.68578109">
        <ele>286.23</ele>
        <time>2026-08-30T03:59:54Z</time>
        <extensions>
          <geotracker:meta c="4.78" s="26.05" />
        </extensions>
      </trkpt>
    </trkseg>
    <trkseg>
      <trkpt lat="-23.51246912" lon="144.67012156">
        <ele>287.44</ele>
        <time>2026-08-30T04:13:34Z</time>
        <extensions>
          <geotracker:meta c="4.9" s="7.3" />
        </extensions>
      </trkpt>
      <trkpt lat="-23.51274693" lon="144.66759845">
        <ele>285.12</ele>
        <time>2026-08-30T04:13:52Z</time>
        <extensions>
          <geotracker:meta c="4.58" s="19.74" />
        </extensions>
      </trkpt>
      <trkpt lat="-23.51298655" lon="144.66375807">
        <ele>285.78</ele>
        <time>2026-08-30T04:14:10Z</time>
        <extensions>
          <geotracker:meta c="4.76" s="22.89" />
        </extensions>
      </trkpt>
      <trkpt lat="-23.51277379" lon="144.66124143">
        <ele>283.59</ele>
        <time>2026-08-30T04:14:21Z</time>
        <extensions>
          <geotracker:meta c="4.81" s="24.64" />
        </extensions>
      </trkpt>
      <trkpt lat="-23.51257716" lon="144.65900313">
        <ele>281.65</ele>
        <time>2026-08-30T04:14:30Z</time>
        <extensions>
          <geotracker:meta c="4.81" s="26.26" />
        </extensions>
      </trkpt>
      <trkpt lat="-23.51236671" lon="144.65666036">
        <ele>279.2</ele>
        <time>2026-08-30T04:14:39Z</time>
        <extensions>
          <geotracker:meta c="4.81" s="26.75" />
        </extensions>
      </trkpt>
      <trkpt lat="-23.51215541" lon="144.65428063">
        <ele>276.92</ele>
        <time>2026-08-30T04:14:48Z</time>
        <extensions>
          <geotracker:meta c="4.81" s="27.46" />
        </extensions>
      </trkpt>
      <trkpt lat="-23.51194885" lon="144.65186132">
        <ele>275.41</ele>
        <time>2026-08-30T04:14:57Z</time>
        <extensions>
          <geotracker:meta c="4.8" s="27.18" />
        </extensions>
      </trkpt>
      <trkpt lat="-23.51158994" lon="144.64949416">
        <ele>274.58</ele>
        <time>2026-08-30T04:15:06Z</time>
        <extensions>
          <geotracker:meta c="4.95" s="27.45" />
        </extensions>
      </trkpt>
      <trkpt lat="-23.51104412" lon="144.64711983">
        <ele>275.75</ele>
        <time>2026-08-30T04:15:15Z</time>
        <extensions>
          <geotracker:meta c="4.96" s="28.01" />
        </extensions>
      </trkpt>
      <trkpt lat="-23.51049594" lon="144.64473542">
        <ele>277.65</ele>
        <time>2026-08-30T04:15:24Z</time>
        <extensions>
          <geotracker:meta c="4.96" s="27.58" />
        </extensions>
      </trkpt>
      <trkpt lat="-23.50995847" lon="144.64241388">
        <ele>279.42</ele>
        <time>2026-08-30T04:15:33Z</time>
        <extensions>
          <geotracker:meta c="4.95" s="26.81" />
        </extensions>
      </trkpt>
      <trkpt lat="-23.50899867" lon="144.63785859">
        <ele>281.46</ele>
        <time>2026-08-30T04:15:51Z</time>
        <extensions>
          <geotracker:meta c="4.85" s="25.92" />
        </extensions>
      </trkpt>
      <trkpt lat="-23.50882241" lon="144.63559314">
        <ele>281.49</ele>
        <time>2026-08-30T04:16:00Z</time>
        <extensions>
          <geotracker:meta c="4.79" s="26.2" />
        </extensions>
      </trkpt>
      <trkpt lat="-23.50866962" lon="144.63325855">
        <ele>281.16</ele>
        <time>2026-08-30T04:16:09Z</time>
        <extensions>
          <geotracker:meta c="4.78" s="26.53" />
        </extensions>
      </trkpt>
      <trkpt lat="-23.50851287" lon="144.63091551">
        <ele>280.18</ele>
        <time>2026-08-30T04:16:18Z</time>
        <extensions>
          <geotracker:meta c="4.78" s="26.95" />
        </extensions>
      </trkpt>
      <trkpt lat="-23.50835055" lon="144.6284935">
        <ele>278.83</ele>
        <time>2026-08-30T04:16:27Z</time>
        <extensions>
          <geotracker:meta c="4.78" s="27.81" />
        </extensions>
      </trkpt>
      <trkpt lat="-23.50818183" lon="144.62602485">
        <ele>278.04</ele>
        <time>2026-08-30T04:16:36Z</time>
        <extensions>
          <geotracker:meta c="4.79" s="28.49" />
        </extensions>
      </trkpt>
      <trkpt lat="-23.5080156" lon="144.62349708">
        <ele>276.4</ele>
        <time>2026-08-30T04:16:45Z</time>
        <extensions>
          <geotracker:meta c="4.79" s="28.88" />
        </extensions>
      </trkpt>
      <trkpt lat="-23.50784293" lon="144.62094309">
        <ele>275.49</ele>
        <time>2026-08-30T04:16:54Z</time>
        <extensions>
          <geotracker:meta c="4.79" s="28.74" />
        </extensions>
      </trkpt>
      <trkpt lat="-23.50768331" lon="144.61854239">
        <ele>274.85</ele>
        <time>2026-08-30T04:17:03Z</time>
        <extensions>
          <geotracker:meta c="4.79" s="27.29" />
        </extensions>
      </trkpt>
      <trkpt lat="-23.5073548" lon="144.61363935">
        <ele>273.85</ele>
        <time>2026-08-30T04:17:21Z</time>
        <extensions>
          <geotracker:meta c="4.78" s="28.17" />
        </extensions>
      </trkpt>
      <trkpt lat="-23.50719555" lon="144.61119979">
        <ele>274.9</ele>
        <time>2026-08-30T04:17:30Z</time>
        <extensions>
          <geotracker:meta c="4.79" s="27.51" />
        </extensions>
      </trkpt>
      <trkpt lat="-23.50702925" lon="144.60878618">
        <ele>274.28</ele>
        <time>2026-08-30T04:17:39Z</time>
        <extensions>
          <geotracker:meta c="4.78" s="27.72" />
        </extensions>
      </trkpt>
      <trkpt lat="-23.50686564" lon="144.6063359">
        <ele>272.21</ele>
        <time>2026-08-30T04:17:48Z</time>
        <extensions>
          <geotracker:meta c="4.78" s="28.13" />
        </extensions>
      </trkpt>
      <trkpt lat="-23.50669914" lon="144.60385478">
        <ele>270.63</ele>
        <time>2026-08-30T04:17:57Z</time>
        <extensions>
          <geotracker:meta c="4.78" s="28.49" />
        </extensions>
      </trkpt>
      <trkpt lat="-23.50653145" lon="144.60135124">
        <ele>269.89</ele>
        <time>2026-08-30T04:18:06Z</time>
        <extensions>
          <geotracker:meta c="4.79" s="28.7" />
        </extensions>
      </trkpt>
      <trkpt lat="-23.50636306" lon="144.59885257">
        <ele>268.37</ele>
        <time>2026-08-30T04:18:15Z</time>
        <extensions>
          <geotracker:meta c="4.79" s="28.13" />
        </extensions>
      </trkpt>
      <trkpt lat="-23.50620397" lon="144.59645556">
        <ele>269.22</ele>
        <time>2026-08-30T04:18:24Z</time>
        <extensions>
          <geotracker:meta c="4.79" s="27.32" />
        </extensions>
      </trkpt>
      <trkpt lat="-23.50604144" lon="144.59405877">
        <ele>270.27</ele>
        <time>2026-08-30T04:18:33Z</time>
        <extensions>
          <geotracker:meta c="4.78" s="27.34" />
        </extensions>
      </trkpt>
      <trkpt lat="-23.5057208" lon="144.58930039">
        <ele>266.64</ele>
        <time>2026-08-30T04:18:51Z</time>
        <extensions>
          <geotracker:meta c="4.79" s="26.17" />
        </extensions>
      </trkpt>
      <trkpt lat="-23.50556629" lon="144.58698126">
        <ele>266.82</ele>
        <time>2026-08-30T04:19:00Z</time>
        <extensions>
          <geotracker:meta c="4.79" s="26.53" />
        </extensions>
      </trkpt>
      <trkpt lat="-23.50541178" lon="144.58467686">
        <ele>268.62</ele>
        <time>2026-08-30T04:19:09Z</time>
        <extensions>
          <geotracker:meta c="4.79" s="26.18" />
        </extensions>
      </trkpt>
    </trkseg>
    <trkseg>
      <trkpt lat="-23.49255004" lon="144.51937069">
        <ele>258.13</ele>
        <time>2026-08-30T04:23:42Z</time>
        <extensions>
          <geotracker:meta c="5.14" s="25.34" />
        </extensions>
      </trkpt>
      <trkpt lat="-23.49179274" lon="144.51716718">
        <ele>254.42</ele>
        <time>2026-08-30T04:23:52Z</time>
        <extensions>
          <geotracker:meta c="4.98" s="21.94" />
        </extensions>
      </trkpt>
      <trkpt lat="-23.49080914" lon="144.51333966">
        <ele>260.07</ele>
        <time>2026-08-30T04:24:13Z</time>
        <extensions>
          <geotracker:meta c="4.98" s="17.41" />
        </extensions>
      </trkpt>
      <trkpt lat="-23.49047406" lon="144.51196858">
        <ele>259.97</ele>
        <time>2026-08-30T04:24:22Z</time>
        <extensions>
          <geotracker:meta c="4.94" s="14.82" />
        </extensions>
      </trkpt>
      <trkpt lat="-23.490238" lon="144.51061687">
        <ele>261.46</ele>
        <time>2026-08-30T04:24:32Z</time>
        <extensions>
          <geotracker:meta c="4.92" s="13.66" />
        </extensions>
      </trkpt>
      <trkpt lat="-23.4898162" lon="144.50885589">
        <ele>260.57</ele>
        <time>2026-08-30T04:24:52Z</time>
        <extensions>
          <geotracker:meta c="5" s="0.58" />
        </extensions>
      </trkpt>
      <trkpt lat="-23.48988958" lon="144.50890207">
        <ele>280.42</ele>
        <time>2026-08-30T04:26:55Z</time>
        <extensions>
          <geotracker:meta c="2.23" s="0.17" />
        </extensions>
      </trkpt>
      <trkpt lat="-23.48989069" lon="144.50890826">
        <ele>280.71</ele>
        <time>2026-08-30T04:29:15Z</time>
        <extensions>
          <geotracker:meta c="2.49" s="0.34" />
        </extensions>
      </trkpt>
      <trkpt lat="-23.4876191" lon="144.49966839">
        <ele>255.46</ele>
        <time>2026-08-30T05:17:20Z</time>
        <extensions>
          <geotracker:meta c="4.76" s="17.3" />
        </extensions>
      </trkpt>
    </trkseg>
    <trkseg>
      <trkpt lat="-23.48297046" lon="144.4703611">
        <ele>254.16</ele>
        <time>2026-08-30T05:19:39Z</time>
        <extensions>
          <geotracker:meta c="5.12" s="23.03" />
        </extensions>
      </trkpt>
      <trkpt lat="-23.47944897" lon="144.46145835">
        <ele>249.97</ele>
        <time>2026-08-30T05:20:20Z</time>
        <extensions>
          <geotracker:meta c="5.12" s="25.54" />
        </extensions>
      </trkpt>
      <trkpt lat="-23.47674395" lon="144.45459348">
        <ele>247.94</ele>
        <time>2026-08-30T05:20:49Z</time>
        <extensions>
          <geotracker:meta c="5.13" s="25.98" />
        </extensions>
      </trkpt>
      <trkpt lat="-23.47574893" lon="144.45205154">
        <ele>251.56</ele>
        <time>2026-08-30T05:21:00Z</time>
        <extensions>
          <geotracker:meta c="5.12" s="25.26" />
        </extensions>
      </trkpt>
      <trkpt lat="-23.47401262" lon="144.44758595">
        <ele>247.47</ele>
        <time>2026-08-30T05:21:20Z</time>
        <extensions>
          <geotracker:meta c="5.07" s="24.77" />
        </extensions>
      </trkpt>
      <trkpt lat="-23.47339354" lon="144.44523832">
        <ele>247.99</ele>
        <time>2026-08-30T05:21:30Z</time>
        <extensions>
          <geotracker:meta c="4.96" s="24.92" />
        </extensions>
      </trkpt>
      <trkpt lat="-23.47229867" lon="144.44058217">
        <ele>248.21</ele>
        <time>2026-08-30T05:21:50Z</time>
        <extensions>
          <geotracker:meta c="4.97" s="24.48" />
        </extensions>
      </trkpt>
      <trkpt lat="-23.4706606" lon="144.43361035">
        <ele>249.93</ele>
        <time>2026-08-30T05:22:20Z</time>
        <extensions>
          <geotracker:meta c="4.96" s="24.45" />
        </extensions>
      </trkpt>
      <trkpt lat="-23.4695493" lon="144.4288688">
        <ele>255.99</ele>
        <time>2026-08-30T05:22:40Z</time>
        <extensions>
          <geotracker:meta c="4.96" s="24.37" />
        </extensions>
      </trkpt>
    </trkseg>
    <trkseg>
      <trkpt lat="-23.46150589" lon="144.39776991">
        <ele>245.66</ele>
        <time>2026-08-30T05:24:50Z</time>
        <extensions>
          <geotracker:meta c="5.01" s="27.21" />
        </extensions>
      </trkpt>
      <trkpt lat="-23.46012956" lon="144.39291138">
        <ele>249.23</ele>
        <time>2026-08-30T05:25:10Z</time>
        <extensions>
          <geotracker:meta c="5.01" s="25.09" />
        </extensions>
      </trkpt>
    </trkseg>
    <trkseg>
      <trkpt lat="-23.4530834" lon="144.3661827">
        <ele>245.48</ele>
        <time>2026-08-30T05:27:00Z</time>
        <extensions>
          <geotracker:meta c="4.98" s="27.53" />
        </extensions>
      </trkpt>
      <trkpt lat="-23.45240202" lon="144.3635441">
        <ele>244.1</ele>
        <time>2026-08-30T05:27:10Z</time>
        <extensions>
          <geotracker:meta c="4.98" s="28" />
        </extensions>
      </trkpt>
      <trkpt lat="-23.45174478" lon="144.36100082">
        <ele>243.99</ele>
        <time>2026-08-30T05:27:20Z</time>
        <extensions>
          <geotracker:meta c="4.99" s="26.53" />
        </extensions>
      </trkpt>
      <trkpt lat="-23.44991493" lon="144.35393379">
        <ele>244.96</ele>
        <time>2026-08-30T05:27:50Z</time>
        <extensions>
          <geotracker:meta c="4.99" s="24.23" />
        </extensions>
      </trkpt>
    </trkseg>
    <trkseg>
      <trkpt lat="-23.44134129" lon="144.32040487">
        <ele>237.28</ele>
        <time>2026-08-30T05:30:18Z</time>
        <extensions>
          <geotracker:meta c="4.87" s="20.81" />
        </extensions>
      </trkpt>
      <trkpt lat="-23.44125312" lon="144.31848476">
        <ele>235.91</ele>
        <time>2026-08-30T05:30:27Z</time>
        <extensions>
          <geotracker:meta c="4.71" s="22.03" />
        </extensions>
      </trkpt>
      <trkpt lat="-23.44124319" lon="144.31649771">
        <ele>234.91</ele>
        <time>2026-08-30T05:30:36Z</time>
        <extensions>
          <geotracker:meta c="4.71" s="22.93" />
        </extensions>
      </trkpt>
      <trkpt lat="-23.44123106" lon="144.31445471">
        <ele>236.06</ele>
        <time>2026-08-30T05:30:45Z</time>
        <extensions>
          <geotracker:meta c="4.72" s="23.63" />
        </extensions>
      </trkpt>
      <trkpt lat="-23.44120976" lon="144.31027039">
        <ele>236.09</ele>
        <time>2026-08-30T05:31:03Z</time>
        <extensions>
          <geotracker:meta c="4.72" s="24.31" />
        </extensions>
      </trkpt>
      <trkpt lat="-23.44119553" lon="144.30811964">
        <ele>237.46</ele>
        <time>2026-08-30T05:31:12Z</time>
        <extensions>
          <geotracker:meta c="4.72" s="24.51" />
        </extensions>
      </trkpt>
      <trkpt lat="-23.44119503" lon="144.30382312">
        <ele>236.72</ele>
        <time>2026-08-30T05:31:30Z</time>
        <extensions>
          <geotracker:meta c="4.71" s="24.45" />
        </extensions>
      </trkpt>
      <trkpt lat="-23.44117779" lon="144.29925235">
        <ele>234.11</ele>
        <time>2026-08-30T05:31:49Z</time>
        <extensions>
          <geotracker:meta c="4.72" s="24.6" />
        </extensions>
      </trkpt>
      <trkpt lat="-23.44116932" lon="144.29708638">
        <ele>234.17</ele>
        <time>2026-08-30T05:31:58Z</time>
        <extensions>
          <geotracker:meta c="4.72" s="24.86" />
        </extensions>
      </trkpt>
      <trkpt lat="-23.44114635" lon="144.29229583">
        <ele>238.32</ele>
        <time>2026-08-30T05:32:18Z</time>
        <extensions>
          <geotracker:meta c="4.72" s="23.44" />
        </extensions>
      </trkpt>
      <trkpt lat="-23.44113177" lon="144.29001193">
        <ele>240.13</ele>
        <time>2026-08-30T05:32:28Z</time>
        <extensions>
          <geotracker:meta c="4.71" s="22.85" />
        </extensions>
      </trkpt>
      <trkpt lat="-23.44111966" lon="144.28541077">
        <ele>241.38</ele>
        <time>2026-08-30T05:32:50Z</time>
        <extensions>
          <geotracker:meta c="4.72" s="20.9" />
        </extensions>
      </trkpt>
      <trkpt lat="-23.44110198" lon="144.28331355">
        <ele>238.88</ele>
        <time>2026-08-30T05:33:00Z</time>
        <extensions>
          <geotracker:meta c="4.72" s="21.66" />
        </extensions>
      </trkpt>
      <trkpt lat="-23.44109326" lon="144.28122785">
        <ele>235.03</ele>
        <time>2026-08-30T05:33:10Z</time>
        <extensions>
          <geotracker:meta c="4.71" s="21.2" />
        </extensions>
      </trkpt>
      <trkpt lat="-23.44108933" lon="144.27911986">
        <ele>235.52</ele>
        <time>2026-08-30T05:33:20Z</time>
        <extensions>
          <geotracker:meta c="4.71" s="21.26" />
        </extensions>
      </trkpt>
      <trkpt lat="-23.44106745" lon="144.27709184">
        <ele>232.73</ele>
        <time>2026-08-30T05:33:30Z</time>
        <extensions>
          <geotracker:meta c="4.75" s="19.8" />
        </extensions>
      </trkpt>
      <trkpt lat="-23.44090796" lon="144.27529072">
        <ele>232.62</ele>
        <time>2026-08-30T05:33:40Z</time>
        <extensions>
          <geotracker:meta c="4.83" s="17.73" />
        </extensions>
      </trkpt>
      <trkpt lat="-23.44080657" lon="144.27208989">
        <ele>236.49</ele>
        <time>2026-08-30T05:34:00Z</time>
        <extensions>
          <geotracker:meta c="4.72" s="15.55" />
        </extensions>
      </trkpt>
      <trkpt lat="-23.44077215" lon="144.26897934">
        <ele>233.66</ele>
        <time>2026-08-30T05:34:20Z</time>
        <extensions>
          <geotracker:meta c="4.73" s="16.06" />
        </extensions>
      </trkpt>
      <trkpt lat="-23.44074707" lon="144.26604785">
        <ele>231.61</ele>
        <time>2026-08-30T05:34:40Z</time>
        <extensions>
          <geotracker:meta c="4.72" s="14.41" />
        </extensions>
      </trkpt>
      <trkpt lat="-23.44076838" lon="144.26001802">
        <ele>236.83</ele>
        <time>2026-08-30T05:35:20Z</time>
        <extensions>
          <geotracker:meta c="4.68" s="14.3" />
        </extensions>
      </trkpt>
      <trkpt lat="-23.44069995" lon="144.25460492">
        <ele>234</ele>
        <time>2026-08-30T05:36:00Z</time>
        <extensions>
          <geotracker:meta c="4.74" s="14" />
        </extensions>
      </trkpt>
      <trkpt lat="-23.44063151" lon="144.25101047">
        <ele>234.3</ele>
        <time>2026-08-30T05:36:30Z</time>
        <extensions>
          <geotracker:meta c="4.85" s="9.16" />
        </extensions>
      </trkpt>
      <trkpt lat="-23.44052056" lon="144.2486773">
        <ele>235.37</ele>
        <time>2026-08-30T05:37:00Z</time>
        <extensions>
          <geotracker:meta c="5.23" s="11.28" />
        </extensions>
      </trkpt>
      <trkpt lat="-23.43708883" lon="144.24389274">
        <ele>232.35</ele>
        <time>2026-08-30T05:37:40Z</time>
        <extensions>
          <geotracker:meta c="5.36" s="16.75" />
        </extensions>
      </trkpt>
      <trkpt lat="-23.43638236" lon="144.23906022">
        <ele>226.72</ele>
        <time>2026-08-30T05:38:20Z</time>
        <extensions>
          <geotracker:meta c="5.18" s="15.3" />
        </extensions>
      </trkpt>
      <trkpt lat="-23.4293283" lon="144.23426948">
        <ele>227.68</ele>
        <time>2026-08-30T05:39:10Z</time>
        <extensions>
          <geotracker:meta c="5.82" s="21.13" />
        </extensions>
      </trkpt>
    </trkseg>
    <trkseg>
      <trkpt lat="-23.41735775" lon="144.22413122">
        <ele>222.63</ele>
        <time>2026-08-30T05:42:50Z</time>
        <extensions>
          <geotracker:meta c="5.93" s="5.19" />
        </extensions>
      </trkpt>
      <trkpt lat="-23.41700408" lon="144.2232057">
        <ele>223.01</ele>
        <time>2026-08-30T05:43:20Z</time>
        <extensions>
          <geotracker:meta c="4.46" s="1.06" />
        </extensions>
      </trkpt>
      <trkpt lat="-23.41742853" lon="144.22213799">
        <ele>225.13</ele>
        <time>2026-08-30T05:45:20Z</time>
        <extensions>
          <geotracker:meta c="4.21" s="3.76" />
        </extensions>
      </trkpt>
      <trkpt lat="-23.41738939" lon="144.22116409">
        <ele>223.96</ele>
        <time>2026-08-30T05:46:00Z</time>
        <extensions>
          <geotracker:meta c="5.2" s="0.38" />
        </extensions>
      </trkpt>
      <trkpt lat="-23.41745731" lon="144.22064032">
        <ele>226.08</ele>
        <time>2026-08-30T05:46:40Z</time>
        <extensions>
          <geotracker:meta c="4.63" s="2.28" />
        </extensions>
      </trkpt>
      <trkpt lat="-23.41726283" lon="144.2199913">
        <ele>223.98</ele>
        <time>2026-08-30T05:47:20Z</time>
        <extensions>
          <geotracker:meta c="4.86" s="1.54" />
        </extensions>
      </trkpt>
      <trkpt lat="-23.41776824" lon="144.21912257">
        <ele>223.86</ele>
        <time>2026-08-30T05:48:30Z</time>
        <extensions>
          <geotracker:meta c="3.02" s="1.54" />
        </extensions>
      </trkpt>
      <trkpt lat="-23.41794575" lon="144.21840674">
        <ele>224.41</ele>
        <time>2026-08-30T05:49:15Z</time>
        <extensions>
          <geotracker:meta c="4.2" s="3.16" />
        </extensions>
      </trkpt>
      <trkpt lat="-23.41810616" lon="144.21771298">
        <ele>224.83</ele>
        <time>2026-08-30T05:49:35Z</time>
        <extensions>
          <geotracker:meta c="4.42" s="1.81" />
        </extensions>
      </trkpt>
      <trkpt lat="-23.4190145" lon="144.21649206">
        <ele>228.24</ele>
        <time>2026-08-30T05:50:35Z</time>
        <extensions>
          <geotracker:meta c="4.01" s="0.44" />
        </extensions>
      </trkpt>
      <trkpt lat="-23.41853804" lon="144.21701223">
        <ele>225.94</ele>
        <time>2026-08-30T05:51:55Z</time>
        <extensions>
          <geotracker:meta c="0.08" s="1.75" />
        </extensions>
      </trkpt>
    </trkseg>
  </trk>
</gpx>